{"type":"FeatureCollection","last_updated":"2026-04-02","name":"OpenFiberMap-Americas","features":[{"type":"Feature","geometry":{"type":"LineString","coordinates":[[-48.55,-27.6],[-51.23,-30.03]]},"properties":{"ofm_layer":"fiber-spans","span_id":"br-rnp--0001","network_id":"br-rnp","name":"RNP Florianópolis–Porto Alegre","operator":"RNP","operator_id":null,"country_iso":"BR","countries":["BR"],"region":"americas","status":"deployed","burial_type":"underground","length_km":375.7,"capacity_gbps":100,"capacity_class":"high","fiber_pairs":null,"fiber_type":null,"phase_id":null,"phase_name":null,"construction_start":null,"ready_for_service":null,"funders":[],"contracts":[],"source":"RNP","source_url":"https://www.rnp.br/en/network/infrastructure","license":"CC-BY-4.0","attribution":"RNP — Rede Nacional de Pesquisa (CC-BY) — https://www.rnp.br","last_updated":"2026-04-02","notes":"Approximate alignment from public RNP backbone maps. Not authoritative.","ofds_span_id":null,"osm_way_id":null}},{"type":"Feature","geometry":{"type":"LineString","coordinates":[[-51.23,-30.03],[-50.0,-28.5],[-49.27,-25.43]]},"properties":{"ofm_layer":"fiber-spans","span_id":"br-rnp--0002","network_id":"br-rnp","name":"RNP Porto Alegre–Curitiba","operator":"RNP","operator_id":null,"country_iso":"BR","countries":["BR"],"region":"americas","status":"deployed","burial_type":"underground","length_km":556.7,"capacity_gbps":100,"capacity_class":"high","fiber_pairs":null,"fiber_type":null,"phase_id":null,"phase_name":null,"construction_start":null,"ready_for_service":null,"funders":[],"contracts":[],"source":"RNP","source_url":"https://www.rnp.br/en/network/infrastructure","license":"CC-BY-4.0","attribution":"RNP — Rede Nacional de Pesquisa (CC-BY) — https://www.rnp.br","last_updated":"2026-04-02","notes":"Approximate alignment from public RNP backbone maps. Not authoritative.","ofds_span_id":null,"osm_way_id":null}},{"type":"Feature","geometry":{"type":"LineString","coordinates":[[-49.27,-25.43],[-48.9,-24.5],[-46.63,-23.55]]},"properties":{"ofm_layer":"fiber-spans","span_id":"br-rnp--0003","network_id":"br-rnp","name":"RNP Curitiba–São Paulo","operator":"RNP","operator_id":null,"country_iso":"BR","countries":["BR"],"region":"americas","status":"deployed","burial_type":"underground","length_km":363.5,"capacity_gbps":400,"capacity_class":"high","fiber_pairs":null,"fiber_type":null,"phase_id":null,"phase_name":null,"construction_start":null,"ready_for_service":null,"funders":[],"contracts":[],"source":"RNP","source_url":"https://www.rnp.br/en/network/infrastructure","license":"CC-BY-4.0","attribution":"RNP — Rede Nacional de Pesquisa (CC-BY) — https://www.rnp.br","last_updated":"2026-04-02","notes":"Approximate alignment from public RNP backbone maps. Not authoritative.","ofds_span_id":null,"osm_way_id":null}},{"type":"Feature","geometry":{"type":"LineString","coordinates":[[-46.63,-23.55],[-45.5,-23.0],[-43.17,-22.91]]},"properties":{"ofm_layer":"fiber-spans","span_id":"br-rnp--0004","network_id":"br-rnp","name":"RNP São Paulo–Rio de Janeiro","operator":"RNP","operator_id":null,"country_iso":"BR","countries":["BR"],"region":"americas","status":"deployed","burial_type":"underground","length_km":369.4,"capacity_gbps":400,"capacity_class":"high","fiber_pairs":null,"fiber_type":null,"phase_id":null,"phase_name":null,"construction_start":null,"ready_for_service":null,"funders":[],"contracts":[],"source":"RNP","source_url":"https://www.rnp.br/en/network/infrastructure","license":"CC-BY-4.0","attribution":"RNP — Rede Nacional de Pesquisa (CC-BY) — https://www.rnp.br","last_updated":"2026-04-02","notes":"Approximate alignment from public RNP backbone maps. Not authoritative.","ofds_span_id":null,"osm_way_id":null}},{"type":"Feature","geometry":{"type":"LineString","coordinates":[[-43.17,-22.91],[-43.5,-21.5],[-43.93,-19.92]]},"properties":{"ofm_layer":"fiber-spans","span_id":"br-rnp--0005","network_id":"br-rnp","name":"RNP Rio de Janeiro–Belo Horizonte","operator":"RNP","operator_id":null,"country_iso":"BR","countries":["BR"],"region":"americas","status":"deployed","burial_type":"underground","length_km":341.7,"capacity_gbps":200,"capacity_class":"high","fiber_pairs":null,"fiber_type":null,"phase_id":null,"phase_name":null,"construction_start":null,"ready_for_service":null,"funders":[],"contracts":[],"source":"RNP","source_url":"https://www.rnp.br/en/network/infrastructure","license":"CC-BY-4.0","attribution":"RNP — Rede Nacional de Pesquisa (CC-BY) — https://www.rnp.br","last_updated":"2026-04-02","notes":"Approximate alignment from public RNP backbone maps. Not authoritative.","ofds_span_id":null,"osm_way_id":null}},{"type":"Feature","geometry":{"type":"LineString","coordinates":[[-46.63,-23.55],[-46.0,-22.0],[-43.93,-19.92]]},"properties":{"ofm_layer":"fiber-spans","span_id":"br-rnp--0006","network_id":"br-rnp","name":"RNP São Paulo–Belo Horizonte","operator":"RNP","operator_id":null,"country_iso":"BR","countries":["BR"],"region":"americas","status":"deployed","burial_type":"underground","length_km":499.8,"capacity_gbps":200,"capacity_class":"high","fiber_pairs":null,"fiber_type":null,"phase_id":null,"phase_name":null,"construction_start":null,"ready_for_service":null,"funders":[],"contracts":[],"source":"RNP","source_url":"https://www.rnp.br/en/network/infrastructure","license":"CC-BY-4.0","attribution":"RNP — Rede Nacional de Pesquisa (CC-BY) — https://www.rnp.br","last_updated":"2026-04-02","notes":"Approximate alignment from public RNP backbone maps. Not authoritative.","ofds_span_id":null,"osm_way_id":null}},{"type":"Feature","geometry":{"type":"LineString","coordinates":[[-43.93,-19.92],[-46.5,-17.5],[-47.93,-15.78]]},"properties":{"ofm_layer":"fiber-spans","span_id":"br-rnp--0007","network_id":"br-rnp","name":"RNP Belo Horizonte–Brasília","operator":"RNP","operator_id":null,"country_iso":"BR","countries":["BR"],"region":"americas","status":"deployed","burial_type":"underground","length_km":626.2,"capacity_gbps":200,"capacity_class":"high","fiber_pairs":null,"fiber_type":null,"phase_id":null,"phase_name":null,"construction_start":null,"ready_for_service":null,"funders":[],"contracts":[],"source":"RNP","source_url":"https://www.rnp.br/en/network/infrastructure","license":"CC-BY-4.0","attribution":"RNP — Rede Nacional de Pesquisa (CC-BY) — https://www.rnp.br","last_updated":"2026-04-02","notes":"Approximate alignment from public RNP backbone maps. Not authoritative.","ofds_span_id":null,"osm_way_id":null}},{"type":"Feature","geometry":{"type":"LineString","coordinates":[[-46.63,-23.55],[-47.0,-20.0],[-47.93,-15.78]]},"properties":{"ofm_layer":"fiber-spans","span_id":"br-rnp--0008","network_id":"br-rnp","name":"RNP São Paulo–Brasília","operator":"RNP","operator_id":null,"country_iso":"BR","countries":["BR"],"region":"americas","status":"deployed","burial_type":"underground","length_km":876.0,"capacity_gbps":100,"capacity_class":"high","fiber_pairs":null,"fiber_type":null,"phase_id":null,"phase_name":null,"construction_start":null,"ready_for_service":null,"funders":[],"contracts":[],"source":"RNP","source_url":"https://www.rnp.br/en/network/infrastructure","license":"CC-BY-4.0","attribution":"RNP — Rede Nacional de Pesquisa (CC-BY) — https://www.rnp.br","last_updated":"2026-04-02","notes":"Approximate alignment from public RNP backbone maps. Not authoritative.","ofds_span_id":null,"osm_way_id":null}},{"type":"Feature","geometry":{"type":"LineString","coordinates":[[-47.93,-15.78],[-49.25,-16.69]]},"properties":{"ofm_layer":"fiber-spans","span_id":"br-rnp--0009","network_id":"br-rnp","name":"RNP Brasília–Goiânia","operator":"RNP","operator_id":null,"country_iso":"BR","countries":["BR"],"region":"americas","status":"deployed","burial_type":"underground","length_km":173.5,"capacity_gbps":100,"capacity_class":"high","fiber_pairs":null,"fiber_type":null,"phase_id":null,"phase_name":null,"construction_start":null,"ready_for_service":null,"funders":[],"contracts":[],"source":"RNP","source_url":"https://www.rnp.br/en/network/infrastructure","license":"CC-BY-4.0","attribution":"RNP — Rede Nacional de Pesquisa (CC-BY) — https://www.rnp.br","last_updated":"2026-04-02","notes":"Approximate alignment from public RNP backbone maps. Not authoritative.","ofds_span_id":null,"osm_way_id":null}},{"type":"Feature","geometry":{"type":"LineString","coordinates":[[-47.93,-15.78],[-52.0,-18.0],[-54.65,-20.47]]},"properties":{"ofm_layer":"fiber-spans","span_id":"br-rnp--0010","network_id":"br-rnp","name":"RNP Brasília–Campo Grande","operator":"RNP","operator_id":null,"country_iso":"BR","countries":["BR"],"region":"americas","status":"deployed","burial_type":"underground","length_km":889.3,"capacity_gbps":40,"capacity_class":"medium","fiber_pairs":null,"fiber_type":null,"phase_id":null,"phase_name":null,"construction_start":null,"ready_for_service":null,"funders":[],"contracts":[],"source":"RNP","source_url":"https://www.rnp.br/en/network/infrastructure","license":"CC-BY-4.0","attribution":"RNP — Rede Nacional de Pesquisa (CC-BY) — https://www.rnp.br","last_updated":"2026-04-02","notes":"Approximate alignment from public RNP backbone maps. Not authoritative.","ofds_span_id":null,"osm_way_id":null}},{"type":"Feature","geometry":{"type":"LineString","coordinates":[[-43.93,-19.92],[-42.0,-16.0],[-38.52,-12.97]]},"properties":{"ofm_layer":"fiber-spans","span_id":"br-rnp--0011","network_id":"br-rnp","name":"RNP Belo Horizonte–Salvador","operator":"RNP","operator_id":null,"country_iso":"BR","countries":["BR"],"region":"americas","status":"deployed","burial_type":"underground","length_km":985.1,"capacity_gbps":100,"capacity_class":"high","fiber_pairs":null,"fiber_type":null,"phase_id":null,"phase_name":null,"construction_start":null,"ready_for_service":null,"funders":[],"contracts":[],"source":"RNP","source_url":"https://www.rnp.br/en/network/infrastructure","license":"CC-BY-4.0","attribution":"RNP — Rede Nacional de Pesquisa (CC-BY) — https://www.rnp.br","last_updated":"2026-04-02","notes":"Approximate alignment from public RNP backbone maps. Not authoritative.","ofds_span_id":null,"osm_way_id":null}},{"type":"Feature","geometry":{"type":"LineString","coordinates":[[-38.52,-12.97],[-37.0,-10.5],[-35.0,-8.8],[-34.88,-8.05]]},"properties":{"ofm_layer":"fiber-spans","span_id":"br-rnp--0012","network_id":"br-rnp","name":"RNP Salvador–Recife","operator":"RNP","operator_id":null,"country_iso":"BR","countries":["BR"],"region":"americas","status":"deployed","burial_type":"underground","length_km":694.6,"capacity_gbps":100,"capacity_class":"high","fiber_pairs":null,"fiber_type":null,"phase_id":null,"phase_name":null,"construction_start":null,"ready_for_service":null,"funders":[],"contracts":[],"source":"RNP","source_url":"https://www.rnp.br/en/network/infrastructure","license":"CC-BY-4.0","attribution":"RNP — Rede Nacional de Pesquisa (CC-BY) — https://www.rnp.br","last_updated":"2026-04-02","notes":"Approximate alignment from public RNP backbone maps. Not authoritative.","ofds_span_id":null,"osm_way_id":null}},{"type":"Feature","geometry":{"type":"LineString","coordinates":[[-34.88,-8.05],[-35.5,-5.8],[-36.0,-4.5],[-38.54,-3.72]]},"properties":{"ofm_layer":"fiber-spans","span_id":"br-rnp--0013","network_id":"br-rnp","name":"RNP Recife–Fortaleza","operator":"RNP","operator_id":null,"country_iso":"BR","countries":["BR"],"region":"americas","status":"deployed","burial_type":"underground","length_km":708.9,"capacity_gbps":100,"capacity_class":"high","fiber_pairs":null,"fiber_type":null,"phase_id":null,"phase_name":null,"construction_start":null,"ready_for_service":null,"funders":[],"contracts":[],"source":"RNP","source_url":"https://www.rnp.br/en/network/infrastructure","license":"CC-BY-4.0","attribution":"RNP — Rede Nacional de Pesquisa (CC-BY) — https://www.rnp.br","last_updated":"2026-04-02","notes":"Approximate alignment from public RNP backbone maps. Not authoritative.","ofds_span_id":null,"osm_way_id":null}},{"type":"Feature","geometry":{"type":"LineString","coordinates":[[-38.54,-3.72],[-40.35,-5.09],[-42.8,-5.09]]},"properties":{"ofm_layer":"fiber-spans","span_id":"br-rnp--0014","network_id":"br-rnp","name":"RNP Fortaleza–Teresina","operator":"RNP","operator_id":null,"country_iso":"BR","countries":["BR"],"region":"americas","status":"deployed","burial_type":"underground","length_km":523.3,"capacity_gbps":40,"capacity_class":"medium","fiber_pairs":null,"fiber_type":null,"phase_id":null,"phase_name":null,"construction_start":null,"ready_for_service":null,"funders":[],"contracts":[],"source":"RNP","source_url":"https://www.rnp.br/en/network/infrastructure","license":"CC-BY-4.0","attribution":"RNP — Rede Nacional de Pesquisa (CC-BY) — https://www.rnp.br","last_updated":"2026-04-02","notes":"Approximate alignment from public RNP backbone maps. Not authoritative.","ofds_span_id":null,"osm_way_id":null}},{"type":"Feature","geometry":{"type":"LineString","coordinates":[[-38.54,-3.72],[-36.0,-3.8],[-35.21,-5.79]]},"properties":{"ofm_layer":"fiber-spans","span_id":"br-rnp--0015","network_id":"br-rnp","name":"RNP Fortaleza–Natal","operator":"RNP","operator_id":null,"country_iso":"BR","countries":["BR"],"region":"americas","status":"deployed","burial_type":"underground","length_km":519.9,"capacity_gbps":40,"capacity_class":"medium","fiber_pairs":null,"fiber_type":null,"phase_id":null,"phase_name":null,"construction_start":null,"ready_for_service":null,"funders":[],"contracts":[],"source":"RNP","source_url":"https://www.rnp.br/en/network/infrastructure","license":"CC-BY-4.0","attribution":"RNP — Rede Nacional de Pesquisa (CC-BY) — https://www.rnp.br","last_updated":"2026-04-02","notes":"Approximate alignment from public RNP backbone maps. Not authoritative.","ofds_span_id":null,"osm_way_id":null}},{"type":"Feature","geometry":{"type":"LineString","coordinates":[[-47.93,-15.78],[-48.5,-10.0],[-48.5,-5.0],[-48.5,-1.46]]},"properties":{"ofm_layer":"fiber-spans","span_id":"br-rnp--0016","network_id":"br-rnp","name":"RNP Brasília–Belém (GESAC-aligned)","operator":"RNP","operator_id":null,"country_iso":"BR","countries":["BR"],"region":"americas","status":"deployed","burial_type":"underground","length_km":1595.3,"capacity_gbps":40,"capacity_class":"medium","fiber_pairs":null,"fiber_type":null,"phase_id":null,"phase_name":null,"construction_start":null,"ready_for_service":null,"funders":[],"contracts":[],"source":"RNP","source_url":"https://www.rnp.br/en/network/infrastructure","license":"CC-BY-4.0","attribution":"RNP — Rede Nacional de Pesquisa (CC-BY) — https://www.rnp.br","last_updated":"2026-04-02","notes":"Approximate alignment from public RNP backbone maps. Not authoritative.","ofds_span_id":null,"osm_way_id":null}},{"type":"Feature","geometry":{"type":"LineString","coordinates":[[-48.5,-1.46],[-51.0,0.5],[-51.07,0.04]]},"properties":{"ofm_layer":"fiber-spans","span_id":"br-rnp--0017","network_id":"br-rnp","name":"RNP Belém–Macapá","operator":"RNP","operator_id":null,"country_iso":"BR","countries":["BR"],"region":"americas","status":"deployed","burial_type":"underground","length_km":405.0,"capacity_gbps":10,"capacity_class":"medium","fiber_pairs":null,"fiber_type":null,"phase_id":null,"phase_name":null,"construction_start":null,"ready_for_service":null,"funders":[],"contracts":[],"source":"RNP","source_url":"https://www.rnp.br/en/network/infrastructure","license":"CC-BY-4.0","attribution":"RNP — Rede Nacional de Pesquisa (CC-BY) — https://www.rnp.br","last_updated":"2026-04-02","notes":"Approximate alignment from public RNP backbone maps. Not authoritative.","ofds_span_id":null,"osm_way_id":null}},{"type":"Feature","geometry":{"type":"LineString","coordinates":[[-48.5,-1.46],[-52.0,-3.0],[-55.0,-3.1],[-60.02,-3.1]]},"properties":{"ofm_layer":"fiber-spans","span_id":"br-rnp--0018","network_id":"br-rnp","name":"RNP Belém–Manaus (partial)","operator":"RNP","operator_id":null,"country_iso":"BR","countries":["BR"],"region":"americas","status":"deployed","burial_type":"underground","length_km":1315.6,"capacity_gbps":10,"capacity_class":"medium","fiber_pairs":null,"fiber_type":null,"phase_id":null,"phase_name":null,"construction_start":null,"ready_for_service":null,"funders":[],"contracts":[],"source":"RNP","source_url":"https://www.rnp.br/en/network/infrastructure","license":"CC-BY-4.0","attribution":"RNP — Rede Nacional de Pesquisa (CC-BY) — https://www.rnp.br","last_updated":"2026-04-02","notes":"Approximate alignment from public RNP backbone maps. Not authoritative.","ofds_span_id":null,"osm_way_id":null}},{"type":"Feature","geometry":{"type":"LineString","coordinates":[[-48.55,-27.6],[-48.6,-26.9],[-48.52,-26.0],[-46.63,-23.55]]},"properties":{"ofm_layer":"fiber-spans","span_id":"br-rnp--0019","network_id":"br-rnp","name":"RNP Florianópolis–São Paulo (coastal)","operator":"RNP","operator_id":null,"country_iso":"BR","countries":["BR"],"region":"americas","status":"deployed","burial_type":"underground","length_km":511.0,"capacity_gbps":100,"capacity_class":"high","fiber_pairs":null,"fiber_type":null,"phase_id":null,"phase_name":null,"construction_start":null,"ready_for_service":null,"funders":[],"contracts":[],"source":"RNP","source_url":"https://www.rnp.br/en/network/infrastructure","license":"CC-BY-4.0","attribution":"RNP — Rede Nacional de Pesquisa (CC-BY) — https://www.rnp.br","last_updated":"2026-04-02","notes":"Approximate alignment from public RNP backbone maps. Not authoritative.","ofds_span_id":null,"osm_way_id":null}},{"type":"Feature","geometry":{"type":"Point","coordinates":[-46.63,-23.55]},"properties":{"ofm_layer":"fiber-nodes","node_id":"pop-br-rnp-pop-sao-paulo-01","network_id":"br-rnp","name":"RNP PoP São Paulo","name_short":null,"operator":"RNP","node_type":"pop","status":"operational","city":"São Paulo","country_iso":"BR","region":"americas","address":null,"floor_space_sqm":null,"power_mw":null,"connected_networks":[],"peeringdb_id":null,"peeringdb_ix_id":null,"website":null,"source":"RNP","source_url":"https://www.rnp.br/en/network/infrastructure","license":"CC-BY-4.0","attribution":"RNP — Rede Nacional de Pesquisa (CC-BY) — https://www.rnp.br","last_updated":"2026-04-02","notes":"Coordinates approximate (city PoP location).","osm_node_id":null}},{"type":"Feature","geometry":{"type":"Point","coordinates":[-43.17,-22.91]},"properties":{"ofm_layer":"fiber-nodes","node_id":"pop-br-rnp-pop-rio-de-janeiro-01","network_id":"br-rnp","name":"RNP PoP Rio de Janeiro","name_short":null,"operator":"RNP","node_type":"pop","status":"operational","city":"Rio de Janeiro","country_iso":"BR","region":"americas","address":null,"floor_space_sqm":null,"power_mw":null,"connected_networks":[],"peeringdb_id":null,"peeringdb_ix_id":null,"website":null,"source":"RNP","source_url":"https://www.rnp.br/en/network/infrastructure","license":"CC-BY-4.0","attribution":"RNP — Rede Nacional de Pesquisa (CC-BY) — https://www.rnp.br","last_updated":"2026-04-02","notes":"Coordinates approximate (city PoP location).","osm_node_id":null}},{"type":"Feature","geometry":{"type":"Point","coordinates":[-47.93,-15.78]},"properties":{"ofm_layer":"fiber-nodes","node_id":"pop-br-rnp-pop-brasilia-01","network_id":"br-rnp","name":"RNP PoP Brasília","name_short":null,"operator":"RNP","node_type":"pop","status":"operational","city":"Brasília","country_iso":"BR","region":"americas","address":null,"floor_space_sqm":null,"power_mw":null,"connected_networks":[],"peeringdb_id":null,"peeringdb_ix_id":null,"website":null,"source":"RNP","source_url":"https://www.rnp.br/en/network/infrastructure","license":"CC-BY-4.0","attribution":"RNP — Rede Nacional de Pesquisa (CC-BY) — https://www.rnp.br","last_updated":"2026-04-02","notes":"Coordinates approximate (city PoP location).","osm_node_id":null}},{"type":"Feature","geometry":{"type":"Point","coordinates":[-43.93,-19.92]},"properties":{"ofm_layer":"fiber-nodes","node_id":"pop-br-rnp-pop-belo-horizonte-01","network_id":"br-rnp","name":"RNP PoP Belo Horizonte","name_short":null,"operator":"RNP","node_type":"pop","status":"operational","city":"Belo Horizonte","country_iso":"BR","region":"americas","address":null,"floor_space_sqm":null,"power_mw":null,"connected_networks":[],"peeringdb_id":null,"peeringdb_ix_id":null,"website":null,"source":"RNP","source_url":"https://www.rnp.br/en/network/infrastructure","license":"CC-BY-4.0","attribution":"RNP — Rede Nacional de Pesquisa (CC-BY) — https://www.rnp.br","last_updated":"2026-04-02","notes":"Coordinates approximate (city PoP location).","osm_node_id":null}},{"type":"Feature","geometry":{"type":"Point","coordinates":[-38.52,-12.97]},"properties":{"ofm_layer":"fiber-nodes","node_id":"pop-br-rnp-pop-salvador-01","network_id":"br-rnp","name":"RNP PoP Salvador","name_short":null,"operator":"RNP","node_type":"pop","status":"operational","city":"Salvador","country_iso":"BR","region":"americas","address":null,"floor_space_sqm":null,"power_mw":null,"connected_networks":[],"peeringdb_id":null,"peeringdb_ix_id":null,"website":null,"source":"RNP","source_url":"https://www.rnp.br/en/network/infrastructure","license":"CC-BY-4.0","attribution":"RNP — Rede Nacional de Pesquisa (CC-BY) — https://www.rnp.br","last_updated":"2026-04-02","notes":"Coordinates approximate (city PoP location).","osm_node_id":null}},{"type":"Feature","geometry":{"type":"Point","coordinates":[-34.88,-8.05]},"properties":{"ofm_layer":"fiber-nodes","node_id":"pop-br-rnp-pop-recife-01","network_id":"br-rnp","name":"RNP PoP Recife","name_short":null,"operator":"RNP","node_type":"pop","status":"operational","city":"Recife","country_iso":"BR","region":"americas","address":null,"floor_space_sqm":null,"power_mw":null,"connected_networks":[],"peeringdb_id":null,"peeringdb_ix_id":null,"website":null,"source":"RNP","source_url":"https://www.rnp.br/en/network/infrastructure","license":"CC-BY-4.0","attribution":"RNP — Rede Nacional de Pesquisa (CC-BY) — https://www.rnp.br","last_updated":"2026-04-02","notes":"Coordinates approximate (city PoP location).","osm_node_id":null}},{"type":"Feature","geometry":{"type":"Point","coordinates":[-38.54,-3.72]},"properties":{"ofm_layer":"fiber-nodes","node_id":"pop-br-rnp-pop-fortaleza-01","network_id":"br-rnp","name":"RNP PoP Fortaleza","name_short":null,"operator":"RNP","node_type":"pop","status":"operational","city":"Fortaleza","country_iso":"BR","region":"americas","address":null,"floor_space_sqm":null,"power_mw":null,"connected_networks":[],"peeringdb_id":null,"peeringdb_ix_id":null,"website":null,"source":"RNP","source_url":"https://www.rnp.br/en/network/infrastructure","license":"CC-BY-4.0","attribution":"RNP — Rede Nacional de Pesquisa (CC-BY) — https://www.rnp.br","last_updated":"2026-04-02","notes":"Coordinates approximate (city PoP location).","osm_node_id":null}},{"type":"Feature","geometry":{"type":"Point","coordinates":[-51.23,-30.03]},"properties":{"ofm_layer":"fiber-nodes","node_id":"pop-br-rnp-pop-porto-alegre-01","network_id":"br-rnp","name":"RNP PoP Porto Alegre","name_short":null,"operator":"RNP","node_type":"pop","status":"operational","city":"Porto Alegre","country_iso":"BR","region":"americas","address":null,"floor_space_sqm":null,"power_mw":null,"connected_networks":[],"peeringdb_id":null,"peeringdb_ix_id":null,"website":null,"source":"RNP","source_url":"https://www.rnp.br/en/network/infrastructure","license":"CC-BY-4.0","attribution":"RNP — Rede Nacional de Pesquisa (CC-BY) — https://www.rnp.br","last_updated":"2026-04-02","notes":"Coordinates approximate (city PoP location).","osm_node_id":null}},{"type":"Feature","geometry":{"type":"Point","coordinates":[-49.27,-25.43]},"properties":{"ofm_layer":"fiber-nodes","node_id":"pop-br-rnp-pop-curitiba-01","network_id":"br-rnp","name":"RNP PoP Curitiba","name_short":null,"operator":"RNP","node_type":"pop","status":"operational","city":"Curitiba","country_iso":"BR","region":"americas","address":null,"floor_space_sqm":null,"power_mw":null,"connected_networks":[],"peeringdb_id":null,"peeringdb_ix_id":null,"website":null,"source":"RNP","source_url":"https://www.rnp.br/en/network/infrastructure","license":"CC-BY-4.0","attribution":"RNP — Rede Nacional de Pesquisa (CC-BY) — https://www.rnp.br","last_updated":"2026-04-02","notes":"Coordinates approximate (city PoP location).","osm_node_id":null}},{"type":"Feature","geometry":{"type":"Point","coordinates":[-48.55,-27.6]},"properties":{"ofm_layer":"fiber-nodes","node_id":"pop-br-rnp-pop-florianopolis-01","network_id":"br-rnp","name":"RNP PoP Florianópolis","name_short":null,"operator":"RNP","node_type":"pop","status":"operational","city":"Florianópolis","country_iso":"BR","region":"americas","address":null,"floor_space_sqm":null,"power_mw":null,"connected_networks":[],"peeringdb_id":null,"peeringdb_ix_id":null,"website":null,"source":"RNP","source_url":"https://www.rnp.br/en/network/infrastructure","license":"CC-BY-4.0","attribution":"RNP — Rede Nacional de Pesquisa (CC-BY) — https://www.rnp.br","last_updated":"2026-04-02","notes":"Coordinates approximate (city PoP location).","osm_node_id":null}},{"type":"Feature","geometry":{"type":"Point","coordinates":[-60.02,-3.1]},"properties":{"ofm_layer":"fiber-nodes","node_id":"pop-br-rnp-pop-manaus-01","network_id":"br-rnp","name":"RNP PoP Manaus","name_short":null,"operator":"RNP","node_type":"pop","status":"operational","city":"Manaus","country_iso":"BR","region":"americas","address":null,"floor_space_sqm":null,"power_mw":null,"connected_networks":[],"peeringdb_id":null,"peeringdb_ix_id":null,"website":null,"source":"RNP","source_url":"https://www.rnp.br/en/network/infrastructure","license":"CC-BY-4.0","attribution":"RNP — Rede Nacional de Pesquisa (CC-BY) — https://www.rnp.br","last_updated":"2026-04-02","notes":"Coordinates approximate (city PoP location).","osm_node_id":null}},{"type":"Feature","geometry":{"type":"Point","coordinates":[-48.5,-1.46]},"properties":{"ofm_layer":"fiber-nodes","node_id":"pop-br-rnp-pop-belem-01","network_id":"br-rnp","name":"RNP PoP Belém","name_short":null,"operator":"RNP","node_type":"pop","status":"operational","city":"Belém","country_iso":"BR","region":"americas","address":null,"floor_space_sqm":null,"power_mw":null,"connected_networks":[],"peeringdb_id":null,"peeringdb_ix_id":null,"website":null,"source":"RNP","source_url":"https://www.rnp.br/en/network/infrastructure","license":"CC-BY-4.0","attribution":"RNP — Rede Nacional de Pesquisa (CC-BY) — https://www.rnp.br","last_updated":"2026-04-02","notes":"Coordinates approximate (city PoP location).","osm_node_id":null}},{"type":"Feature","geometry":{"type":"Point","coordinates":[-49.25,-16.69]},"properties":{"ofm_layer":"fiber-nodes","node_id":"pop-br-rnp-pop-goiania-01","network_id":"br-rnp","name":"RNP PoP Goiânia","name_short":null,"operator":"RNP","node_type":"pop","status":"operational","city":"Goiânia","country_iso":"BR","region":"americas","address":null,"floor_space_sqm":null,"power_mw":null,"connected_networks":[],"peeringdb_id":null,"peeringdb_ix_id":null,"website":null,"source":"RNP","source_url":"https://www.rnp.br/en/network/infrastructure","license":"CC-BY-4.0","attribution":"RNP — Rede Nacional de Pesquisa (CC-BY) — https://www.rnp.br","last_updated":"2026-04-02","notes":"Coordinates approximate (city PoP location).","osm_node_id":null}},{"type":"Feature","geometry":{"type":"Point","coordinates":[-46.63,-23.55]},"properties":{"ofm_layer":"fiber-nodes","node_id":"ixp-br-ixbr-sao-paulo-ptt-metro-sp-01","network_id":"br-nicbr-ixbr","name":"IX.br São Paulo (PTT Metro SP)","name_short":"IX.br SP","operator":"NIC.br / IX.br","node_type":"ixp","status":"operational","city":"São Paulo","country_iso":"BR","region":"americas","address":null,"floor_space_sqm":null,"power_mw":null,"connected_networks":[],"peeringdb_id":null,"peeringdb_ix_id":null,"website":null,"source":"RNP","source_url":"https://www.rnp.br/en/network/infrastructure","license":"CC-BY-4.0","attribution":"RNP — Rede Nacional de Pesquisa (CC-BY) — https://www.rnp.br","last_updated":"2026-04-02","notes":"Coordinates approximate (city PoP location).","osm_node_id":null}},{"type":"Feature","geometry":{"type":"Point","coordinates":[-43.17,-22.91]},"properties":{"ofm_layer":"fiber-nodes","node_id":"ixp-br-ixbr-rio-de-janeiro-01","network_id":"br-nicbr-ixbr","name":"IX.br Rio de Janeiro","name_short":"IX.br RJ","operator":"NIC.br / IX.br","node_type":"ixp","status":"operational","city":"Rio de Janeiro","country_iso":"BR","region":"americas","address":null,"floor_space_sqm":null,"power_mw":null,"connected_networks":[],"peeringdb_id":null,"peeringdb_ix_id":null,"website":null,"source":"RNP","source_url":"https://www.rnp.br/en/network/infrastructure","license":"CC-BY-4.0","attribution":"RNP — Rede Nacional de Pesquisa (CC-BY) — https://www.rnp.br","last_updated":"2026-04-02","notes":"Coordinates approximate (city PoP location).","osm_node_id":null}},{"type":"Feature","geometry":{"type":"Point","coordinates":[-38.54,-3.72]},"properties":{"ofm_layer":"fiber-nodes","node_id":"ixp-br-ixbr-fortaleza-01","network_id":"br-nicbr-ixbr","name":"IX.br Fortaleza","name_short":"IX.br FOR","operator":"NIC.br / IX.br","node_type":"ixp","status":"operational","city":"Fortaleza","country_iso":"BR","region":"americas","address":null,"floor_space_sqm":null,"power_mw":null,"connected_networks":[],"peeringdb_id":null,"peeringdb_ix_id":null,"website":null,"source":"RNP","source_url":"https://www.rnp.br/en/network/infrastructure","license":"CC-BY-4.0","attribution":"RNP — Rede Nacional de Pesquisa (CC-BY) — https://www.rnp.br","last_updated":"2026-04-02","notes":"Coordinates approximate (city PoP location).","osm_node_id":null}},{"type":"Feature","geometry":{"type":"Point","coordinates":[-46.41,-24.01]},"properties":{"ofm_layer":"fiber-nodes","node_id":"ls-br-seabras-1-sao-paulo-landing-station-pra-01","network_id":"br-seaborn-networks","name":"Seabras-1 São Paulo Landing Station (Praia Grande)","name_short":"SEABRAS-1","operator":"Seaborn Networks","node_type":"landing-station","status":"operational","city":"Praia Grande","country_iso":"BR","region":"americas","address":null,"floor_space_sqm":null,"power_mw":null,"connected_networks":[],"peeringdb_id":null,"peeringdb_ix_id":null,"website":null,"source":"RNP","source_url":"https://www.rnp.br/en/network/infrastructure","license":"CC-BY-4.0","attribution":"RNP — Rede Nacional de Pesquisa (CC-BY) — https://www.rnp.br","last_updated":"2026-04-02","notes":"Coordinates approximate (city PoP location).","osm_node_id":null}},{"type":"Feature","geometry":{"type":"Point","coordinates":[-38.52,-3.74]},"properties":{"ofm_layer":"fiber-nodes","node_id":"ls-br-ellalink-fortaleza-landing-station-01","network_id":"br-ellalink","name":"EllaLink Fortaleza Landing Station","name_short":"EllaLink FOR","operator":"EllaLink","node_type":"landing-station","status":"operational","city":"Fortaleza","country_iso":"BR","region":"americas","address":null,"floor_space_sqm":null,"power_mw":null,"connected_networks":[],"peeringdb_id":null,"peeringdb_ix_id":null,"website":null,"source":"RNP","source_url":"https://www.rnp.br/en/network/infrastructure","license":"CC-BY-4.0","attribution":"RNP — Rede Nacional de Pesquisa (CC-BY) — https://www.rnp.br","last_updated":"2026-04-02","notes":"Coordinates approximate (city PoP location).","osm_node_id":null}},{"type":"Feature","geometry":{"type":"Point","coordinates":[-38.5,-3.73]},"properties":{"ofm_layer":"fiber-nodes","node_id":"ls-br-monet-fortaleza-landing-station-01","network_id":"br-google-antel","name":"Monet Fortaleza Landing Station","name_short":"Monet FOR","operator":"Google / Antel","node_type":"landing-station","status":"operational","city":"Fortaleza","country_iso":"BR","region":"americas","address":null,"floor_space_sqm":null,"power_mw":null,"connected_networks":[],"peeringdb_id":null,"peeringdb_ix_id":null,"website":null,"source":"RNP","source_url":"https://www.rnp.br/en/network/infrastructure","license":"CC-BY-4.0","attribution":"RNP — Rede Nacional de Pesquisa (CC-BY) — https://www.rnp.br","last_updated":"2026-04-02","notes":"Coordinates approximate (city PoP location).","osm_node_id":null}}]}