{"type":"FeatureCollection","last_updated":"2026-04-04","name":"OpenFiberMap-Africa","features":[{"type":"Feature","geometry":{"type":"LineString","coordinates":[[3.38,6.52],[3.95,7.38],[5.63,7.73],[7.49,9.06],[7.54,9.07]]},"properties":{"ofm_layer":"fiber-spans","span_id":"ng-mainone--0001","network_id":"ng-mainone","name":"MainOne Lagos–Abuja","operator":"MainOne","operator_id":null,"country_iso":"NG","countries":["NG"],"region":"africa","status":"deployed","burial_type":"underground","length_km":730,"capacity_gbps":100,"capacity_class":"high","fiber_pairs":null,"fiber_type":null,"phase_id":null,"phase_name":null,"construction_start":null,"ready_for_service":null,"funders":[],"contracts":[],"source":"AfTerFibre","source_url":"https://afterfibre.nsrc.org","license":"CC-BY-4.0","attribution":"AfTerFibre / NSRC (CC-BY) — https://afterfibre.nsrc.org","last_updated":"2026-04-02","notes":"Approximate alignment from public AfTerFibre map. Not authoritative.","ofds_span_id":null,"osm_way_id":null}},{"type":"Feature","geometry":{"type":"LineString","coordinates":[[3.38,6.52],[3.6,6.78],[4.5,5.8],[6.97,4.85],[7.02,4.82]]},"properties":{"ofm_layer":"fiber-spans","span_id":"ng-glo1--0002","network_id":"ng-glo1","name":"Glo Lagos–Port Harcourt","operator":"Glo (Globacom)","operator_id":null,"country_iso":"NG","countries":["NG"],"region":"africa","status":"deployed","burial_type":"underground","length_km":470,"capacity_gbps":40,"capacity_class":"medium","fiber_pairs":null,"fiber_type":null,"phase_id":null,"phase_name":null,"construction_start":null,"ready_for_service":null,"funders":[],"contracts":[],"source":"AfTerFibre","source_url":"https://afterfibre.nsrc.org","license":"CC-BY-4.0","attribution":"AfTerFibre / NSRC (CC-BY) — https://afterfibre.nsrc.org","last_updated":"2026-04-02","notes":"Approximate alignment from public AfTerFibre map. Not authoritative.","ofds_span_id":null,"osm_way_id":null}},{"type":"Feature","geometry":{"type":"LineString","coordinates":[[36.82,-1.29],[37.42,-1.65],[38.0,-2.4],[39.0,-3.25],[39.67,-4.05]]},"properties":{"ofm_layer":"fiber-spans","span_id":"ke-safaricom--0003","network_id":"ke-safaricom","name":"Safaricom Nairobi–Mombasa","operator":"Safaricom","operator_id":null,"country_iso":"KE","countries":["KE"],"region":"africa","status":"deployed","burial_type":"underground","length_km":450,"capacity_gbps":40,"capacity_class":"medium","fiber_pairs":null,"fiber_type":null,"phase_id":null,"phase_name":null,"construction_start":null,"ready_for_service":null,"funders":[],"contracts":[],"source":"AfTerFibre","source_url":"https://afterfibre.nsrc.org","license":"CC-BY-4.0","attribution":"AfTerFibre / NSRC (CC-BY) — https://afterfibre.nsrc.org","last_updated":"2026-04-02","notes":"Approximate alignment from public AfTerFibre map. Not authoritative.","ofds_span_id":null,"osm_way_id":null}},{"type":"Feature","geometry":{"type":"LineString","coordinates":[[36.82,-1.29],[36.85,-0.5],[37.1,0.5],[37.65,3.12],[37.75,3.68]]},"properties":{"ofm_layer":"fiber-spans","span_id":"ke-telkom--0004","network_id":"ke-telkom","name":"Telkom Kenya National Backbone (partial)","operator":"Telkom Kenya","operator_id":null,"country_iso":"KE","countries":["KE"],"region":"africa","status":"deployed","burial_type":"underground","length_km":1200,"capacity_gbps":20,"capacity_class":"medium","fiber_pairs":null,"fiber_type":null,"phase_id":null,"phase_name":null,"construction_start":null,"ready_for_service":null,"funders":[],"contracts":[],"source":"AfTerFibre","source_url":"https://afterfibre.nsrc.org","license":"CC-BY-4.0","attribution":"AfTerFibre / NSRC (CC-BY) — https://afterfibre.nsrc.org","last_updated":"2026-04-02","notes":"Approximate alignment from public AfTerFibre map. Not authoritative.","ofds_span_id":null,"osm_way_id":null}},{"type":"Feature","geometry":{"type":"LineString","coordinates":[[39.29,-6.82],[37.67,-3.36],[36.82,-1.29],[34.65,0.45],[32.58,0.35],[31.62,4.85]]},"properties":{"ofm_layer":"fiber-spans","span_id":"tz-ttcl--0005","network_id":"tz-ttcl","name":"TTCL National Backbone","operator":"Tanzania Telecommunications (TTCL)","operator_id":null,"country_iso":"TZ","countries":["TZ"],"region":"africa","status":"deployed","burial_type":"underground","length_km":2600,"capacity_gbps":20,"capacity_class":"medium","fiber_pairs":null,"fiber_type":null,"phase_id":null,"phase_name":null,"construction_start":null,"ready_for_service":null,"funders":[],"contracts":[],"source":"AfTerFibre","source_url":"https://afterfibre.nsrc.org","license":"CC-BY-4.0","attribution":"AfTerFibre / NSRC (CC-BY) — https://afterfibre.nsrc.org","last_updated":"2026-04-02","notes":"Approximate alignment from public AfTerFibre map. Not authoritative.","ofds_span_id":null,"osm_way_id":null}},{"type":"Feature","geometry":{"type":"LineString","coordinates":[[38.74,9.01],[39.48,8.55],[39.93,7.47],[40.18,6.37],[41.85,4.65]]},"properties":{"ofm_layer":"fiber-spans","span_id":"et-ethiotelecom--0006","network_id":"et-ethiotelecom","name":"Ethio Telecom National Backbone","operator":"Ethio Telecom","operator_id":null,"country_iso":"ET","countries":["ET"],"region":"africa","status":"deployed","burial_type":"underground","length_km":2000,"capacity_gbps":10,"capacity_class":"medium","fiber_pairs":null,"fiber_type":null,"phase_id":null,"phase_name":null,"construction_start":null,"ready_for_service":null,"funders":[],"contracts":[],"source":"AfTerFibre","source_url":"https://afterfibre.nsrc.org","license":"CC-BY-4.0","attribution":"AfTerFibre / NSRC (CC-BY) — https://afterfibre.nsrc.org","last_updated":"2026-04-02","notes":"Approximate alignment from public AfTerFibre map. Not authoritative.","ofds_span_id":null,"osm_way_id":null}},{"type":"Feature","geometry":{"type":"LineString","coordinates":[[18.42,-33.93],[19.9,-33.6],[22.0,-33.0],[25.57,-33.58],[28.03,-26.2]]},"properties":{"ofm_layer":"fiber-spans","span_id":"za-openserve--0007","network_id":"za-openserve","name":"Openserve Cape Town–Johannesburg","operator":"Openserve (Telkom SA)","operator_id":null,"country_iso":"ZA","countries":["ZA"],"region":"africa","status":"deployed","burial_type":"underground","length_km":1400,"capacity_gbps":200,"capacity_class":"high","fiber_pairs":null,"fiber_type":null,"phase_id":null,"phase_name":null,"construction_start":null,"ready_for_service":null,"funders":[],"contracts":[],"source":"AfTerFibre","source_url":"https://afterfibre.nsrc.org","license":"CC-BY-4.0","attribution":"AfTerFibre / NSRC (CC-BY) — https://afterfibre.nsrc.org","last_updated":"2026-04-02","notes":"Approximate alignment from public AfTerFibre map. Not authoritative.","ofds_span_id":null,"osm_way_id":null}},{"type":"Feature","geometry":{"type":"LineString","coordinates":[[28.03,-26.2],[28.9,-25.0],[29.83,-23.9],[31.05,-25.97],[31.02,-17.83]]},"properties":{"ofm_layer":"fiber-spans","span_id":"za-liquid--0008","network_id":"za-liquid","name":"Liquid SA Johannesburg–Harare","operator":"Liquid Intelligent Technologies","operator_id":null,"country_iso":"ZA","countries":["ZA","ZW"],"region":"africa","status":"deployed","burial_type":"underground","length_km":890,"capacity_gbps":200,"capacity_class":"high","fiber_pairs":null,"fiber_type":null,"phase_id":null,"phase_name":null,"construction_start":null,"ready_for_service":null,"funders":[],"contracts":[],"source":"AfTerFibre","source_url":"https://afterfibre.nsrc.org","license":"CC-BY-4.0","attribution":"AfTerFibre / NSRC (CC-BY) — https://afterfibre.nsrc.org","last_updated":"2026-04-02","notes":"Approximate alignment from public AfTerFibre map. Not authoritative.","ofds_span_id":null,"osm_way_id":null}},{"type":"Feature","geometry":{"type":"LineString","coordinates":[[32.58,0.35],[31.53,0.66],[30.65,0.61],[29.37,-0.16],[30.09,-1.1],[30.13,-4.91]]},"properties":{"ofm_layer":"fiber-spans","span_id":"ug-nbi--0009","network_id":"ug-nbi","name":"Uganda NBI National Backbone","operator":"National Backbone Infrastructure (NBI)","operator_id":null,"country_iso":"UG","countries":["UG","RW"],"region":"africa","status":"deployed","burial_type":"underground","length_km":2000,"capacity_gbps":10,"capacity_class":"medium","fiber_pairs":null,"fiber_type":null,"phase_id":null,"phase_name":null,"construction_start":null,"ready_for_service":null,"funders":[],"contracts":[],"source":"AfTerFibre","source_url":"https://afterfibre.nsrc.org","license":"CC-BY-4.0","attribution":"AfTerFibre / NSRC (CC-BY) — https://afterfibre.nsrc.org","last_updated":"2026-04-02","notes":"Approximate alignment from public AfTerFibre map. Not authoritative.","ofds_span_id":null,"osm_way_id":null}},{"type":"Feature","geometry":{"type":"LineString","coordinates":[[-17.44,14.69],[-16.58,13.45],[-15.6,11.85],[-13.68,9.54],[-10.82,6.31],[-8.0,5.35],[-5.35,5.27],[-1.87,5.56],[0.02,5.56],[2.37,6.37],[3.38,6.52]]},"properties":{"ofm_layer":"fiber-spans","span_id":"waf-wacs-terrestrial--0010","network_id":"waf-wacs-terrestrial","name":"West Africa Terrestrial Corridor (partial)","operator":"MTN GlobalConnect","operator_id":null,"country_iso":"GH","countries":["SN","GN","GW","SL","LR","CI","GH","TG","BJ","NG"],"region":"africa","status":"deployed","burial_type":"underground","length_km":3500,"capacity_gbps":100,"capacity_class":"high","fiber_pairs":null,"fiber_type":null,"phase_id":null,"phase_name":null,"construction_start":null,"ready_for_service":null,"funders":[],"contracts":[],"source":"AfTerFibre","source_url":"https://afterfibre.nsrc.org","license":"CC-BY-4.0","attribution":"AfTerFibre / NSRC (CC-BY) — https://afterfibre.nsrc.org","last_updated":"2026-04-02","notes":"Approximate alignment from public AfTerFibre map. Not authoritative.","ofds_span_id":null,"osm_way_id":null}},{"type":"Feature","geometry":{"type":"LineString","coordinates":[[30.06,-1.94],[30.13,-4.91],[29.73,-9.46],[28.32,-14.44],[28.18,-15.42]]},"properties":{"ofm_layer":"fiber-spans","span_id":"rw-rwandatel--0011","network_id":"rw-rwandatel","name":"Rwanda National Backbone","operator":"Rwanda Telecom / RURA","operator_id":null,"country_iso":"RW","countries":["RW","BI","TZ","ZM","MZ"],"region":"africa","status":"deployed","burial_type":"underground","length_km":2800,"capacity_gbps":10,"capacity_class":"medium","fiber_pairs":null,"fiber_type":null,"phase_id":null,"phase_name":null,"construction_start":null,"ready_for_service":null,"funders":[],"contracts":[],"source":"AfTerFibre","source_url":"https://afterfibre.nsrc.org","license":"CC-BY-4.0","attribution":"AfTerFibre / NSRC (CC-BY) — https://afterfibre.nsrc.org","last_updated":"2026-04-02","notes":"Approximate alignment from public AfTerFibre map. Not authoritative.","ofds_span_id":null,"osm_way_id":null}},{"type":"Feature","geometry":{"type":"LineString","coordinates":[[9.7,4.06],[11.52,3.87],[13.58,4.36],[14.47,10.46],[15.05,12.11]]},"properties":{"ofm_layer":"fiber-spans","span_id":"cm-camtel--0012","network_id":"cm-camtel","name":"Camtel National Backbone","operator":"Camtel","operator_id":null,"country_iso":"CM","countries":["CM"],"region":"africa","status":"deployed","burial_type":"underground","length_km":2100,"capacity_gbps":20,"capacity_class":"medium","fiber_pairs":null,"fiber_type":null,"phase_id":null,"phase_name":null,"construction_start":null,"ready_for_service":null,"funders":[],"contracts":[],"source":"AfTerFibre","source_url":"https://afterfibre.nsrc.org","license":"CC-BY-4.0","attribution":"AfTerFibre / NSRC (CC-BY) — https://afterfibre.nsrc.org","last_updated":"2026-04-02","notes":"Approximate alignment from public AfTerFibre map. Not authoritative.","ofds_span_id":null,"osm_way_id":null}},{"type":"Feature","geometry":{"type":"Point","coordinates":[15.27,-4.32]},"properties":{"ofm_layer":"fiber-nodes","node_id":"ixp-cd-kinix-01","network_id":"cd-kinix","name":"KINIX","name_short":"KINIX","operator":"KINIX","node_type":"ixp","status":"operational","city":"Kinshasa","country_iso":"CD","region":"africa","address":null,"floor_space_sqm":null,"power_mw":null,"connected_networks":[],"peeringdb_id":null,"peeringdb_ix_id":null,"website":null,"source":"AfTerFibre","source_url":"https://afterfibre.nsrc.org","license":"CC-BY-4.0","attribution":"AfTerFibre / NSRC (CC-BY) — https://afterfibre.nsrc.org","last_updated":"2026-04-02","notes":"Curated from public AfTerFibre map. Coordinates approximate.","osm_node_id":null}},{"type":"Feature","geometry":{"type":"Point","coordinates":[3.38,6.45]},"properties":{"ofm_layer":"fiber-nodes","node_id":"ixp-ng-ixpn-lagos-01","network_id":"ng-ixpn","name":"IXPN Lagos","name_short":"IXPN","operator":"IXPN","node_type":"ixp","status":"operational","city":"Lagos","country_iso":"NG","region":"africa","address":null,"floor_space_sqm":null,"power_mw":null,"connected_networks":[],"peeringdb_id":null,"peeringdb_ix_id":null,"website":null,"source":"AfTerFibre","source_url":"https://afterfibre.nsrc.org","license":"CC-BY-4.0","attribution":"AfTerFibre / NSRC (CC-BY) — https://afterfibre.nsrc.org","last_updated":"2026-04-02","notes":"Curated from public AfTerFibre map. Coordinates approximate.","osm_node_id":null}},{"type":"Feature","geometry":{"type":"Point","coordinates":[36.82,-1.29]},"properties":{"ofm_layer":"fiber-nodes","node_id":"ixp-ke-kixp-nairobi-01","network_id":"ke-tespok","name":"KIXP Nairobi","name_short":"KIXP","operator":"TESPOK","node_type":"ixp","status":"operational","city":"Nairobi","country_iso":"KE","region":"africa","address":null,"floor_space_sqm":null,"power_mw":null,"connected_networks":[],"peeringdb_id":null,"peeringdb_ix_id":null,"website":null,"source":"AfTerFibre","source_url":"https://afterfibre.nsrc.org","license":"CC-BY-4.0","attribution":"AfTerFibre / NSRC (CC-BY) — https://afterfibre.nsrc.org","last_updated":"2026-04-02","notes":"Curated from public AfTerFibre map. Coordinates approximate.","osm_node_id":null}},{"type":"Feature","geometry":{"type":"Point","coordinates":[28.03,-26.2]},"properties":{"ofm_layer":"fiber-nodes","node_id":"ixp-za-jinx-johannesburg-01","network_id":"za-teraco","name":"JINX Johannesburg","name_short":"JINX","operator":"Teraco","node_type":"ixp","status":"operational","city":"Johannesburg","country_iso":"ZA","region":"africa","address":null,"floor_space_sqm":null,"power_mw":null,"connected_networks":[],"peeringdb_id":null,"peeringdb_ix_id":null,"website":null,"source":"AfTerFibre","source_url":"https://afterfibre.nsrc.org","license":"CC-BY-4.0","attribution":"AfTerFibre / NSRC (CC-BY) — https://afterfibre.nsrc.org","last_updated":"2026-04-02","notes":"Curated from public AfTerFibre map. Coordinates approximate.","osm_node_id":null}},{"type":"Feature","geometry":{"type":"Point","coordinates":[39.29,-6.82]},"properties":{"ofm_layer":"fiber-nodes","node_id":"ixp-tz-amsix-dar-es-salaam-01","network_id":"tz-amsix-tanzania","name":"AMSIX Dar es Salaam","name_short":"AMSIX-DAR","operator":"AMSIX Tanzania","node_type":"ixp","status":"operational","city":"Dar es Salaam","country_iso":"TZ","region":"africa","address":null,"floor_space_sqm":null,"power_mw":null,"connected_networks":[],"peeringdb_id":null,"peeringdb_ix_id":null,"website":null,"source":"AfTerFibre","source_url":"https://afterfibre.nsrc.org","license":"CC-BY-4.0","attribution":"AfTerFibre / NSRC (CC-BY) — https://afterfibre.nsrc.org","last_updated":"2026-04-02","notes":"Curated from public AfTerFibre map. Coordinates approximate.","osm_node_id":null}},{"type":"Feature","geometry":{"type":"Point","coordinates":[32.58,0.35]},"properties":{"ofm_layer":"fiber-nodes","node_id":"ixp-ug-uixp-kampala-01","network_id":"ug-uixp","name":"UIXP Kampala","name_short":"UIXP","operator":"UIXP","node_type":"ixp","status":"operational","city":"Kampala","country_iso":"UG","region":"africa","address":null,"floor_space_sqm":null,"power_mw":null,"connected_networks":[],"peeringdb_id":null,"peeringdb_ix_id":null,"website":null,"source":"AfTerFibre","source_url":"https://afterfibre.nsrc.org","license":"CC-BY-4.0","attribution":"AfTerFibre / NSRC (CC-BY) — https://afterfibre.nsrc.org","last_updated":"2026-04-02","notes":"Curated from public AfTerFibre map. Coordinates approximate.","osm_node_id":null}},{"type":"Feature","geometry":{"type":"Point","coordinates":[30.06,-1.94]},"properties":{"ofm_layer":"fiber-nodes","node_id":"ixp-rw-rwix-kigali-01","network_id":"rw-rura","name":"RWIX Kigali","name_short":"RWIX","operator":"RURA","node_type":"ixp","status":"operational","city":"Kigali","country_iso":"RW","region":"africa","address":null,"floor_space_sqm":null,"power_mw":null,"connected_networks":[],"peeringdb_id":null,"peeringdb_ix_id":null,"website":null,"source":"AfTerFibre","source_url":"https://afterfibre.nsrc.org","license":"CC-BY-4.0","attribution":"AfTerFibre / NSRC (CC-BY) — https://afterfibre.nsrc.org","last_updated":"2026-04-02","notes":"Curated from public AfTerFibre map. Coordinates approximate.","osm_node_id":null}},{"type":"Feature","geometry":{"type":"Point","coordinates":[-0.19,5.56]},"properties":{"ofm_layer":"fiber-nodes","node_id":"ixp-gh-ghix-accra-01","network_id":"gh-ghix","name":"GHIX Accra","name_short":"GHIX","operator":"GHIX","node_type":"ixp","status":"operational","city":"Accra","country_iso":"GH","region":"africa","address":null,"floor_space_sqm":null,"power_mw":null,"connected_networks":[],"peeringdb_id":null,"peeringdb_ix_id":null,"website":null,"source":"AfTerFibre","source_url":"https://afterfibre.nsrc.org","license":"CC-BY-4.0","attribution":"AfTerFibre / NSRC (CC-BY) — https://afterfibre.nsrc.org","last_updated":"2026-04-02","notes":"Curated from public AfTerFibre map. Coordinates approximate.","osm_node_id":null}},{"type":"Feature","geometry":{"type":"Point","coordinates":[36.83,-1.3]},"properties":{"ofm_layer":"fiber-nodes","node_id":"ixp-ke-decix-nairobi-01","network_id":"ke-de-cix","name":"DECIX Nairobi","name_short":"DECIX-NBO","operator":"DE-CIX","node_type":"ixp","status":"operational","city":"Nairobi","country_iso":"KE","region":"africa","address":null,"floor_space_sqm":null,"power_mw":null,"connected_networks":[],"peeringdb_id":null,"peeringdb_ix_id":null,"website":null,"source":"AfTerFibre","source_url":"https://afterfibre.nsrc.org","license":"CC-BY-4.0","attribution":"AfTerFibre / NSRC (CC-BY) — https://afterfibre.nsrc.org","last_updated":"2026-04-02","notes":"Curated from public AfTerFibre map. Coordinates approximate.","osm_node_id":null}},{"type":"Feature","geometry":{"type":"Point","coordinates":[39.67,-4.05]},"properties":{"ofm_layer":"fiber-nodes","node_id":"ls-ke-seacom-mombasa-landing-station-01","network_id":"ke-seacom","name":"SEACOM Mombasa Landing Station","name_short":"SEACOM Mombasa","operator":"SEACOM","node_type":"landing-station","status":"operational","city":"Mombasa","country_iso":"KE","region":"africa","address":null,"floor_space_sqm":null,"power_mw":null,"connected_networks":[],"peeringdb_id":null,"peeringdb_ix_id":null,"website":null,"source":"AfTerFibre","source_url":"https://afterfibre.nsrc.org","license":"CC-BY-4.0","attribution":"AfTerFibre / NSRC (CC-BY) — https://afterfibre.nsrc.org","last_updated":"2026-04-02","notes":"Curated from public AfTerFibre map. Coordinates approximate.","osm_node_id":null}},{"type":"Feature","geometry":{"type":"Point","coordinates":[39.68,-4.04]},"properties":{"ofm_layer":"fiber-nodes","node_id":"ls-ke-eassy-mombasa-landing-station-01","network_id":"ke-eassy-consortium","name":"EASSy Mombasa Landing Station","name_short":"EASSy Mombasa","operator":"EASSy Consortium","node_type":"landing-station","status":"operational","city":"Mombasa","country_iso":"KE","region":"africa","address":null,"floor_space_sqm":null,"power_mw":null,"connected_networks":[],"peeringdb_id":null,"peeringdb_ix_id":null,"website":null,"source":"AfTerFibre","source_url":"https://afterfibre.nsrc.org","license":"CC-BY-4.0","attribution":"AfTerFibre / NSRC (CC-BY) — https://afterfibre.nsrc.org","last_updated":"2026-04-02","notes":"Curated from public AfTerFibre map. Coordinates approximate.","osm_node_id":null}},{"type":"Feature","geometry":{"type":"Point","coordinates":[18.42,-33.93]},"properties":{"ofm_layer":"fiber-nodes","node_id":"ls-za-wacs-cape-town-landing-station-01","network_id":"za-mtn","name":"WACS Cape Town Landing Station","name_short":"WACS CPT","operator":"MTN","node_type":"landing-station","status":"operational","city":"Cape Town","country_iso":"ZA","region":"africa","address":null,"floor_space_sqm":null,"power_mw":null,"connected_networks":[],"peeringdb_id":null,"peeringdb_ix_id":null,"website":null,"source":"AfTerFibre","source_url":"https://afterfibre.nsrc.org","license":"CC-BY-4.0","attribution":"AfTerFibre / NSRC (CC-BY) — https://afterfibre.nsrc.org","last_updated":"2026-04-02","notes":"Curated from public AfTerFibre map. Coordinates approximate.","osm_node_id":null}},{"type":"Feature","geometry":{"type":"Point","coordinates":[3.38,6.42]},"properties":{"ofm_layer":"fiber-nodes","node_id":"ls-ng-mainone-lagos-landing-station-01","network_id":"ng-mainone","name":"MainOne Lagos Landing Station","name_short":"MainOne LGS","operator":"MainOne","node_type":"landing-station","status":"operational","city":"Lagos","country_iso":"NG","region":"africa","address":null,"floor_space_sqm":null,"power_mw":null,"connected_networks":[],"peeringdb_id":null,"peeringdb_ix_id":null,"website":null,"source":"AfTerFibre","source_url":"https://afterfibre.nsrc.org","license":"CC-BY-4.0","attribution":"AfTerFibre / NSRC (CC-BY) — https://afterfibre.nsrc.org","last_updated":"2026-04-02","notes":"Curated from public AfTerFibre map. Coordinates approximate.","osm_node_id":null}},{"type":"Feature","geometry":{"type":"Point","coordinates":[-17.44,14.69]},"properties":{"ofm_layer":"fiber-nodes","node_id":"ls-sn-ace-dakar-landing-station-01","network_id":"sn-orange","name":"ACE Dakar Landing Station","name_short":"ACE Dakar","operator":"Orange","node_type":"landing-station","status":"operational","city":"Dakar","country_iso":"SN","region":"africa","address":null,"floor_space_sqm":null,"power_mw":null,"connected_networks":[],"peeringdb_id":null,"peeringdb_ix_id":null,"website":null,"source":"AfTerFibre","source_url":"https://afterfibre.nsrc.org","license":"CC-BY-4.0","attribution":"AfTerFibre / NSRC (CC-BY) — https://afterfibre.nsrc.org","last_updated":"2026-04-02","notes":"Curated from public AfTerFibre map. Coordinates approximate.","osm_node_id":null}},{"type":"Feature","geometry":{"type":"Point","coordinates":[28.13,-26.18]},"properties":{"ofm_layer":"fiber-nodes","node_id":"dc-za-teraco-jb1-johannesburg-01","network_id":"za-teraco-data-environments","name":"Teraco JB1 Johannesburg","name_short":"Teraco JB1","operator":"Teraco Data Environments","node_type":"data-center","status":"operational","city":"Johannesburg","country_iso":"ZA","region":"africa","address":null,"floor_space_sqm":null,"power_mw":null,"connected_networks":[],"peeringdb_id":null,"peeringdb_ix_id":null,"website":null,"source":"AfTerFibre","source_url":"https://afterfibre.nsrc.org","license":"CC-BY-4.0","attribution":"AfTerFibre / NSRC (CC-BY) — https://afterfibre.nsrc.org","last_updated":"2026-04-02","notes":"Curated from public AfTerFibre map. Coordinates approximate.","osm_node_id":null}},{"type":"Feature","geometry":{"type":"Point","coordinates":[36.83,-1.27]},"properties":{"ofm_layer":"fiber-nodes","node_id":"dc-ke-africa-data-centres-nairobi-01","network_id":"ke-africa-data-centres","name":"Africa Data Centres Nairobi","name_short":"ADC Nairobi","operator":"Africa Data Centres","node_type":"data-center","status":"operational","city":"Nairobi","country_iso":"KE","region":"africa","address":null,"floor_space_sqm":null,"power_mw":null,"connected_networks":[],"peeringdb_id":null,"peeringdb_ix_id":null,"website":null,"source":"AfTerFibre","source_url":"https://afterfibre.nsrc.org","license":"CC-BY-4.0","attribution":"AfTerFibre / NSRC (CC-BY) — https://afterfibre.nsrc.org","last_updated":"2026-04-02","notes":"Curated from public AfTerFibre map. Coordinates approximate.","osm_node_id":null}},{"type":"Feature","geometry":{"type":"Point","coordinates":[3.39,6.6]},"properties":{"ofm_layer":"fiber-nodes","node_id":"dc-ng-mdxi-lagos-01","network_id":"ng-mainone-mdxi","name":"MDXi Lagos","name_short":"MDXi Lagos","operator":"MainOne (MDXi)","node_type":"data-center","status":"operational","city":"Lagos","country_iso":"NG","region":"africa","address":null,"floor_space_sqm":null,"power_mw":null,"connected_networks":[],"peeringdb_id":null,"peeringdb_ix_id":null,"website":null,"source":"AfTerFibre","source_url":"https://afterfibre.nsrc.org","license":"CC-BY-4.0","attribution":"AfTerFibre / NSRC (CC-BY) — https://afterfibre.nsrc.org","last_updated":"2026-04-02","notes":"Curated from public AfTerFibre map. Coordinates approximate.","osm_node_id":null}}]}