{"type":"FeatureCollection","last_updated":"2026-04-02","name":"OpenFiberMap-Global","description":"Global fiber optic network — all sources merged","version":"0.1.0","features":[{"type":"Feature","geometry":{"type":"LineString","coordinates":[[3.38,6.52],[3.95,7.38],[5.63,7.73],[7.49,9.06],[7.54,9.07]]},"properties":{"ofm_layer":"fiber-spans","span_id":"ng-mainone--0001","network_id":"ng-mainone","name":"MainOne Lagos–Abuja","operator":"MainOne","operator_id":null,"country_iso":"NG","countries":["NG"],"region":"africa","status":"deployed","burial_type":"underground","length_km":730,"capacity_gbps":100,"capacity_class":"high","fiber_pairs":null,"fiber_type":null,"phase_id":null,"phase_name":null,"construction_start":null,"ready_for_service":null,"funders":[],"contracts":[],"source":"AfTerFibre","source_url":"https://afterfibre.nsrc.org","license":"CC-BY-4.0","attribution":"AfTerFibre / NSRC (CC-BY) — https://afterfibre.nsrc.org","last_updated":"2026-04-02","notes":"Approximate alignment from public AfTerFibre map. Not authoritative.","ofds_span_id":null,"osm_way_id":null}},{"type":"Feature","geometry":{"type":"LineString","coordinates":[[3.38,6.52],[3.6,6.78],[4.5,5.8],[6.97,4.85],[7.02,4.82]]},"properties":{"ofm_layer":"fiber-spans","span_id":"ng-glo1--0002","network_id":"ng-glo1","name":"Glo Lagos–Port Harcourt","operator":"Glo (Globacom)","operator_id":null,"country_iso":"NG","countries":["NG"],"region":"africa","status":"deployed","burial_type":"underground","length_km":470,"capacity_gbps":40,"capacity_class":"medium","fiber_pairs":null,"fiber_type":null,"phase_id":null,"phase_name":null,"construction_start":null,"ready_for_service":null,"funders":[],"contracts":[],"source":"AfTerFibre","source_url":"https://afterfibre.nsrc.org","license":"CC-BY-4.0","attribution":"AfTerFibre / NSRC (CC-BY) — https://afterfibre.nsrc.org","last_updated":"2026-04-02","notes":"Approximate alignment from public AfTerFibre map. Not authoritative.","ofds_span_id":null,"osm_way_id":null}},{"type":"Feature","geometry":{"type":"LineString","coordinates":[[36.82,-1.29],[37.42,-1.65],[38.0,-2.4],[39.0,-3.25],[39.67,-4.05]]},"properties":{"ofm_layer":"fiber-spans","span_id":"ke-safaricom--0003","network_id":"ke-safaricom","name":"Safaricom Nairobi–Mombasa","operator":"Safaricom","operator_id":null,"country_iso":"KE","countries":["KE"],"region":"africa","status":"deployed","burial_type":"underground","length_km":450,"capacity_gbps":40,"capacity_class":"medium","fiber_pairs":null,"fiber_type":null,"phase_id":null,"phase_name":null,"construction_start":null,"ready_for_service":null,"funders":[],"contracts":[],"source":"AfTerFibre","source_url":"https://afterfibre.nsrc.org","license":"CC-BY-4.0","attribution":"AfTerFibre / NSRC (CC-BY) — https://afterfibre.nsrc.org","last_updated":"2026-04-02","notes":"Approximate alignment from public AfTerFibre map. Not authoritative.","ofds_span_id":null,"osm_way_id":null}},{"type":"Feature","geometry":{"type":"LineString","coordinates":[[36.82,-1.29],[36.85,-0.5],[37.1,0.5],[37.65,3.12],[37.75,3.68]]},"properties":{"ofm_layer":"fiber-spans","span_id":"ke-telkom--0004","network_id":"ke-telkom","name":"Telkom Kenya National Backbone (partial)","operator":"Telkom Kenya","operator_id":null,"country_iso":"KE","countries":["KE"],"region":"africa","status":"deployed","burial_type":"underground","length_km":1200,"capacity_gbps":20,"capacity_class":"medium","fiber_pairs":null,"fiber_type":null,"phase_id":null,"phase_name":null,"construction_start":null,"ready_for_service":null,"funders":[],"contracts":[],"source":"AfTerFibre","source_url":"https://afterfibre.nsrc.org","license":"CC-BY-4.0","attribution":"AfTerFibre / NSRC (CC-BY) — https://afterfibre.nsrc.org","last_updated":"2026-04-02","notes":"Approximate alignment from public AfTerFibre map. Not authoritative.","ofds_span_id":null,"osm_way_id":null}},{"type":"Feature","geometry":{"type":"LineString","coordinates":[[39.29,-6.82],[37.67,-3.36],[36.82,-1.29],[34.65,0.45],[32.58,0.35],[31.62,4.85]]},"properties":{"ofm_layer":"fiber-spans","span_id":"tz-ttcl--0005","network_id":"tz-ttcl","name":"TTCL National Backbone","operator":"Tanzania Telecommunications (TTCL)","operator_id":null,"country_iso":"TZ","countries":["TZ"],"region":"africa","status":"deployed","burial_type":"underground","length_km":2600,"capacity_gbps":20,"capacity_class":"medium","fiber_pairs":null,"fiber_type":null,"phase_id":null,"phase_name":null,"construction_start":null,"ready_for_service":null,"funders":[],"contracts":[],"source":"AfTerFibre","source_url":"https://afterfibre.nsrc.org","license":"CC-BY-4.0","attribution":"AfTerFibre / NSRC (CC-BY) — https://afterfibre.nsrc.org","last_updated":"2026-04-02","notes":"Approximate alignment from public AfTerFibre map. Not authoritative.","ofds_span_id":null,"osm_way_id":null}},{"type":"Feature","geometry":{"type":"LineString","coordinates":[[38.74,9.01],[39.48,8.55],[39.93,7.47],[40.18,6.37],[41.85,4.65]]},"properties":{"ofm_layer":"fiber-spans","span_id":"et-ethiotelecom--0006","network_id":"et-ethiotelecom","name":"Ethio Telecom National Backbone","operator":"Ethio Telecom","operator_id":null,"country_iso":"ET","countries":["ET"],"region":"africa","status":"deployed","burial_type":"underground","length_km":2000,"capacity_gbps":10,"capacity_class":"medium","fiber_pairs":null,"fiber_type":null,"phase_id":null,"phase_name":null,"construction_start":null,"ready_for_service":null,"funders":[],"contracts":[],"source":"AfTerFibre","source_url":"https://afterfibre.nsrc.org","license":"CC-BY-4.0","attribution":"AfTerFibre / NSRC (CC-BY) — https://afterfibre.nsrc.org","last_updated":"2026-04-02","notes":"Approximate alignment from public AfTerFibre map. Not authoritative.","ofds_span_id":null,"osm_way_id":null}},{"type":"Feature","geometry":{"type":"LineString","coordinates":[[18.42,-33.93],[19.9,-33.6],[22.0,-33.0],[25.57,-33.58],[28.03,-26.2]]},"properties":{"ofm_layer":"fiber-spans","span_id":"za-openserve--0007","network_id":"za-openserve","name":"Openserve Cape Town–Johannesburg","operator":"Openserve (Telkom SA)","operator_id":null,"country_iso":"ZA","countries":["ZA"],"region":"africa","status":"deployed","burial_type":"underground","length_km":1400,"capacity_gbps":200,"capacity_class":"high","fiber_pairs":null,"fiber_type":null,"phase_id":null,"phase_name":null,"construction_start":null,"ready_for_service":null,"funders":[],"contracts":[],"source":"AfTerFibre","source_url":"https://afterfibre.nsrc.org","license":"CC-BY-4.0","attribution":"AfTerFibre / NSRC (CC-BY) — https://afterfibre.nsrc.org","last_updated":"2026-04-02","notes":"Approximate alignment from public AfTerFibre map. Not authoritative.","ofds_span_id":null,"osm_way_id":null}},{"type":"Feature","geometry":{"type":"LineString","coordinates":[[28.03,-26.2],[28.9,-25.0],[29.83,-23.9],[31.05,-25.97],[31.02,-17.83]]},"properties":{"ofm_layer":"fiber-spans","span_id":"za-liquid--0008","network_id":"za-liquid","name":"Liquid SA Johannesburg–Harare","operator":"Liquid Intelligent Technologies","operator_id":null,"country_iso":"ZA","countries":["ZA","ZW"],"region":"africa","status":"deployed","burial_type":"underground","length_km":890,"capacity_gbps":200,"capacity_class":"high","fiber_pairs":null,"fiber_type":null,"phase_id":null,"phase_name":null,"construction_start":null,"ready_for_service":null,"funders":[],"contracts":[],"source":"AfTerFibre","source_url":"https://afterfibre.nsrc.org","license":"CC-BY-4.0","attribution":"AfTerFibre / NSRC (CC-BY) — https://afterfibre.nsrc.org","last_updated":"2026-04-02","notes":"Approximate alignment from public AfTerFibre map. Not authoritative.","ofds_span_id":null,"osm_way_id":null}},{"type":"Feature","geometry":{"type":"LineString","coordinates":[[32.58,0.35],[31.53,0.66],[30.65,0.61],[29.37,-0.16],[30.09,-1.1],[30.13,-4.91]]},"properties":{"ofm_layer":"fiber-spans","span_id":"ug-nbi--0009","network_id":"ug-nbi","name":"Uganda NBI National Backbone","operator":"National Backbone Infrastructure (NBI)","operator_id":null,"country_iso":"UG","countries":["UG","RW"],"region":"africa","status":"deployed","burial_type":"underground","length_km":2000,"capacity_gbps":10,"capacity_class":"medium","fiber_pairs":null,"fiber_type":null,"phase_id":null,"phase_name":null,"construction_start":null,"ready_for_service":null,"funders":[],"contracts":[],"source":"AfTerFibre","source_url":"https://afterfibre.nsrc.org","license":"CC-BY-4.0","attribution":"AfTerFibre / NSRC (CC-BY) — https://afterfibre.nsrc.org","last_updated":"2026-04-02","notes":"Approximate alignment from public AfTerFibre map. Not authoritative.","ofds_span_id":null,"osm_way_id":null}},{"type":"Feature","geometry":{"type":"LineString","coordinates":[[-17.44,14.69],[-16.58,13.45],[-15.6,11.85],[-13.68,9.54],[-10.82,6.31],[-8.0,5.35],[-5.35,5.27],[-1.87,5.56],[0.02,5.56],[2.37,6.37],[3.38,6.52]]},"properties":{"ofm_layer":"fiber-spans","span_id":"waf-wacs-terrestrial--0010","network_id":"waf-wacs-terrestrial","name":"West Africa Terrestrial Corridor (partial)","operator":"MTN GlobalConnect","operator_id":null,"country_iso":"GH","countries":["SN","GN","GW","SL","LR","CI","GH","TG","BJ","NG"],"region":"africa","status":"deployed","burial_type":"underground","length_km":3500,"capacity_gbps":100,"capacity_class":"high","fiber_pairs":null,"fiber_type":null,"phase_id":null,"phase_name":null,"construction_start":null,"ready_for_service":null,"funders":[],"contracts":[],"source":"AfTerFibre","source_url":"https://afterfibre.nsrc.org","license":"CC-BY-4.0","attribution":"AfTerFibre / NSRC (CC-BY) — https://afterfibre.nsrc.org","last_updated":"2026-04-02","notes":"Approximate alignment from public AfTerFibre map. Not authoritative.","ofds_span_id":null,"osm_way_id":null}},{"type":"Feature","geometry":{"type":"LineString","coordinates":[[30.06,-1.94],[30.13,-4.91],[29.73,-9.46],[28.32,-14.44],[28.18,-15.42]]},"properties":{"ofm_layer":"fiber-spans","span_id":"rw-rwandatel--0011","network_id":"rw-rwandatel","name":"Rwanda National Backbone","operator":"Rwanda Telecom / RURA","operator_id":null,"country_iso":"RW","countries":["RW","BI","TZ","ZM","MZ"],"region":"africa","status":"deployed","burial_type":"underground","length_km":2800,"capacity_gbps":10,"capacity_class":"medium","fiber_pairs":null,"fiber_type":null,"phase_id":null,"phase_name":null,"construction_start":null,"ready_for_service":null,"funders":[],"contracts":[],"source":"AfTerFibre","source_url":"https://afterfibre.nsrc.org","license":"CC-BY-4.0","attribution":"AfTerFibre / NSRC (CC-BY) — https://afterfibre.nsrc.org","last_updated":"2026-04-02","notes":"Approximate alignment from public AfTerFibre map. Not authoritative.","ofds_span_id":null,"osm_way_id":null}},{"type":"Feature","geometry":{"type":"LineString","coordinates":[[9.7,4.06],[11.52,3.87],[13.58,4.36],[14.47,10.46],[15.05,12.11]]},"properties":{"ofm_layer":"fiber-spans","span_id":"cm-camtel--0012","network_id":"cm-camtel","name":"Camtel National Backbone","operator":"Camtel","operator_id":null,"country_iso":"CM","countries":["CM"],"region":"africa","status":"deployed","burial_type":"underground","length_km":2100,"capacity_gbps":20,"capacity_class":"medium","fiber_pairs":null,"fiber_type":null,"phase_id":null,"phase_name":null,"construction_start":null,"ready_for_service":null,"funders":[],"contracts":[],"source":"AfTerFibre","source_url":"https://afterfibre.nsrc.org","license":"CC-BY-4.0","attribution":"AfTerFibre / NSRC (CC-BY) — https://afterfibre.nsrc.org","last_updated":"2026-04-02","notes":"Approximate alignment from public AfTerFibre map. Not authoritative.","ofds_span_id":null,"osm_way_id":null}},{"type":"Feature","geometry":{"type":"Point","coordinates":[15.27,-4.32]},"properties":{"ofm_layer":"fiber-nodes","node_id":"ixp-cd-kinix-01","network_id":"cd-kinix","name":"KINIX","name_short":"KINIX","operator":"KINIX","node_type":"ixp","status":"operational","city":"Kinshasa","country_iso":"CD","region":"africa","address":null,"floor_space_sqm":null,"power_mw":null,"connected_networks":[],"peeringdb_id":null,"peeringdb_ix_id":null,"website":null,"source":"AfTerFibre","source_url":"https://afterfibre.nsrc.org","license":"CC-BY-4.0","attribution":"AfTerFibre / NSRC (CC-BY) — https://afterfibre.nsrc.org","last_updated":"2026-04-02","notes":"Curated from public AfTerFibre map. Coordinates approximate.","osm_node_id":null}},{"type":"Feature","geometry":{"type":"Point","coordinates":[3.38,6.45]},"properties":{"ofm_layer":"fiber-nodes","node_id":"ixp-ng-ixpn-lagos-01","network_id":"ng-ixpn","name":"IXPN Lagos","name_short":"IXPN","operator":"IXPN","node_type":"ixp","status":"operational","city":"Lagos","country_iso":"NG","region":"africa","address":null,"floor_space_sqm":null,"power_mw":null,"connected_networks":[],"peeringdb_id":null,"peeringdb_ix_id":null,"website":null,"source":"AfTerFibre","source_url":"https://afterfibre.nsrc.org","license":"CC-BY-4.0","attribution":"AfTerFibre / NSRC (CC-BY) — https://afterfibre.nsrc.org","last_updated":"2026-04-02","notes":"Curated from public AfTerFibre map. Coordinates approximate.","osm_node_id":null}},{"type":"Feature","geometry":{"type":"Point","coordinates":[36.82,-1.29]},"properties":{"ofm_layer":"fiber-nodes","node_id":"ixp-ke-kixp-nairobi-01","network_id":"ke-tespok","name":"KIXP Nairobi","name_short":"KIXP","operator":"TESPOK","node_type":"ixp","status":"operational","city":"Nairobi","country_iso":"KE","region":"africa","address":null,"floor_space_sqm":null,"power_mw":null,"connected_networks":[],"peeringdb_id":null,"peeringdb_ix_id":null,"website":null,"source":"AfTerFibre","source_url":"https://afterfibre.nsrc.org","license":"CC-BY-4.0","attribution":"AfTerFibre / NSRC (CC-BY) — https://afterfibre.nsrc.org","last_updated":"2026-04-02","notes":"Curated from public AfTerFibre map. Coordinates approximate.","osm_node_id":null}},{"type":"Feature","geometry":{"type":"Point","coordinates":[28.03,-26.2]},"properties":{"ofm_layer":"fiber-nodes","node_id":"ixp-za-jinx-johannesburg-01","network_id":"za-teraco","name":"JINX Johannesburg","name_short":"JINX","operator":"Teraco","node_type":"ixp","status":"operational","city":"Johannesburg","country_iso":"ZA","region":"africa","address":null,"floor_space_sqm":null,"power_mw":null,"connected_networks":[],"peeringdb_id":null,"peeringdb_ix_id":null,"website":null,"source":"AfTerFibre","source_url":"https://afterfibre.nsrc.org","license":"CC-BY-4.0","attribution":"AfTerFibre / NSRC (CC-BY) — https://afterfibre.nsrc.org","last_updated":"2026-04-02","notes":"Curated from public AfTerFibre map. Coordinates approximate.","osm_node_id":null}},{"type":"Feature","geometry":{"type":"Point","coordinates":[39.29,-6.82]},"properties":{"ofm_layer":"fiber-nodes","node_id":"ixp-tz-amsix-dar-es-salaam-01","network_id":"tz-amsix-tanzania","name":"AMSIX Dar es Salaam","name_short":"AMSIX-DAR","operator":"AMSIX Tanzania","node_type":"ixp","status":"operational","city":"Dar es Salaam","country_iso":"TZ","region":"africa","address":null,"floor_space_sqm":null,"power_mw":null,"connected_networks":[],"peeringdb_id":null,"peeringdb_ix_id":null,"website":null,"source":"AfTerFibre","source_url":"https://afterfibre.nsrc.org","license":"CC-BY-4.0","attribution":"AfTerFibre / NSRC (CC-BY) — https://afterfibre.nsrc.org","last_updated":"2026-04-02","notes":"Curated from public AfTerFibre map. Coordinates approximate.","osm_node_id":null}},{"type":"Feature","geometry":{"type":"Point","coordinates":[32.58,0.35]},"properties":{"ofm_layer":"fiber-nodes","node_id":"ixp-ug-uixp-kampala-01","network_id":"ug-uixp","name":"UIXP Kampala","name_short":"UIXP","operator":"UIXP","node_type":"ixp","status":"operational","city":"Kampala","country_iso":"UG","region":"africa","address":null,"floor_space_sqm":null,"power_mw":null,"connected_networks":[],"peeringdb_id":null,"peeringdb_ix_id":null,"website":null,"source":"AfTerFibre","source_url":"https://afterfibre.nsrc.org","license":"CC-BY-4.0","attribution":"AfTerFibre / NSRC (CC-BY) — https://afterfibre.nsrc.org","last_updated":"2026-04-02","notes":"Curated from public AfTerFibre map. Coordinates approximate.","osm_node_id":null}},{"type":"Feature","geometry":{"type":"Point","coordinates":[30.06,-1.94]},"properties":{"ofm_layer":"fiber-nodes","node_id":"ixp-rw-rwix-kigali-01","network_id":"rw-rura","name":"RWIX Kigali","name_short":"RWIX","operator":"RURA","node_type":"ixp","status":"operational","city":"Kigali","country_iso":"RW","region":"africa","address":null,"floor_space_sqm":null,"power_mw":null,"connected_networks":[],"peeringdb_id":null,"peeringdb_ix_id":null,"website":null,"source":"AfTerFibre","source_url":"https://afterfibre.nsrc.org","license":"CC-BY-4.0","attribution":"AfTerFibre / NSRC (CC-BY) — https://afterfibre.nsrc.org","last_updated":"2026-04-02","notes":"Curated from public AfTerFibre map. Coordinates approximate.","osm_node_id":null}},{"type":"Feature","geometry":{"type":"Point","coordinates":[-0.19,5.56]},"properties":{"ofm_layer":"fiber-nodes","node_id":"ixp-gh-ghix-accra-01","network_id":"gh-ghix","name":"GHIX Accra","name_short":"GHIX","operator":"GHIX","node_type":"ixp","status":"operational","city":"Accra","country_iso":"GH","region":"africa","address":null,"floor_space_sqm":null,"power_mw":null,"connected_networks":[],"peeringdb_id":null,"peeringdb_ix_id":null,"website":null,"source":"AfTerFibre","source_url":"https://afterfibre.nsrc.org","license":"CC-BY-4.0","attribution":"AfTerFibre / NSRC (CC-BY) — https://afterfibre.nsrc.org","last_updated":"2026-04-02","notes":"Curated from public AfTerFibre map. Coordinates approximate.","osm_node_id":null}},{"type":"Feature","geometry":{"type":"Point","coordinates":[36.83,-1.3]},"properties":{"ofm_layer":"fiber-nodes","node_id":"ixp-ke-decix-nairobi-01","network_id":"ke-de-cix","name":"DECIX Nairobi","name_short":"DECIX-NBO","operator":"DE-CIX","node_type":"ixp","status":"operational","city":"Nairobi","country_iso":"KE","region":"africa","address":null,"floor_space_sqm":null,"power_mw":null,"connected_networks":[],"peeringdb_id":null,"peeringdb_ix_id":null,"website":null,"source":"AfTerFibre","source_url":"https://afterfibre.nsrc.org","license":"CC-BY-4.0","attribution":"AfTerFibre / NSRC (CC-BY) — https://afterfibre.nsrc.org","last_updated":"2026-04-02","notes":"Curated from public AfTerFibre map. Coordinates approximate.","osm_node_id":null}},{"type":"Feature","geometry":{"type":"Point","coordinates":[39.67,-4.05]},"properties":{"ofm_layer":"fiber-nodes","node_id":"ls-ke-seacom-mombasa-landing-station-01","network_id":"ke-seacom","name":"SEACOM Mombasa Landing Station","name_short":"SEACOM Mombasa","operator":"SEACOM","node_type":"landing-station","status":"operational","city":"Mombasa","country_iso":"KE","region":"africa","address":null,"floor_space_sqm":null,"power_mw":null,"connected_networks":[],"peeringdb_id":null,"peeringdb_ix_id":null,"website":null,"source":"AfTerFibre","source_url":"https://afterfibre.nsrc.org","license":"CC-BY-4.0","attribution":"AfTerFibre / NSRC (CC-BY) — https://afterfibre.nsrc.org","last_updated":"2026-04-02","notes":"Curated from public AfTerFibre map. Coordinates approximate.","osm_node_id":null}},{"type":"Feature","geometry":{"type":"Point","coordinates":[39.68,-4.04]},"properties":{"ofm_layer":"fiber-nodes","node_id":"ls-ke-eassy-mombasa-landing-station-01","network_id":"ke-eassy-consortium","name":"EASSy Mombasa Landing Station","name_short":"EASSy Mombasa","operator":"EASSy Consortium","node_type":"landing-station","status":"operational","city":"Mombasa","country_iso":"KE","region":"africa","address":null,"floor_space_sqm":null,"power_mw":null,"connected_networks":[],"peeringdb_id":null,"peeringdb_ix_id":null,"website":null,"source":"AfTerFibre","source_url":"https://afterfibre.nsrc.org","license":"CC-BY-4.0","attribution":"AfTerFibre / NSRC (CC-BY) — https://afterfibre.nsrc.org","last_updated":"2026-04-02","notes":"Curated from public AfTerFibre map. Coordinates approximate.","osm_node_id":null}},{"type":"Feature","geometry":{"type":"Point","coordinates":[18.42,-33.93]},"properties":{"ofm_layer":"fiber-nodes","node_id":"ls-za-wacs-cape-town-landing-station-01","network_id":"za-mtn","name":"WACS Cape Town Landing Station","name_short":"WACS CPT","operator":"MTN","node_type":"landing-station","status":"operational","city":"Cape Town","country_iso":"ZA","region":"africa","address":null,"floor_space_sqm":null,"power_mw":null,"connected_networks":[],"peeringdb_id":null,"peeringdb_ix_id":null,"website":null,"source":"AfTerFibre","source_url":"https://afterfibre.nsrc.org","license":"CC-BY-4.0","attribution":"AfTerFibre / NSRC (CC-BY) — https://afterfibre.nsrc.org","last_updated":"2026-04-02","notes":"Curated from public AfTerFibre map. Coordinates approximate.","osm_node_id":null}},{"type":"Feature","geometry":{"type":"Point","coordinates":[3.38,6.42]},"properties":{"ofm_layer":"fiber-nodes","node_id":"ls-ng-mainone-lagos-landing-station-01","network_id":"ng-mainone","name":"MainOne Lagos Landing Station","name_short":"MainOne LGS","operator":"MainOne","node_type":"landing-station","status":"operational","city":"Lagos","country_iso":"NG","region":"africa","address":null,"floor_space_sqm":null,"power_mw":null,"connected_networks":[],"peeringdb_id":null,"peeringdb_ix_id":null,"website":null,"source":"AfTerFibre","source_url":"https://afterfibre.nsrc.org","license":"CC-BY-4.0","attribution":"AfTerFibre / NSRC (CC-BY) — https://afterfibre.nsrc.org","last_updated":"2026-04-02","notes":"Curated from public AfTerFibre map. Coordinates approximate.","osm_node_id":null}},{"type":"Feature","geometry":{"type":"Point","coordinates":[-17.44,14.69]},"properties":{"ofm_layer":"fiber-nodes","node_id":"ls-sn-ace-dakar-landing-station-01","network_id":"sn-orange","name":"ACE Dakar Landing Station","name_short":"ACE Dakar","operator":"Orange","node_type":"landing-station","status":"operational","city":"Dakar","country_iso":"SN","region":"africa","address":null,"floor_space_sqm":null,"power_mw":null,"connected_networks":[],"peeringdb_id":null,"peeringdb_ix_id":null,"website":null,"source":"AfTerFibre","source_url":"https://afterfibre.nsrc.org","license":"CC-BY-4.0","attribution":"AfTerFibre / NSRC (CC-BY) — https://afterfibre.nsrc.org","last_updated":"2026-04-02","notes":"Curated from public AfTerFibre map. Coordinates approximate.","osm_node_id":null}},{"type":"Feature","geometry":{"type":"Point","coordinates":[28.13,-26.18]},"properties":{"ofm_layer":"fiber-nodes","node_id":"dc-za-teraco-jb1-johannesburg-01","network_id":"za-teraco-data-environments","name":"Teraco JB1 Johannesburg","name_short":"Teraco JB1","operator":"Teraco Data Environments","node_type":"data-center","status":"operational","city":"Johannesburg","country_iso":"ZA","region":"africa","address":null,"floor_space_sqm":null,"power_mw":null,"connected_networks":[],"peeringdb_id":null,"peeringdb_ix_id":null,"website":null,"source":"AfTerFibre","source_url":"https://afterfibre.nsrc.org","license":"CC-BY-4.0","attribution":"AfTerFibre / NSRC (CC-BY) — https://afterfibre.nsrc.org","last_updated":"2026-04-02","notes":"Curated from public AfTerFibre map. Coordinates approximate.","osm_node_id":null}},{"type":"Feature","geometry":{"type":"Point","coordinates":[36.83,-1.27]},"properties":{"ofm_layer":"fiber-nodes","node_id":"dc-ke-africa-data-centres-nairobi-01","network_id":"ke-africa-data-centres","name":"Africa Data Centres Nairobi","name_short":"ADC Nairobi","operator":"Africa Data Centres","node_type":"data-center","status":"operational","city":"Nairobi","country_iso":"KE","region":"africa","address":null,"floor_space_sqm":null,"power_mw":null,"connected_networks":[],"peeringdb_id":null,"peeringdb_ix_id":null,"website":null,"source":"AfTerFibre","source_url":"https://afterfibre.nsrc.org","license":"CC-BY-4.0","attribution":"AfTerFibre / NSRC (CC-BY) — https://afterfibre.nsrc.org","last_updated":"2026-04-02","notes":"Curated from public AfTerFibre map. Coordinates approximate.","osm_node_id":null}},{"type":"Feature","geometry":{"type":"Point","coordinates":[3.39,6.6]},"properties":{"ofm_layer":"fiber-nodes","node_id":"dc-ng-mdxi-lagos-01","network_id":"ng-mainone-mdxi","name":"MDXi Lagos","name_short":"MDXi Lagos","operator":"MainOne (MDXi)","node_type":"data-center","status":"operational","city":"Lagos","country_iso":"NG","region":"africa","address":null,"floor_space_sqm":null,"power_mw":null,"connected_networks":[],"peeringdb_id":null,"peeringdb_ix_id":null,"website":null,"source":"AfTerFibre","source_url":"https://afterfibre.nsrc.org","license":"CC-BY-4.0","attribution":"AfTerFibre / NSRC (CC-BY) — https://afterfibre.nsrc.org","last_updated":"2026-04-02","notes":"Curated from public AfTerFibre map. Coordinates approximate.","osm_node_id":null}},{"type":"Feature","geometry":{"type":"LineString","coordinates":[[-48.55,-27.6],[-51.23,-30.03]]},"properties":{"ofm_layer":"fiber-spans","span_id":"br-rnp--0001","network_id":"br-rnp","name":"RNP Florianópolis–Porto Alegre","operator":"RNP","operator_id":null,"country_iso":"BR","countries":["BR"],"region":"americas","status":"deployed","burial_type":"underground","length_km":375.7,"capacity_gbps":100,"capacity_class":"high","fiber_pairs":null,"fiber_type":null,"phase_id":null,"phase_name":null,"construction_start":null,"ready_for_service":null,"funders":[],"contracts":[],"source":"RNP","source_url":"https://www.rnp.br/en/network/infrastructure","license":"CC-BY-4.0","attribution":"RNP — Rede Nacional de Pesquisa (CC-BY) — https://www.rnp.br","last_updated":"2026-04-02","notes":"Approximate alignment from public RNP backbone maps. Not authoritative.","ofds_span_id":null,"osm_way_id":null}},{"type":"Feature","geometry":{"type":"LineString","coordinates":[[-51.23,-30.03],[-50.0,-28.5],[-49.27,-25.43]]},"properties":{"ofm_layer":"fiber-spans","span_id":"br-rnp--0002","network_id":"br-rnp","name":"RNP Porto Alegre–Curitiba","operator":"RNP","operator_id":null,"country_iso":"BR","countries":["BR"],"region":"americas","status":"deployed","burial_type":"underground","length_km":556.7,"capacity_gbps":100,"capacity_class":"high","fiber_pairs":null,"fiber_type":null,"phase_id":null,"phase_name":null,"construction_start":null,"ready_for_service":null,"funders":[],"contracts":[],"source":"RNP","source_url":"https://www.rnp.br/en/network/infrastructure","license":"CC-BY-4.0","attribution":"RNP — Rede Nacional de Pesquisa (CC-BY) — https://www.rnp.br","last_updated":"2026-04-02","notes":"Approximate alignment from public RNP backbone maps. Not authoritative.","ofds_span_id":null,"osm_way_id":null}},{"type":"Feature","geometry":{"type":"LineString","coordinates":[[-49.27,-25.43],[-48.9,-24.5],[-46.63,-23.55]]},"properties":{"ofm_layer":"fiber-spans","span_id":"br-rnp--0003","network_id":"br-rnp","name":"RNP Curitiba–São Paulo","operator":"RNP","operator_id":null,"country_iso":"BR","countries":["BR"],"region":"americas","status":"deployed","burial_type":"underground","length_km":363.5,"capacity_gbps":400,"capacity_class":"high","fiber_pairs":null,"fiber_type":null,"phase_id":null,"phase_name":null,"construction_start":null,"ready_for_service":null,"funders":[],"contracts":[],"source":"RNP","source_url":"https://www.rnp.br/en/network/infrastructure","license":"CC-BY-4.0","attribution":"RNP — Rede Nacional de Pesquisa (CC-BY) — https://www.rnp.br","last_updated":"2026-04-02","notes":"Approximate alignment from public RNP backbone maps. Not authoritative.","ofds_span_id":null,"osm_way_id":null}},{"type":"Feature","geometry":{"type":"LineString","coordinates":[[-46.63,-23.55],[-45.5,-23.0],[-43.17,-22.91]]},"properties":{"ofm_layer":"fiber-spans","span_id":"br-rnp--0004","network_id":"br-rnp","name":"RNP São Paulo–Rio de Janeiro","operator":"RNP","operator_id":null,"country_iso":"BR","countries":["BR"],"region":"americas","status":"deployed","burial_type":"underground","length_km":369.4,"capacity_gbps":400,"capacity_class":"high","fiber_pairs":null,"fiber_type":null,"phase_id":null,"phase_name":null,"construction_start":null,"ready_for_service":null,"funders":[],"contracts":[],"source":"RNP","source_url":"https://www.rnp.br/en/network/infrastructure","license":"CC-BY-4.0","attribution":"RNP — Rede Nacional de Pesquisa (CC-BY) — https://www.rnp.br","last_updated":"2026-04-02","notes":"Approximate alignment from public RNP backbone maps. Not authoritative.","ofds_span_id":null,"osm_way_id":null}},{"type":"Feature","geometry":{"type":"LineString","coordinates":[[-43.17,-22.91],[-43.5,-21.5],[-43.93,-19.92]]},"properties":{"ofm_layer":"fiber-spans","span_id":"br-rnp--0005","network_id":"br-rnp","name":"RNP Rio de Janeiro–Belo Horizonte","operator":"RNP","operator_id":null,"country_iso":"BR","countries":["BR"],"region":"americas","status":"deployed","burial_type":"underground","length_km":341.7,"capacity_gbps":200,"capacity_class":"high","fiber_pairs":null,"fiber_type":null,"phase_id":null,"phase_name":null,"construction_start":null,"ready_for_service":null,"funders":[],"contracts":[],"source":"RNP","source_url":"https://www.rnp.br/en/network/infrastructure","license":"CC-BY-4.0","attribution":"RNP — Rede Nacional de Pesquisa (CC-BY) — https://www.rnp.br","last_updated":"2026-04-02","notes":"Approximate alignment from public RNP backbone maps. Not authoritative.","ofds_span_id":null,"osm_way_id":null}},{"type":"Feature","geometry":{"type":"LineString","coordinates":[[-46.63,-23.55],[-46.0,-22.0],[-43.93,-19.92]]},"properties":{"ofm_layer":"fiber-spans","span_id":"br-rnp--0006","network_id":"br-rnp","name":"RNP São Paulo–Belo Horizonte","operator":"RNP","operator_id":null,"country_iso":"BR","countries":["BR"],"region":"americas","status":"deployed","burial_type":"underground","length_km":499.8,"capacity_gbps":200,"capacity_class":"high","fiber_pairs":null,"fiber_type":null,"phase_id":null,"phase_name":null,"construction_start":null,"ready_for_service":null,"funders":[],"contracts":[],"source":"RNP","source_url":"https://www.rnp.br/en/network/infrastructure","license":"CC-BY-4.0","attribution":"RNP — Rede Nacional de Pesquisa (CC-BY) — https://www.rnp.br","last_updated":"2026-04-02","notes":"Approximate alignment from public RNP backbone maps. Not authoritative.","ofds_span_id":null,"osm_way_id":null}},{"type":"Feature","geometry":{"type":"LineString","coordinates":[[-43.93,-19.92],[-46.5,-17.5],[-47.93,-15.78]]},"properties":{"ofm_layer":"fiber-spans","span_id":"br-rnp--0007","network_id":"br-rnp","name":"RNP Belo Horizonte–Brasília","operator":"RNP","operator_id":null,"country_iso":"BR","countries":["BR"],"region":"americas","status":"deployed","burial_type":"underground","length_km":626.2,"capacity_gbps":200,"capacity_class":"high","fiber_pairs":null,"fiber_type":null,"phase_id":null,"phase_name":null,"construction_start":null,"ready_for_service":null,"funders":[],"contracts":[],"source":"RNP","source_url":"https://www.rnp.br/en/network/infrastructure","license":"CC-BY-4.0","attribution":"RNP — Rede Nacional de Pesquisa (CC-BY) — https://www.rnp.br","last_updated":"2026-04-02","notes":"Approximate alignment from public RNP backbone maps. Not authoritative.","ofds_span_id":null,"osm_way_id":null}},{"type":"Feature","geometry":{"type":"LineString","coordinates":[[-46.63,-23.55],[-47.0,-20.0],[-47.93,-15.78]]},"properties":{"ofm_layer":"fiber-spans","span_id":"br-rnp--0008","network_id":"br-rnp","name":"RNP São Paulo–Brasília","operator":"RNP","operator_id":null,"country_iso":"BR","countries":["BR"],"region":"americas","status":"deployed","burial_type":"underground","length_km":876.0,"capacity_gbps":100,"capacity_class":"high","fiber_pairs":null,"fiber_type":null,"phase_id":null,"phase_name":null,"construction_start":null,"ready_for_service":null,"funders":[],"contracts":[],"source":"RNP","source_url":"https://www.rnp.br/en/network/infrastructure","license":"CC-BY-4.0","attribution":"RNP — Rede Nacional de Pesquisa (CC-BY) — https://www.rnp.br","last_updated":"2026-04-02","notes":"Approximate alignment from public RNP backbone maps. Not authoritative.","ofds_span_id":null,"osm_way_id":null}},{"type":"Feature","geometry":{"type":"LineString","coordinates":[[-47.93,-15.78],[-49.25,-16.69]]},"properties":{"ofm_layer":"fiber-spans","span_id":"br-rnp--0009","network_id":"br-rnp","name":"RNP Brasília–Goiânia","operator":"RNP","operator_id":null,"country_iso":"BR","countries":["BR"],"region":"americas","status":"deployed","burial_type":"underground","length_km":173.5,"capacity_gbps":100,"capacity_class":"high","fiber_pairs":null,"fiber_type":null,"phase_id":null,"phase_name":null,"construction_start":null,"ready_for_service":null,"funders":[],"contracts":[],"source":"RNP","source_url":"https://www.rnp.br/en/network/infrastructure","license":"CC-BY-4.0","attribution":"RNP — Rede Nacional de Pesquisa (CC-BY) — https://www.rnp.br","last_updated":"2026-04-02","notes":"Approximate alignment from public RNP backbone maps. Not authoritative.","ofds_span_id":null,"osm_way_id":null}},{"type":"Feature","geometry":{"type":"LineString","coordinates":[[-47.93,-15.78],[-52.0,-18.0],[-54.65,-20.47]]},"properties":{"ofm_layer":"fiber-spans","span_id":"br-rnp--0010","network_id":"br-rnp","name":"RNP Brasília–Campo Grande","operator":"RNP","operator_id":null,"country_iso":"BR","countries":["BR"],"region":"americas","status":"deployed","burial_type":"underground","length_km":889.3,"capacity_gbps":40,"capacity_class":"medium","fiber_pairs":null,"fiber_type":null,"phase_id":null,"phase_name":null,"construction_start":null,"ready_for_service":null,"funders":[],"contracts":[],"source":"RNP","source_url":"https://www.rnp.br/en/network/infrastructure","license":"CC-BY-4.0","attribution":"RNP — Rede Nacional de Pesquisa (CC-BY) — https://www.rnp.br","last_updated":"2026-04-02","notes":"Approximate alignment from public RNP backbone maps. Not authoritative.","ofds_span_id":null,"osm_way_id":null}},{"type":"Feature","geometry":{"type":"LineString","coordinates":[[-43.93,-19.92],[-42.0,-16.0],[-38.52,-12.97]]},"properties":{"ofm_layer":"fiber-spans","span_id":"br-rnp--0011","network_id":"br-rnp","name":"RNP Belo Horizonte–Salvador","operator":"RNP","operator_id":null,"country_iso":"BR","countries":["BR"],"region":"americas","status":"deployed","burial_type":"underground","length_km":985.1,"capacity_gbps":100,"capacity_class":"high","fiber_pairs":null,"fiber_type":null,"phase_id":null,"phase_name":null,"construction_start":null,"ready_for_service":null,"funders":[],"contracts":[],"source":"RNP","source_url":"https://www.rnp.br/en/network/infrastructure","license":"CC-BY-4.0","attribution":"RNP — Rede Nacional de Pesquisa (CC-BY) — https://www.rnp.br","last_updated":"2026-04-02","notes":"Approximate alignment from public RNP backbone maps. Not authoritative.","ofds_span_id":null,"osm_way_id":null}},{"type":"Feature","geometry":{"type":"LineString","coordinates":[[-38.52,-12.97],[-37.0,-10.5],[-35.0,-8.8],[-34.88,-8.05]]},"properties":{"ofm_layer":"fiber-spans","span_id":"br-rnp--0012","network_id":"br-rnp","name":"RNP Salvador–Recife","operator":"RNP","operator_id":null,"country_iso":"BR","countries":["BR"],"region":"americas","status":"deployed","burial_type":"underground","length_km":694.6,"capacity_gbps":100,"capacity_class":"high","fiber_pairs":null,"fiber_type":null,"phase_id":null,"phase_name":null,"construction_start":null,"ready_for_service":null,"funders":[],"contracts":[],"source":"RNP","source_url":"https://www.rnp.br/en/network/infrastructure","license":"CC-BY-4.0","attribution":"RNP — Rede Nacional de Pesquisa (CC-BY) — https://www.rnp.br","last_updated":"2026-04-02","notes":"Approximate alignment from public RNP backbone maps. Not authoritative.","ofds_span_id":null,"osm_way_id":null}},{"type":"Feature","geometry":{"type":"LineString","coordinates":[[-34.88,-8.05],[-35.5,-5.8],[-36.0,-4.5],[-38.54,-3.72]]},"properties":{"ofm_layer":"fiber-spans","span_id":"br-rnp--0013","network_id":"br-rnp","name":"RNP Recife–Fortaleza","operator":"RNP","operator_id":null,"country_iso":"BR","countries":["BR"],"region":"americas","status":"deployed","burial_type":"underground","length_km":708.9,"capacity_gbps":100,"capacity_class":"high","fiber_pairs":null,"fiber_type":null,"phase_id":null,"phase_name":null,"construction_start":null,"ready_for_service":null,"funders":[],"contracts":[],"source":"RNP","source_url":"https://www.rnp.br/en/network/infrastructure","license":"CC-BY-4.0","attribution":"RNP — Rede Nacional de Pesquisa (CC-BY) — https://www.rnp.br","last_updated":"2026-04-02","notes":"Approximate alignment from public RNP backbone maps. Not authoritative.","ofds_span_id":null,"osm_way_id":null}},{"type":"Feature","geometry":{"type":"LineString","coordinates":[[-38.54,-3.72],[-40.35,-5.09],[-42.8,-5.09]]},"properties":{"ofm_layer":"fiber-spans","span_id":"br-rnp--0014","network_id":"br-rnp","name":"RNP Fortaleza–Teresina","operator":"RNP","operator_id":null,"country_iso":"BR","countries":["BR"],"region":"americas","status":"deployed","burial_type":"underground","length_km":523.3,"capacity_gbps":40,"capacity_class":"medium","fiber_pairs":null,"fiber_type":null,"phase_id":null,"phase_name":null,"construction_start":null,"ready_for_service":null,"funders":[],"contracts":[],"source":"RNP","source_url":"https://www.rnp.br/en/network/infrastructure","license":"CC-BY-4.0","attribution":"RNP — Rede Nacional de Pesquisa (CC-BY) — https://www.rnp.br","last_updated":"2026-04-02","notes":"Approximate alignment from public RNP backbone maps. Not authoritative.","ofds_span_id":null,"osm_way_id":null}},{"type":"Feature","geometry":{"type":"LineString","coordinates":[[-38.54,-3.72],[-36.0,-3.8],[-35.21,-5.79]]},"properties":{"ofm_layer":"fiber-spans","span_id":"br-rnp--0015","network_id":"br-rnp","name":"RNP Fortaleza–Natal","operator":"RNP","operator_id":null,"country_iso":"BR","countries":["BR"],"region":"americas","status":"deployed","burial_type":"underground","length_km":519.9,"capacity_gbps":40,"capacity_class":"medium","fiber_pairs":null,"fiber_type":null,"phase_id":null,"phase_name":null,"construction_start":null,"ready_for_service":null,"funders":[],"contracts":[],"source":"RNP","source_url":"https://www.rnp.br/en/network/infrastructure","license":"CC-BY-4.0","attribution":"RNP — Rede Nacional de Pesquisa (CC-BY) — https://www.rnp.br","last_updated":"2026-04-02","notes":"Approximate alignment from public RNP backbone maps. Not authoritative.","ofds_span_id":null,"osm_way_id":null}},{"type":"Feature","geometry":{"type":"LineString","coordinates":[[-47.93,-15.78],[-48.5,-10.0],[-48.5,-5.0],[-48.5,-1.46]]},"properties":{"ofm_layer":"fiber-spans","span_id":"br-rnp--0016","network_id":"br-rnp","name":"RNP Brasília–Belém (GESAC-aligned)","operator":"RNP","operator_id":null,"country_iso":"BR","countries":["BR"],"region":"americas","status":"deployed","burial_type":"underground","length_km":1595.3,"capacity_gbps":40,"capacity_class":"medium","fiber_pairs":null,"fiber_type":null,"phase_id":null,"phase_name":null,"construction_start":null,"ready_for_service":null,"funders":[],"contracts":[],"source":"RNP","source_url":"https://www.rnp.br/en/network/infrastructure","license":"CC-BY-4.0","attribution":"RNP — Rede Nacional de Pesquisa (CC-BY) — https://www.rnp.br","last_updated":"2026-04-02","notes":"Approximate alignment from public RNP backbone maps. Not authoritative.","ofds_span_id":null,"osm_way_id":null}},{"type":"Feature","geometry":{"type":"LineString","coordinates":[[-48.5,-1.46],[-51.0,0.5],[-51.07,0.04]]},"properties":{"ofm_layer":"fiber-spans","span_id":"br-rnp--0017","network_id":"br-rnp","name":"RNP Belém–Macapá","operator":"RNP","operator_id":null,"country_iso":"BR","countries":["BR"],"region":"americas","status":"deployed","burial_type":"underground","length_km":405.0,"capacity_gbps":10,"capacity_class":"medium","fiber_pairs":null,"fiber_type":null,"phase_id":null,"phase_name":null,"construction_start":null,"ready_for_service":null,"funders":[],"contracts":[],"source":"RNP","source_url":"https://www.rnp.br/en/network/infrastructure","license":"CC-BY-4.0","attribution":"RNP — Rede Nacional de Pesquisa (CC-BY) — https://www.rnp.br","last_updated":"2026-04-02","notes":"Approximate alignment from public RNP backbone maps. Not authoritative.","ofds_span_id":null,"osm_way_id":null}},{"type":"Feature","geometry":{"type":"LineString","coordinates":[[-48.5,-1.46],[-52.0,-3.0],[-55.0,-3.1],[-60.02,-3.1]]},"properties":{"ofm_layer":"fiber-spans","span_id":"br-rnp--0018","network_id":"br-rnp","name":"RNP Belém–Manaus (partial)","operator":"RNP","operator_id":null,"country_iso":"BR","countries":["BR"],"region":"americas","status":"deployed","burial_type":"underground","length_km":1315.6,"capacity_gbps":10,"capacity_class":"medium","fiber_pairs":null,"fiber_type":null,"phase_id":null,"phase_name":null,"construction_start":null,"ready_for_service":null,"funders":[],"contracts":[],"source":"RNP","source_url":"https://www.rnp.br/en/network/infrastructure","license":"CC-BY-4.0","attribution":"RNP — Rede Nacional de Pesquisa (CC-BY) — https://www.rnp.br","last_updated":"2026-04-02","notes":"Approximate alignment from public RNP backbone maps. Not authoritative.","ofds_span_id":null,"osm_way_id":null}},{"type":"Feature","geometry":{"type":"LineString","coordinates":[[-48.55,-27.6],[-48.6,-26.9],[-48.52,-26.0],[-46.63,-23.55]]},"properties":{"ofm_layer":"fiber-spans","span_id":"br-rnp--0019","network_id":"br-rnp","name":"RNP Florianópolis–São Paulo (coastal)","operator":"RNP","operator_id":null,"country_iso":"BR","countries":["BR"],"region":"americas","status":"deployed","burial_type":"underground","length_km":511.0,"capacity_gbps":100,"capacity_class":"high","fiber_pairs":null,"fiber_type":null,"phase_id":null,"phase_name":null,"construction_start":null,"ready_for_service":null,"funders":[],"contracts":[],"source":"RNP","source_url":"https://www.rnp.br/en/network/infrastructure","license":"CC-BY-4.0","attribution":"RNP — Rede Nacional de Pesquisa (CC-BY) — https://www.rnp.br","last_updated":"2026-04-02","notes":"Approximate alignment from public RNP backbone maps. Not authoritative.","ofds_span_id":null,"osm_way_id":null}},{"type":"Feature","geometry":{"type":"Point","coordinates":[-46.63,-23.55]},"properties":{"ofm_layer":"fiber-nodes","node_id":"pop-br-rnp-pop-sao-paulo-01","network_id":"br-rnp","name":"RNP PoP São Paulo","name_short":null,"operator":"RNP","node_type":"pop","status":"operational","city":"São Paulo","country_iso":"BR","region":"americas","address":null,"floor_space_sqm":null,"power_mw":null,"connected_networks":[],"peeringdb_id":null,"peeringdb_ix_id":null,"website":null,"source":"RNP","source_url":"https://www.rnp.br/en/network/infrastructure","license":"CC-BY-4.0","attribution":"RNP — Rede Nacional de Pesquisa (CC-BY) — https://www.rnp.br","last_updated":"2026-04-02","notes":"Coordinates approximate (city PoP location).","osm_node_id":null}},{"type":"Feature","geometry":{"type":"Point","coordinates":[-43.17,-22.91]},"properties":{"ofm_layer":"fiber-nodes","node_id":"pop-br-rnp-pop-rio-de-janeiro-01","network_id":"br-rnp","name":"RNP PoP Rio de Janeiro","name_short":null,"operator":"RNP","node_type":"pop","status":"operational","city":"Rio de Janeiro","country_iso":"BR","region":"americas","address":null,"floor_space_sqm":null,"power_mw":null,"connected_networks":[],"peeringdb_id":null,"peeringdb_ix_id":null,"website":null,"source":"RNP","source_url":"https://www.rnp.br/en/network/infrastructure","license":"CC-BY-4.0","attribution":"RNP — Rede Nacional de Pesquisa (CC-BY) — https://www.rnp.br","last_updated":"2026-04-02","notes":"Coordinates approximate (city PoP location).","osm_node_id":null}},{"type":"Feature","geometry":{"type":"Point","coordinates":[-47.93,-15.78]},"properties":{"ofm_layer":"fiber-nodes","node_id":"pop-br-rnp-pop-brasilia-01","network_id":"br-rnp","name":"RNP PoP Brasília","name_short":null,"operator":"RNP","node_type":"pop","status":"operational","city":"Brasília","country_iso":"BR","region":"americas","address":null,"floor_space_sqm":null,"power_mw":null,"connected_networks":[],"peeringdb_id":null,"peeringdb_ix_id":null,"website":null,"source":"RNP","source_url":"https://www.rnp.br/en/network/infrastructure","license":"CC-BY-4.0","attribution":"RNP — Rede Nacional de Pesquisa (CC-BY) — https://www.rnp.br","last_updated":"2026-04-02","notes":"Coordinates approximate (city PoP location).","osm_node_id":null}},{"type":"Feature","geometry":{"type":"Point","coordinates":[-43.93,-19.92]},"properties":{"ofm_layer":"fiber-nodes","node_id":"pop-br-rnp-pop-belo-horizonte-01","network_id":"br-rnp","name":"RNP PoP Belo Horizonte","name_short":null,"operator":"RNP","node_type":"pop","status":"operational","city":"Belo Horizonte","country_iso":"BR","region":"americas","address":null,"floor_space_sqm":null,"power_mw":null,"connected_networks":[],"peeringdb_id":null,"peeringdb_ix_id":null,"website":null,"source":"RNP","source_url":"https://www.rnp.br/en/network/infrastructure","license":"CC-BY-4.0","attribution":"RNP — Rede Nacional de Pesquisa (CC-BY) — https://www.rnp.br","last_updated":"2026-04-02","notes":"Coordinates approximate (city PoP location).","osm_node_id":null}},{"type":"Feature","geometry":{"type":"Point","coordinates":[-38.52,-12.97]},"properties":{"ofm_layer":"fiber-nodes","node_id":"pop-br-rnp-pop-salvador-01","network_id":"br-rnp","name":"RNP PoP Salvador","name_short":null,"operator":"RNP","node_type":"pop","status":"operational","city":"Salvador","country_iso":"BR","region":"americas","address":null,"floor_space_sqm":null,"power_mw":null,"connected_networks":[],"peeringdb_id":null,"peeringdb_ix_id":null,"website":null,"source":"RNP","source_url":"https://www.rnp.br/en/network/infrastructure","license":"CC-BY-4.0","attribution":"RNP — Rede Nacional de Pesquisa (CC-BY) — https://www.rnp.br","last_updated":"2026-04-02","notes":"Coordinates approximate (city PoP location).","osm_node_id":null}},{"type":"Feature","geometry":{"type":"Point","coordinates":[-34.88,-8.05]},"properties":{"ofm_layer":"fiber-nodes","node_id":"pop-br-rnp-pop-recife-01","network_id":"br-rnp","name":"RNP PoP Recife","name_short":null,"operator":"RNP","node_type":"pop","status":"operational","city":"Recife","country_iso":"BR","region":"americas","address":null,"floor_space_sqm":null,"power_mw":null,"connected_networks":[],"peeringdb_id":null,"peeringdb_ix_id":null,"website":null,"source":"RNP","source_url":"https://www.rnp.br/en/network/infrastructure","license":"CC-BY-4.0","attribution":"RNP — Rede Nacional de Pesquisa (CC-BY) — https://www.rnp.br","last_updated":"2026-04-02","notes":"Coordinates approximate (city PoP location).","osm_node_id":null}},{"type":"Feature","geometry":{"type":"Point","coordinates":[-38.54,-3.72]},"properties":{"ofm_layer":"fiber-nodes","node_id":"pop-br-rnp-pop-fortaleza-01","network_id":"br-rnp","name":"RNP PoP Fortaleza","name_short":null,"operator":"RNP","node_type":"pop","status":"operational","city":"Fortaleza","country_iso":"BR","region":"americas","address":null,"floor_space_sqm":null,"power_mw":null,"connected_networks":[],"peeringdb_id":null,"peeringdb_ix_id":null,"website":null,"source":"RNP","source_url":"https://www.rnp.br/en/network/infrastructure","license":"CC-BY-4.0","attribution":"RNP — Rede Nacional de Pesquisa (CC-BY) — https://www.rnp.br","last_updated":"2026-04-02","notes":"Coordinates approximate (city PoP location).","osm_node_id":null}},{"type":"Feature","geometry":{"type":"Point","coordinates":[-51.23,-30.03]},"properties":{"ofm_layer":"fiber-nodes","node_id":"pop-br-rnp-pop-porto-alegre-01","network_id":"br-rnp","name":"RNP PoP Porto Alegre","name_short":null,"operator":"RNP","node_type":"pop","status":"operational","city":"Porto Alegre","country_iso":"BR","region":"americas","address":null,"floor_space_sqm":null,"power_mw":null,"connected_networks":[],"peeringdb_id":null,"peeringdb_ix_id":null,"website":null,"source":"RNP","source_url":"https://www.rnp.br/en/network/infrastructure","license":"CC-BY-4.0","attribution":"RNP — Rede Nacional de Pesquisa (CC-BY) — https://www.rnp.br","last_updated":"2026-04-02","notes":"Coordinates approximate (city PoP location).","osm_node_id":null}},{"type":"Feature","geometry":{"type":"Point","coordinates":[-49.27,-25.43]},"properties":{"ofm_layer":"fiber-nodes","node_id":"pop-br-rnp-pop-curitiba-01","network_id":"br-rnp","name":"RNP PoP Curitiba","name_short":null,"operator":"RNP","node_type":"pop","status":"operational","city":"Curitiba","country_iso":"BR","region":"americas","address":null,"floor_space_sqm":null,"power_mw":null,"connected_networks":[],"peeringdb_id":null,"peeringdb_ix_id":null,"website":null,"source":"RNP","source_url":"https://www.rnp.br/en/network/infrastructure","license":"CC-BY-4.0","attribution":"RNP — Rede Nacional de Pesquisa (CC-BY) — https://www.rnp.br","last_updated":"2026-04-02","notes":"Coordinates approximate (city PoP location).","osm_node_id":null}},{"type":"Feature","geometry":{"type":"Point","coordinates":[-48.55,-27.6]},"properties":{"ofm_layer":"fiber-nodes","node_id":"pop-br-rnp-pop-florianopolis-01","network_id":"br-rnp","name":"RNP PoP Florianópolis","name_short":null,"operator":"RNP","node_type":"pop","status":"operational","city":"Florianópolis","country_iso":"BR","region":"americas","address":null,"floor_space_sqm":null,"power_mw":null,"connected_networks":[],"peeringdb_id":null,"peeringdb_ix_id":null,"website":null,"source":"RNP","source_url":"https://www.rnp.br/en/network/infrastructure","license":"CC-BY-4.0","attribution":"RNP — Rede Nacional de Pesquisa (CC-BY) — https://www.rnp.br","last_updated":"2026-04-02","notes":"Coordinates approximate (city PoP location).","osm_node_id":null}},{"type":"Feature","geometry":{"type":"Point","coordinates":[-60.02,-3.1]},"properties":{"ofm_layer":"fiber-nodes","node_id":"pop-br-rnp-pop-manaus-01","network_id":"br-rnp","name":"RNP PoP Manaus","name_short":null,"operator":"RNP","node_type":"pop","status":"operational","city":"Manaus","country_iso":"BR","region":"americas","address":null,"floor_space_sqm":null,"power_mw":null,"connected_networks":[],"peeringdb_id":null,"peeringdb_ix_id":null,"website":null,"source":"RNP","source_url":"https://www.rnp.br/en/network/infrastructure","license":"CC-BY-4.0","attribution":"RNP — Rede Nacional de Pesquisa (CC-BY) — https://www.rnp.br","last_updated":"2026-04-02","notes":"Coordinates approximate (city PoP location).","osm_node_id":null}},{"type":"Feature","geometry":{"type":"Point","coordinates":[-48.5,-1.46]},"properties":{"ofm_layer":"fiber-nodes","node_id":"pop-br-rnp-pop-belem-01","network_id":"br-rnp","name":"RNP PoP Belém","name_short":null,"operator":"RNP","node_type":"pop","status":"operational","city":"Belém","country_iso":"BR","region":"americas","address":null,"floor_space_sqm":null,"power_mw":null,"connected_networks":[],"peeringdb_id":null,"peeringdb_ix_id":null,"website":null,"source":"RNP","source_url":"https://www.rnp.br/en/network/infrastructure","license":"CC-BY-4.0","attribution":"RNP — Rede Nacional de Pesquisa (CC-BY) — https://www.rnp.br","last_updated":"2026-04-02","notes":"Coordinates approximate (city PoP location).","osm_node_id":null}},{"type":"Feature","geometry":{"type":"Point","coordinates":[-49.25,-16.69]},"properties":{"ofm_layer":"fiber-nodes","node_id":"pop-br-rnp-pop-goiania-01","network_id":"br-rnp","name":"RNP PoP Goiânia","name_short":null,"operator":"RNP","node_type":"pop","status":"operational","city":"Goiânia","country_iso":"BR","region":"americas","address":null,"floor_space_sqm":null,"power_mw":null,"connected_networks":[],"peeringdb_id":null,"peeringdb_ix_id":null,"website":null,"source":"RNP","source_url":"https://www.rnp.br/en/network/infrastructure","license":"CC-BY-4.0","attribution":"RNP — Rede Nacional de Pesquisa (CC-BY) — https://www.rnp.br","last_updated":"2026-04-02","notes":"Coordinates approximate (city PoP location).","osm_node_id":null}},{"type":"Feature","geometry":{"type":"Point","coordinates":[-46.63,-23.55]},"properties":{"ofm_layer":"fiber-nodes","node_id":"ixp-br-ixbr-sao-paulo-ptt-metro-sp-01","network_id":"br-nicbr-ixbr","name":"IX.br São Paulo (PTT Metro SP)","name_short":"IX.br SP","operator":"NIC.br / IX.br","node_type":"ixp","status":"operational","city":"São Paulo","country_iso":"BR","region":"americas","address":null,"floor_space_sqm":null,"power_mw":null,"connected_networks":[],"peeringdb_id":null,"peeringdb_ix_id":null,"website":null,"source":"RNP","source_url":"https://www.rnp.br/en/network/infrastructure","license":"CC-BY-4.0","attribution":"RNP — Rede Nacional de Pesquisa (CC-BY) — https://www.rnp.br","last_updated":"2026-04-02","notes":"Coordinates approximate (city PoP location).","osm_node_id":null}},{"type":"Feature","geometry":{"type":"Point","coordinates":[-43.17,-22.91]},"properties":{"ofm_layer":"fiber-nodes","node_id":"ixp-br-ixbr-rio-de-janeiro-01","network_id":"br-nicbr-ixbr","name":"IX.br Rio de Janeiro","name_short":"IX.br RJ","operator":"NIC.br / IX.br","node_type":"ixp","status":"operational","city":"Rio de Janeiro","country_iso":"BR","region":"americas","address":null,"floor_space_sqm":null,"power_mw":null,"connected_networks":[],"peeringdb_id":null,"peeringdb_ix_id":null,"website":null,"source":"RNP","source_url":"https://www.rnp.br/en/network/infrastructure","license":"CC-BY-4.0","attribution":"RNP — Rede Nacional de Pesquisa (CC-BY) — https://www.rnp.br","last_updated":"2026-04-02","notes":"Coordinates approximate (city PoP location).","osm_node_id":null}},{"type":"Feature","geometry":{"type":"Point","coordinates":[-38.54,-3.72]},"properties":{"ofm_layer":"fiber-nodes","node_id":"ixp-br-ixbr-fortaleza-01","network_id":"br-nicbr-ixbr","name":"IX.br Fortaleza","name_short":"IX.br FOR","operator":"NIC.br / IX.br","node_type":"ixp","status":"operational","city":"Fortaleza","country_iso":"BR","region":"americas","address":null,"floor_space_sqm":null,"power_mw":null,"connected_networks":[],"peeringdb_id":null,"peeringdb_ix_id":null,"website":null,"source":"RNP","source_url":"https://www.rnp.br/en/network/infrastructure","license":"CC-BY-4.0","attribution":"RNP — Rede Nacional de Pesquisa (CC-BY) — https://www.rnp.br","last_updated":"2026-04-02","notes":"Coordinates approximate (city PoP location).","osm_node_id":null}},{"type":"Feature","geometry":{"type":"Point","coordinates":[-46.41,-24.01]},"properties":{"ofm_layer":"fiber-nodes","node_id":"ls-br-seabras-1-sao-paulo-landing-station-pra-01","network_id":"br-seaborn-networks","name":"Seabras-1 São Paulo Landing Station (Praia Grande)","name_short":"SEABRAS-1","operator":"Seaborn Networks","node_type":"landing-station","status":"operational","city":"Praia Grande","country_iso":"BR","region":"americas","address":null,"floor_space_sqm":null,"power_mw":null,"connected_networks":[],"peeringdb_id":null,"peeringdb_ix_id":null,"website":null,"source":"RNP","source_url":"https://www.rnp.br/en/network/infrastructure","license":"CC-BY-4.0","attribution":"RNP — Rede Nacional de Pesquisa (CC-BY) — https://www.rnp.br","last_updated":"2026-04-02","notes":"Coordinates approximate (city PoP location).","osm_node_id":null}},{"type":"Feature","geometry":{"type":"Point","coordinates":[-38.52,-3.74]},"properties":{"ofm_layer":"fiber-nodes","node_id":"ls-br-ellalink-fortaleza-landing-station-01","network_id":"br-ellalink","name":"EllaLink Fortaleza Landing Station","name_short":"EllaLink FOR","operator":"EllaLink","node_type":"landing-station","status":"operational","city":"Fortaleza","country_iso":"BR","region":"americas","address":null,"floor_space_sqm":null,"power_mw":null,"connected_networks":[],"peeringdb_id":null,"peeringdb_ix_id":null,"website":null,"source":"RNP","source_url":"https://www.rnp.br/en/network/infrastructure","license":"CC-BY-4.0","attribution":"RNP — Rede Nacional de Pesquisa (CC-BY) — https://www.rnp.br","last_updated":"2026-04-02","notes":"Coordinates approximate (city PoP location).","osm_node_id":null}},{"type":"Feature","geometry":{"type":"Point","coordinates":[-38.5,-3.73]},"properties":{"ofm_layer":"fiber-nodes","node_id":"ls-br-monet-fortaleza-landing-station-01","network_id":"br-google-antel","name":"Monet Fortaleza Landing Station","name_short":"Monet FOR","operator":"Google / Antel","node_type":"landing-station","status":"operational","city":"Fortaleza","country_iso":"BR","region":"americas","address":null,"floor_space_sqm":null,"power_mw":null,"connected_networks":[],"peeringdb_id":null,"peeringdb_ix_id":null,"website":null,"source":"RNP","source_url":"https://www.rnp.br/en/network/infrastructure","license":"CC-BY-4.0","attribution":"RNP — Rede Nacional de Pesquisa (CC-BY) — https://www.rnp.br","last_updated":"2026-04-02","notes":"Coordinates approximate (city PoP location).","osm_node_id":null}}]}