{"type":"FeatureCollection","last_updated":"2026-04-04","name":"OpenFiberMap-Europe","features":[{"type":"Feature","geometry":{"type":"LineString","coordinates":[[-0.13,51.51],[2.35,48.85],[4.9,52.37],[4.4,51.22],[12.57,55.68],[10.0,53.55],[9.99,53.55],[13.4,52.52],[16.37,48.21],[14.42,50.08],[18.92,49.82],[21.01,52.23],[28.98,41.02],[30.52,50.45],[37.62,55.75],[24.94,60.17],[18.07,59.33],[10.75,59.91],[12.57,55.68]]},"properties":{"ofm_layer":"fiber-spans","span_id":"eu-geant-ring--0006","network_id":"eu-geant-ring","name":"GÉANT European Core Ring","operator":"GÉANT","operator_id":null,"country_iso":"NL","countries":["GB","FR","NL","BE","DK","DE","AT","CZ","PL","TR","UA","RU","FI","SE","NO"],"region":"europe","status":"deployed","burial_type":"underground","length_km":20000,"capacity_gbps":500,"capacity_class":"high","fiber_pairs":null,"fiber_type":null,"phase_id":null,"phase_name":null,"construction_start":null,"ready_for_service":null,"funders":[],"contracts":[],"source":"OpenFiberMap-Seeds","source_url":"https://github.com/Jastman/OpenFiberMap","license":"CC0-1.0","attribution":"OpenFiberMap curated backbone seeds (approximate, CC0)","last_updated":"2026-04-04","notes":"Approximate alignment digitized from publicly-available network maps.","ofds_span_id":null,"osm_way_id":null}},{"type":"Feature","geometry":{"type":"LineString","coordinates":[[2.35,48.85],[1.56,41.39],[-3.7,40.42],[-8.62,41.15],[2.17,41.38],[12.48,41.89],[14.42,40.85],[23.73,37.98],[26.1,44.44],[18.92,49.82]]},"properties":{"ofm_layer":"fiber-spans","span_id":"eu-geant-south--0007","network_id":"eu-geant-south","name":"GÉANT Southern Europe","operator":"GÉANT","operator_id":null,"country_iso":"IT","countries":["FR","ES","PT","IT","GR","RO"],"region":"europe","status":"deployed","burial_type":"underground","length_km":8000,"capacity_gbps":200,"capacity_class":"high","fiber_pairs":null,"fiber_type":null,"phase_id":null,"phase_name":null,"construction_start":null,"ready_for_service":null,"funders":[],"contracts":[],"source":"OpenFiberMap-Seeds","source_url":"https://github.com/Jastman/OpenFiberMap","license":"CC0-1.0","attribution":"OpenFiberMap curated backbone seeds (approximate, CC0)","last_updated":"2026-04-04","notes":"Approximate alignment digitized from publicly-available network maps.","ofds_span_id":null,"osm_way_id":null}},{"type":"Feature","geometry":{"type":"LineString","coordinates":[[-0.13,51.51],[-2.24,53.48],[-4.25,55.86],[-3.18,55.95],[-3.2,51.48],[-5.93,54.6],[-6.27,53.33]]},"properties":{"ofm_layer":"fiber-spans","span_id":"gb-janet--0008","network_id":"gb-janet","name":"UK JANET National Research Network","operator":"Jisc (JANET)","operator_id":null,"country_iso":"GB","countries":["GB"],"region":"europe","status":"deployed","burial_type":"underground","length_km":4000,"capacity_gbps":200,"capacity_class":"high","fiber_pairs":null,"fiber_type":null,"phase_id":null,"phase_name":null,"construction_start":null,"ready_for_service":null,"funders":[],"contracts":[],"source":"OpenFiberMap-Seeds","source_url":"https://github.com/Jastman/OpenFiberMap","license":"CC0-1.0","attribution":"OpenFiberMap curated backbone seeds (approximate, CC0)","last_updated":"2026-04-04","notes":"Approximate alignment digitized from publicly-available network maps.","ofds_span_id":null,"osm_way_id":null}},{"type":"Feature","geometry":{"type":"LineString","coordinates":[[13.4,52.52],[9.99,53.55],[7.47,51.51],[6.96,50.94],[8.68,50.11],[9.18,48.78],[11.58,48.14],[12.1,47.8],[13.04,47.49],[14.42,50.08],[13.4,52.52]]},"properties":{"ofm_layer":"fiber-spans","span_id":"de-telekom--0009","network_id":"de-telekom","name":"Deutsche Telekom National Backbone","operator":"Deutsche Telekom","operator_id":null,"country_iso":"DE","countries":["DE","AT"],"region":"europe","status":"deployed","burial_type":"underground","length_km":6000,"capacity_gbps":200,"capacity_class":"high","fiber_pairs":null,"fiber_type":null,"phase_id":null,"phase_name":null,"construction_start":null,"ready_for_service":null,"funders":[],"contracts":[],"source":"OpenFiberMap-Seeds","source_url":"https://github.com/Jastman/OpenFiberMap","license":"CC0-1.0","attribution":"OpenFiberMap curated backbone seeds (approximate, CC0)","last_updated":"2026-04-04","notes":"Approximate alignment digitized from publicly-available network maps.","ofds_span_id":null,"osm_way_id":null}},{"type":"Feature","geometry":{"type":"LineString","coordinates":[[2.35,48.85],[5.37,43.3],[7.27,43.71],[2.17,41.38],[1.44,43.6],[3.88,43.6],[4.83,45.74],[5.72,45.19],[6.13,46.2],[2.35,48.85]]},"properties":{"ofm_layer":"fiber-spans","span_id":"fr-orange--0010","network_id":"fr-orange","name":"Orange France Backbone","operator":"Orange","operator_id":null,"country_iso":"FR","countries":["FR"],"region":"europe","status":"deployed","burial_type":"underground","length_km":8000,"capacity_gbps":200,"capacity_class":"high","fiber_pairs":null,"fiber_type":null,"phase_id":null,"phase_name":null,"construction_start":null,"ready_for_service":null,"funders":[],"contracts":[],"source":"OpenFiberMap-Seeds","source_url":"https://github.com/Jastman/OpenFiberMap","license":"CC0-1.0","attribution":"OpenFiberMap curated backbone seeds (approximate, CC0)","last_updated":"2026-04-04","notes":"Approximate alignment digitized from publicly-available network maps.","ofds_span_id":null,"osm_way_id":null}},{"type":"Feature","geometry":{"type":"LineString","coordinates":[[21.01,52.23],[18.67,50.3],[16.93,52.41],[14.55,53.43],[18.64,54.35],[18.92,49.82],[22.0,49.68],[24.03,49.84],[23.0,51.0],[21.01,52.23]]},"properties":{"ofm_layer":"fiber-spans","span_id":"pl-psnc--0011","network_id":"pl-psnc","name":"Poland National Backbone","operator":"PSNC / Orange Poland","operator_id":null,"country_iso":"PL","countries":["PL"],"region":"europe","status":"deployed","burial_type":"underground","length_km":4000,"capacity_gbps":100,"capacity_class":"high","fiber_pairs":null,"fiber_type":null,"phase_id":null,"phase_name":null,"construction_start":null,"ready_for_service":null,"funders":[],"contracts":[],"source":"OpenFiberMap-Seeds","source_url":"https://github.com/Jastman/OpenFiberMap","license":"CC0-1.0","attribution":"OpenFiberMap curated backbone seeds (approximate, CC0)","last_updated":"2026-04-04","notes":"Approximate alignment digitized from publicly-available network maps.","ofds_span_id":null,"osm_way_id":null}},{"type":"Feature","geometry":{"type":"LineString","coordinates":[[10.75,59.91],[18.07,59.33],[24.94,60.17],[25.01,60.17],[28.13,61.49],[27.96,62.6],[25.47,65.01],[25.72,64.54],[28.0,65.72],[25.47,65.01],[15.59,58.41],[12.57,55.68],[10.4,63.43],[10.75,59.91]]},"properties":{"ofm_layer":"fiber-spans","span_id":"eu-nordunet--0012","network_id":"eu-nordunet","name":"NORDUnet Nordic Backbone","operator":"NORDUnet","operator_id":null,"country_iso":"SE","countries":["NO","SE","FI","DK"],"region":"europe","status":"deployed","burial_type":"underground","length_km":7000,"capacity_gbps":200,"capacity_class":"high","fiber_pairs":null,"fiber_type":null,"phase_id":null,"phase_name":null,"construction_start":null,"ready_for_service":null,"funders":[],"contracts":[],"source":"OpenFiberMap-Seeds","source_url":"https://github.com/Jastman/OpenFiberMap","license":"CC0-1.0","attribution":"OpenFiberMap curated backbone seeds (approximate, CC0)","last_updated":"2026-04-04","notes":"Approximate alignment digitized from publicly-available network maps.","ofds_span_id":null,"osm_way_id":null}},{"type":"Feature","geometry":{"type":"LineString","coordinates":[[28.98,41.02],[32.85,39.93],[35.85,36.9],[36.4,41.0],[43.4,38.74],[44.0,37.0],[42.0,38.0],[38.97,40.93],[32.85,39.93],[26.1,38.46],[28.98,41.02]]},"properties":{"ofm_layer":"fiber-spans","span_id":"tr-turktelekom--0021","network_id":"tr-turktelekom","name":"Türk Telekom National Backbone","operator":"Türk Telekom","operator_id":null,"country_iso":"TR","countries":["TR"],"region":"europe","status":"deployed","burial_type":"underground","length_km":6000,"capacity_gbps":100,"capacity_class":"high","fiber_pairs":null,"fiber_type":null,"phase_id":null,"phase_name":null,"construction_start":null,"ready_for_service":null,"funders":[],"contracts":[],"source":"OpenFiberMap-Seeds","source_url":"https://github.com/Jastman/OpenFiberMap","license":"CC0-1.0","attribution":"OpenFiberMap curated backbone seeds (approximate, CC0)","last_updated":"2026-04-04","notes":"Approximate alignment digitized from publicly-available network maps.","ofds_span_id":null,"osm_way_id":null}},{"type":"Feature","geometry":{"type":"LineString","coordinates":[[30.32,59.93],[37.62,55.75],[44.0,56.33],[49.12,55.79],[56.85,53.2],[60.6,56.84],[73.37,54.99],[82.93,55.03],[92.9,56.01],[104.29,52.29],[113.5,53.71],[129.73,62.03],[143.0,46.96],[131.89,43.11],[132.92,46.96]]},"properties":{"ofm_layer":"fiber-spans","span_id":"ru-rostelecom--0023","network_id":"ru-rostelecom","name":"Rostelecom Western Russia Backbone","operator":"Rostelecom","operator_id":null,"country_iso":"RU","countries":["RU"],"region":"europe","status":"deployed","burial_type":"underground","length_km":15000,"capacity_gbps":200,"capacity_class":"high","fiber_pairs":null,"fiber_type":null,"phase_id":null,"phase_name":null,"construction_start":null,"ready_for_service":null,"funders":[],"contracts":[],"source":"OpenFiberMap-Seeds","source_url":"https://github.com/Jastman/OpenFiberMap","license":"CC0-1.0","attribution":"OpenFiberMap curated backbone seeds (approximate, CC0)","last_updated":"2026-04-04","notes":"Approximate alignment digitized from publicly-available network maps.","ofds_span_id":null,"osm_way_id":null}},{"type":"Feature","geometry":{"type":"LineString","coordinates":[[30.52,50.45],[32.0,49.5],[34.0,49.0],[36.23,50.0],[37.75,47.55],[34.97,45.95],[33.37,44.61],[31.17,47.03],[28.83,47.0],[25.93,47.55],[24.03,49.84],[22.0,49.68],[24.03,49.84],[30.52,50.45]]},"properties":{"ofm_layer":"fiber-spans","span_id":"ua-ukrtelecom--0024","network_id":"ua-ukrtelecom","name":"Ukrtelecom National Backbone","operator":"Ukrtelecom","operator_id":null,"country_iso":"UA","countries":["UA"],"region":"europe","status":"deployed","burial_type":"underground","length_km":6000,"capacity_gbps":40,"capacity_class":"medium","fiber_pairs":null,"fiber_type":null,"phase_id":null,"phase_name":null,"construction_start":null,"ready_for_service":null,"funders":[],"contracts":[],"source":"OpenFiberMap-Seeds","source_url":"https://github.com/Jastman/OpenFiberMap","license":"CC0-1.0","attribution":"OpenFiberMap curated backbone seeds (approximate, CC0)","last_updated":"2026-04-04","notes":"Approximate alignment digitized from publicly-available network maps.","ofds_span_id":null,"osm_way_id":null}},{"type":"Feature","geometry":{"type":"Point","coordinates":[4.9,52.37]},"properties":{"ofm_layer":"fiber-nodes","node_id":"ixp-nl-ams-ix-amsterdam-01","network_id":"nl-ams-ix","name":"AMS-IX Amsterdam","name_short":"AMS-IX","operator":"AMS-IX","node_type":"ixp","status":"operational","city":"Amsterdam","country_iso":"NL","region":"europe","address":null,"floor_space_sqm":null,"power_mw":null,"connected_networks":[],"peeringdb_id":null,"peeringdb_ix_id":null,"website":null,"source":"OpenFiberMap-Seeds","source_url":"https://github.com/Jastman/OpenFiberMap","license":"CC0-1.0","attribution":"OpenFiberMap curated backbone seeds (approximate, CC0)","last_updated":"2026-04-04","notes":"Approximate alignment digitized from publicly-available network maps.","osm_node_id":null}},{"type":"Feature","geometry":{"type":"Point","coordinates":[8.68,50.11]},"properties":{"ofm_layer":"fiber-nodes","node_id":"ixp-de-de-cix-frankfurt-01","network_id":"de-de-cix","name":"DE-CIX Frankfurt","name_short":"DE-CIX","operator":"DE-CIX","node_type":"ixp","status":"operational","city":"Frankfurt","country_iso":"DE","region":"europe","address":null,"floor_space_sqm":null,"power_mw":null,"connected_networks":[],"peeringdb_id":null,"peeringdb_ix_id":null,"website":null,"source":"OpenFiberMap-Seeds","source_url":"https://github.com/Jastman/OpenFiberMap","license":"CC0-1.0","attribution":"OpenFiberMap curated backbone seeds (approximate, CC0)","last_updated":"2026-04-04","notes":"Approximate alignment digitized from publicly-available network maps.","osm_node_id":null}},{"type":"Feature","geometry":{"type":"Point","coordinates":[-0.13,51.51]},"properties":{"ofm_layer":"fiber-nodes","node_id":"ixp-gb-linx-london-01","network_id":"gb-linx","name":"LINX London","name_short":"LINX","operator":"LINX","node_type":"ixp","status":"operational","city":"London","country_iso":"GB","region":"europe","address":null,"floor_space_sqm":null,"power_mw":null,"connected_networks":[],"peeringdb_id":null,"peeringdb_ix_id":null,"website":null,"source":"OpenFiberMap-Seeds","source_url":"https://github.com/Jastman/OpenFiberMap","license":"CC0-1.0","attribution":"OpenFiberMap curated backbone seeds (approximate, CC0)","last_updated":"2026-04-04","notes":"Approximate alignment digitized from publicly-available network maps.","osm_node_id":null}},{"type":"Feature","geometry":{"type":"Point","coordinates":[2.35,48.85]},"properties":{"ofm_layer":"fiber-nodes","node_id":"ixp-fr-france-ix-paris-01","network_id":"fr-france-ix","name":"France-IX Paris","name_short":"France-IX","operator":"France-IX","node_type":"ixp","status":"operational","city":"Paris","country_iso":"FR","region":"europe","address":null,"floor_space_sqm":null,"power_mw":null,"connected_networks":[],"peeringdb_id":null,"peeringdb_ix_id":null,"website":null,"source":"OpenFiberMap-Seeds","source_url":"https://github.com/Jastman/OpenFiberMap","license":"CC0-1.0","attribution":"OpenFiberMap curated backbone seeds (approximate, CC0)","last_updated":"2026-04-04","notes":"Approximate alignment digitized from publicly-available network maps.","osm_node_id":null}},{"type":"Feature","geometry":{"type":"Point","coordinates":[18.07,59.33]},"properties":{"ofm_layer":"fiber-nodes","node_id":"ixp-se-sfix-stockholm-01","network_id":"se-netnod","name":"SFIX Stockholm","name_short":"SFIX","operator":"Netnod","node_type":"ixp","status":"operational","city":"Stockholm","country_iso":"SE","region":"europe","address":null,"floor_space_sqm":null,"power_mw":null,"connected_networks":[],"peeringdb_id":null,"peeringdb_ix_id":null,"website":null,"source":"OpenFiberMap-Seeds","source_url":"https://github.com/Jastman/OpenFiberMap","license":"CC0-1.0","attribution":"OpenFiberMap curated backbone seeds (approximate, CC0)","last_updated":"2026-04-04","notes":"Approximate alignment digitized from publicly-available network maps.","osm_node_id":null}},{"type":"Feature","geometry":{"type":"Point","coordinates":[24.94,60.17]},"properties":{"ofm_layer":"fiber-nodes","node_id":"ixp-fi-ficix-helsinki-01","network_id":"fi-ficix","name":"FICIX Helsinki","name_short":"FICIX","operator":"FICIX","node_type":"ixp","status":"operational","city":"Helsinki","country_iso":"FI","region":"europe","address":null,"floor_space_sqm":null,"power_mw":null,"connected_networks":[],"peeringdb_id":null,"peeringdb_ix_id":null,"website":null,"source":"OpenFiberMap-Seeds","source_url":"https://github.com/Jastman/OpenFiberMap","license":"CC0-1.0","attribution":"OpenFiberMap curated backbone seeds (approximate, CC0)","last_updated":"2026-04-04","notes":"Approximate alignment digitized from publicly-available network maps.","osm_node_id":null}},{"type":"Feature","geometry":{"type":"Point","coordinates":[21.01,52.23]},"properties":{"ofm_layer":"fiber-nodes","node_id":"ixp-pl-plix-warsaw-01","network_id":"pl-plix","name":"PLIX Warsaw","name_short":"PLIX","operator":"PLIX","node_type":"ixp","status":"operational","city":"Warsaw","country_iso":"PL","region":"europe","address":null,"floor_space_sqm":null,"power_mw":null,"connected_networks":[],"peeringdb_id":null,"peeringdb_ix_id":null,"website":null,"source":"OpenFiberMap-Seeds","source_url":"https://github.com/Jastman/OpenFiberMap","license":"CC0-1.0","attribution":"OpenFiberMap curated backbone seeds (approximate, CC0)","last_updated":"2026-04-04","notes":"Approximate alignment digitized from publicly-available network maps.","osm_node_id":null}},{"type":"Feature","geometry":{"type":"Point","coordinates":[9.19,45.46]},"properties":{"ofm_layer":"fiber-nodes","node_id":"ixp-it-milan-internet-exchange-01","network_id":"it-mix","name":"Milan Internet Exchange","name_short":"MIX","operator":"MIX","node_type":"ixp","status":"operational","city":"Milan","country_iso":"IT","region":"europe","address":null,"floor_space_sqm":null,"power_mw":null,"connected_networks":[],"peeringdb_id":null,"peeringdb_ix_id":null,"website":null,"source":"OpenFiberMap-Seeds","source_url":"https://github.com/Jastman/OpenFiberMap","license":"CC0-1.0","attribution":"OpenFiberMap curated backbone seeds (approximate, CC0)","last_updated":"2026-04-04","notes":"Approximate alignment digitized from publicly-available network maps.","osm_node_id":null}},{"type":"Feature","geometry":{"type":"Point","coordinates":[37.62,55.75]},"properties":{"ofm_layer":"fiber-nodes","node_id":"ixp-ru-msk-ix-moscow-01","network_id":"ru-msk-ix","name":"MSK-IX Moscow","name_short":"MSK-IX","operator":"MSK-IX","node_type":"ixp","status":"operational","city":"Moscow","country_iso":"RU","region":"europe","address":null,"floor_space_sqm":null,"power_mw":null,"connected_networks":[],"peeringdb_id":null,"peeringdb_ix_id":null,"website":null,"source":"OpenFiberMap-Seeds","source_url":"https://github.com/Jastman/OpenFiberMap","license":"CC0-1.0","attribution":"OpenFiberMap curated backbone seeds (approximate, CC0)","last_updated":"2026-04-04","notes":"Approximate alignment digitized from publicly-available network maps.","osm_node_id":null}},{"type":"Feature","geometry":{"type":"Point","coordinates":[28.98,41.02]},"properties":{"ofm_layer":"fiber-nodes","node_id":"ixp-tr-treix-istanbul-01","network_id":"tr-treix","name":"TREIX Istanbul","name_short":"TREIX","operator":"TREIX","node_type":"ixp","status":"operational","city":"Istanbul","country_iso":"TR","region":"europe","address":null,"floor_space_sqm":null,"power_mw":null,"connected_networks":[],"peeringdb_id":null,"peeringdb_ix_id":null,"website":null,"source":"OpenFiberMap-Seeds","source_url":"https://github.com/Jastman/OpenFiberMap","license":"CC0-1.0","attribution":"OpenFiberMap curated backbone seeds (approximate, CC0)","last_updated":"2026-04-04","notes":"Approximate alignment digitized from publicly-available network maps.","osm_node_id":null}}]}