{"type":"FeatureCollection","last_updated":"2026-04-02","name":"OpenFiberMap-Nodes-AfTerFibre-Africa","description":"Africa fiber network nodes (IXPs, POPs, landing stations) from AfTerFibre / NSRC","license":"CC-BY-4.0","attribution":"AfTerFibre / NSRC (CC-BY) — https://afterfibre.nsrc.org","source":"AfTerFibre","features":[{"type":"Feature","geometry":{"type":"Point","coordinates":[15.27,-4.32]},"properties":{"ofm_layer":"fiber-nodes","node_id":"ixp-cd-kinix-01","network_id":"cd-kinix","name":"KINIX","name_short":"KINIX","operator":"KINIX","node_type":"ixp","status":"operational","city":"Kinshasa","country_iso":"CD","region":"africa","address":null,"floor_space_sqm":null,"power_mw":null,"connected_networks":[],"peeringdb_id":null,"peeringdb_ix_id":null,"website":null,"source":"AfTerFibre","source_url":"https://afterfibre.nsrc.org","license":"CC-BY-4.0","attribution":"AfTerFibre / NSRC (CC-BY) — https://afterfibre.nsrc.org","last_updated":"2026-04-02","notes":"Curated from public AfTerFibre map. Coordinates approximate.","osm_node_id":null}},{"type":"Feature","geometry":{"type":"Point","coordinates":[3.38,6.45]},"properties":{"ofm_layer":"fiber-nodes","node_id":"ixp-ng-ixpn-lagos-01","network_id":"ng-ixpn","name":"IXPN Lagos","name_short":"IXPN","operator":"IXPN","node_type":"ixp","status":"operational","city":"Lagos","country_iso":"NG","region":"africa","address":null,"floor_space_sqm":null,"power_mw":null,"connected_networks":[],"peeringdb_id":null,"peeringdb_ix_id":null,"website":null,"source":"AfTerFibre","source_url":"https://afterfibre.nsrc.org","license":"CC-BY-4.0","attribution":"AfTerFibre / NSRC (CC-BY) — https://afterfibre.nsrc.org","last_updated":"2026-04-02","notes":"Curated from public AfTerFibre map. Coordinates approximate.","osm_node_id":null}},{"type":"Feature","geometry":{"type":"Point","coordinates":[36.82,-1.29]},"properties":{"ofm_layer":"fiber-nodes","node_id":"ixp-ke-kixp-nairobi-01","network_id":"ke-tespok","name":"KIXP Nairobi","name_short":"KIXP","operator":"TESPOK","node_type":"ixp","status":"operational","city":"Nairobi","country_iso":"KE","region":"africa","address":null,"floor_space_sqm":null,"power_mw":null,"connected_networks":[],"peeringdb_id":null,"peeringdb_ix_id":null,"website":null,"source":"AfTerFibre","source_url":"https://afterfibre.nsrc.org","license":"CC-BY-4.0","attribution":"AfTerFibre / NSRC (CC-BY) — https://afterfibre.nsrc.org","last_updated":"2026-04-02","notes":"Curated from public AfTerFibre map. Coordinates approximate.","osm_node_id":null}},{"type":"Feature","geometry":{"type":"Point","coordinates":[28.03,-26.2]},"properties":{"ofm_layer":"fiber-nodes","node_id":"ixp-za-jinx-johannesburg-01","network_id":"za-teraco","name":"JINX Johannesburg","name_short":"JINX","operator":"Teraco","node_type":"ixp","status":"operational","city":"Johannesburg","country_iso":"ZA","region":"africa","address":null,"floor_space_sqm":null,"power_mw":null,"connected_networks":[],"peeringdb_id":null,"peeringdb_ix_id":null,"website":null,"source":"AfTerFibre","source_url":"https://afterfibre.nsrc.org","license":"CC-BY-4.0","attribution":"AfTerFibre / NSRC (CC-BY) — https://afterfibre.nsrc.org","last_updated":"2026-04-02","notes":"Curated from public AfTerFibre map. Coordinates approximate.","osm_node_id":null}},{"type":"Feature","geometry":{"type":"Point","coordinates":[39.29,-6.82]},"properties":{"ofm_layer":"fiber-nodes","node_id":"ixp-tz-amsix-dar-es-salaam-01","network_id":"tz-amsix-tanzania","name":"AMSIX Dar es Salaam","name_short":"AMSIX-DAR","operator":"AMSIX Tanzania","node_type":"ixp","status":"operational","city":"Dar es Salaam","country_iso":"TZ","region":"africa","address":null,"floor_space_sqm":null,"power_mw":null,"connected_networks":[],"peeringdb_id":null,"peeringdb_ix_id":null,"website":null,"source":"AfTerFibre","source_url":"https://afterfibre.nsrc.org","license":"CC-BY-4.0","attribution":"AfTerFibre / NSRC (CC-BY) — https://afterfibre.nsrc.org","last_updated":"2026-04-02","notes":"Curated from public AfTerFibre map. Coordinates approximate.","osm_node_id":null}},{"type":"Feature","geometry":{"type":"Point","coordinates":[32.58,0.35]},"properties":{"ofm_layer":"fiber-nodes","node_id":"ixp-ug-uixp-kampala-01","network_id":"ug-uixp","name":"UIXP Kampala","name_short":"UIXP","operator":"UIXP","node_type":"ixp","status":"operational","city":"Kampala","country_iso":"UG","region":"africa","address":null,"floor_space_sqm":null,"power_mw":null,"connected_networks":[],"peeringdb_id":null,"peeringdb_ix_id":null,"website":null,"source":"AfTerFibre","source_url":"https://afterfibre.nsrc.org","license":"CC-BY-4.0","attribution":"AfTerFibre / NSRC (CC-BY) — https://afterfibre.nsrc.org","last_updated":"2026-04-02","notes":"Curated from public AfTerFibre map. Coordinates approximate.","osm_node_id":null}},{"type":"Feature","geometry":{"type":"Point","coordinates":[30.06,-1.94]},"properties":{"ofm_layer":"fiber-nodes","node_id":"ixp-rw-rwix-kigali-01","network_id":"rw-rura","name":"RWIX Kigali","name_short":"RWIX","operator":"RURA","node_type":"ixp","status":"operational","city":"Kigali","country_iso":"RW","region":"africa","address":null,"floor_space_sqm":null,"power_mw":null,"connected_networks":[],"peeringdb_id":null,"peeringdb_ix_id":null,"website":null,"source":"AfTerFibre","source_url":"https://afterfibre.nsrc.org","license":"CC-BY-4.0","attribution":"AfTerFibre / NSRC (CC-BY) — https://afterfibre.nsrc.org","last_updated":"2026-04-02","notes":"Curated from public AfTerFibre map. Coordinates approximate.","osm_node_id":null}},{"type":"Feature","geometry":{"type":"Point","coordinates":[-0.19,5.56]},"properties":{"ofm_layer":"fiber-nodes","node_id":"ixp-gh-ghix-accra-01","network_id":"gh-ghix","name":"GHIX Accra","name_short":"GHIX","operator":"GHIX","node_type":"ixp","status":"operational","city":"Accra","country_iso":"GH","region":"africa","address":null,"floor_space_sqm":null,"power_mw":null,"connected_networks":[],"peeringdb_id":null,"peeringdb_ix_id":null,"website":null,"source":"AfTerFibre","source_url":"https://afterfibre.nsrc.org","license":"CC-BY-4.0","attribution":"AfTerFibre / NSRC (CC-BY) — https://afterfibre.nsrc.org","last_updated":"2026-04-02","notes":"Curated from public AfTerFibre map. Coordinates approximate.","osm_node_id":null}},{"type":"Feature","geometry":{"type":"Point","coordinates":[36.83,-1.3]},"properties":{"ofm_layer":"fiber-nodes","node_id":"ixp-ke-decix-nairobi-01","network_id":"ke-de-cix","name":"DECIX Nairobi","name_short":"DECIX-NBO","operator":"DE-CIX","node_type":"ixp","status":"operational","city":"Nairobi","country_iso":"KE","region":"africa","address":null,"floor_space_sqm":null,"power_mw":null,"connected_networks":[],"peeringdb_id":null,"peeringdb_ix_id":null,"website":null,"source":"AfTerFibre","source_url":"https://afterfibre.nsrc.org","license":"CC-BY-4.0","attribution":"AfTerFibre / NSRC (CC-BY) — https://afterfibre.nsrc.org","last_updated":"2026-04-02","notes":"Curated from public AfTerFibre map. Coordinates approximate.","osm_node_id":null}},{"type":"Feature","geometry":{"type":"Point","coordinates":[39.67,-4.05]},"properties":{"ofm_layer":"fiber-nodes","node_id":"ls-ke-seacom-mombasa-landing-station-01","network_id":"ke-seacom","name":"SEACOM Mombasa Landing Station","name_short":"SEACOM Mombasa","operator":"SEACOM","node_type":"landing-station","status":"operational","city":"Mombasa","country_iso":"KE","region":"africa","address":null,"floor_space_sqm":null,"power_mw":null,"connected_networks":[],"peeringdb_id":null,"peeringdb_ix_id":null,"website":null,"source":"AfTerFibre","source_url":"https://afterfibre.nsrc.org","license":"CC-BY-4.0","attribution":"AfTerFibre / NSRC (CC-BY) — https://afterfibre.nsrc.org","last_updated":"2026-04-02","notes":"Curated from public AfTerFibre map. Coordinates approximate.","osm_node_id":null}},{"type":"Feature","geometry":{"type":"Point","coordinates":[39.68,-4.04]},"properties":{"ofm_layer":"fiber-nodes","node_id":"ls-ke-eassy-mombasa-landing-station-01","network_id":"ke-eassy-consortium","name":"EASSy Mombasa Landing Station","name_short":"EASSy Mombasa","operator":"EASSy Consortium","node_type":"landing-station","status":"operational","city":"Mombasa","country_iso":"KE","region":"africa","address":null,"floor_space_sqm":null,"power_mw":null,"connected_networks":[],"peeringdb_id":null,"peeringdb_ix_id":null,"website":null,"source":"AfTerFibre","source_url":"https://afterfibre.nsrc.org","license":"CC-BY-4.0","attribution":"AfTerFibre / NSRC (CC-BY) — https://afterfibre.nsrc.org","last_updated":"2026-04-02","notes":"Curated from public AfTerFibre map. Coordinates approximate.","osm_node_id":null}},{"type":"Feature","geometry":{"type":"Point","coordinates":[18.42,-33.93]},"properties":{"ofm_layer":"fiber-nodes","node_id":"ls-za-wacs-cape-town-landing-station-01","network_id":"za-mtn","name":"WACS Cape Town Landing Station","name_short":"WACS CPT","operator":"MTN","node_type":"landing-station","status":"operational","city":"Cape Town","country_iso":"ZA","region":"africa","address":null,"floor_space_sqm":null,"power_mw":null,"connected_networks":[],"peeringdb_id":null,"peeringdb_ix_id":null,"website":null,"source":"AfTerFibre","source_url":"https://afterfibre.nsrc.org","license":"CC-BY-4.0","attribution":"AfTerFibre / NSRC (CC-BY) — https://afterfibre.nsrc.org","last_updated":"2026-04-02","notes":"Curated from public AfTerFibre map. Coordinates approximate.","osm_node_id":null}},{"type":"Feature","geometry":{"type":"Point","coordinates":[3.38,6.42]},"properties":{"ofm_layer":"fiber-nodes","node_id":"ls-ng-mainone-lagos-landing-station-01","network_id":"ng-mainone","name":"MainOne Lagos Landing Station","name_short":"MainOne LGS","operator":"MainOne","node_type":"landing-station","status":"operational","city":"Lagos","country_iso":"NG","region":"africa","address":null,"floor_space_sqm":null,"power_mw":null,"connected_networks":[],"peeringdb_id":null,"peeringdb_ix_id":null,"website":null,"source":"AfTerFibre","source_url":"https://afterfibre.nsrc.org","license":"CC-BY-4.0","attribution":"AfTerFibre / NSRC (CC-BY) — https://afterfibre.nsrc.org","last_updated":"2026-04-02","notes":"Curated from public AfTerFibre map. Coordinates approximate.","osm_node_id":null}},{"type":"Feature","geometry":{"type":"Point","coordinates":[-17.44,14.69]},"properties":{"ofm_layer":"fiber-nodes","node_id":"ls-sn-ace-dakar-landing-station-01","network_id":"sn-orange","name":"ACE Dakar Landing Station","name_short":"ACE Dakar","operator":"Orange","node_type":"landing-station","status":"operational","city":"Dakar","country_iso":"SN","region":"africa","address":null,"floor_space_sqm":null,"power_mw":null,"connected_networks":[],"peeringdb_id":null,"peeringdb_ix_id":null,"website":null,"source":"AfTerFibre","source_url":"https://afterfibre.nsrc.org","license":"CC-BY-4.0","attribution":"AfTerFibre / NSRC (CC-BY) — https://afterfibre.nsrc.org","last_updated":"2026-04-02","notes":"Curated from public AfTerFibre map. Coordinates approximate.","osm_node_id":null}},{"type":"Feature","geometry":{"type":"Point","coordinates":[28.13,-26.18]},"properties":{"ofm_layer":"fiber-nodes","node_id":"dc-za-teraco-jb1-johannesburg-01","network_id":"za-teraco-data-environments","name":"Teraco JB1 Johannesburg","name_short":"Teraco JB1","operator":"Teraco Data Environments","node_type":"data-center","status":"operational","city":"Johannesburg","country_iso":"ZA","region":"africa","address":null,"floor_space_sqm":null,"power_mw":null,"connected_networks":[],"peeringdb_id":null,"peeringdb_ix_id":null,"website":null,"source":"AfTerFibre","source_url":"https://afterfibre.nsrc.org","license":"CC-BY-4.0","attribution":"AfTerFibre / NSRC (CC-BY) — https://afterfibre.nsrc.org","last_updated":"2026-04-02","notes":"Curated from public AfTerFibre map. Coordinates approximate.","osm_node_id":null}},{"type":"Feature","geometry":{"type":"Point","coordinates":[36.83,-1.27]},"properties":{"ofm_layer":"fiber-nodes","node_id":"dc-ke-africa-data-centres-nairobi-01","network_id":"ke-africa-data-centres","name":"Africa Data Centres Nairobi","name_short":"ADC Nairobi","operator":"Africa Data Centres","node_type":"data-center","status":"operational","city":"Nairobi","country_iso":"KE","region":"africa","address":null,"floor_space_sqm":null,"power_mw":null,"connected_networks":[],"peeringdb_id":null,"peeringdb_ix_id":null,"website":null,"source":"AfTerFibre","source_url":"https://afterfibre.nsrc.org","license":"CC-BY-4.0","attribution":"AfTerFibre / NSRC (CC-BY) — https://afterfibre.nsrc.org","last_updated":"2026-04-02","notes":"Curated from public AfTerFibre map. Coordinates approximate.","osm_node_id":null}},{"type":"Feature","geometry":{"type":"Point","coordinates":[3.39,6.6]},"properties":{"ofm_layer":"fiber-nodes","node_id":"dc-ng-mdxi-lagos-01","network_id":"ng-mainone-mdxi","name":"MDXi Lagos","name_short":"MDXi Lagos","operator":"MainOne (MDXi)","node_type":"data-center","status":"operational","city":"Lagos","country_iso":"NG","region":"africa","address":null,"floor_space_sqm":null,"power_mw":null,"connected_networks":[],"peeringdb_id":null,"peeringdb_ix_id":null,"website":null,"source":"AfTerFibre","source_url":"https://afterfibre.nsrc.org","license":"CC-BY-4.0","attribution":"AfTerFibre / NSRC (CC-BY) — https://afterfibre.nsrc.org","last_updated":"2026-04-02","notes":"Curated from public AfTerFibre map. Coordinates approximate.","osm_node_id":null}}]}