{"type":"FeatureCollection","last_updated":"2026-04-04","name":"OpenFiberMap-Nodes-GlobalBackbone","description":"Major IXPs and PoPs: NA, Europe, Asia-Pacific, ME","license":"CC0-1.0","attribution":"OpenFiberMap curated backbone seeds (approximate, CC0)","source":"OpenFiberMap-Seeds","features":[{"type":"Feature","geometry":{"type":"Point","coordinates":[-118.24,34.05]},"properties":{"ofm_layer":"fiber-nodes","node_id":"ixp-us-any2-los-angeles-01","network_id":"us-any2","name":"Any2 Los Angeles","name_short":"Any2 LA","operator":"Any2","node_type":"ixp","status":"operational","city":"Los Angeles","country_iso":"US","region":"americas","address":null,"floor_space_sqm":null,"power_mw":null,"connected_networks":[],"peeringdb_id":null,"peeringdb_ix_id":null,"website":null,"source":"OpenFiberMap-Seeds","source_url":"https://github.com/Jastman/OpenFiberMap","license":"CC0-1.0","attribution":"OpenFiberMap curated backbone seeds (approximate, CC0)","last_updated":"2026-04-04","notes":"Approximate alignment digitized from publicly-available network maps.","osm_node_id":null}},{"type":"Feature","geometry":{"type":"Point","coordinates":[-74.0,40.71]},"properties":{"ofm_layer":"fiber-nodes","node_id":"ixp-us-equinix-ny-nyiix-01","network_id":"us-equinix","name":"Equinix NY (NYIIX)","name_short":"NYIIX","operator":"Equinix","node_type":"ixp","status":"operational","city":"New York","country_iso":"US","region":"americas","address":null,"floor_space_sqm":null,"power_mw":null,"connected_networks":[],"peeringdb_id":null,"peeringdb_ix_id":null,"website":null,"source":"OpenFiberMap-Seeds","source_url":"https://github.com/Jastman/OpenFiberMap","license":"CC0-1.0","attribution":"OpenFiberMap curated backbone seeds (approximate, CC0)","last_updated":"2026-04-04","notes":"Approximate alignment digitized from publicly-available network maps.","osm_node_id":null}},{"type":"Feature","geometry":{"type":"Point","coordinates":[-87.63,41.88]},"properties":{"ofm_layer":"fiber-nodes","node_id":"ixp-us-coresite-any2-chicago-01","network_id":"us-coresite","name":"CoreSite Any2 Chicago","name_short":"Any2 CHI","operator":"CoreSite","node_type":"ixp","status":"operational","city":"Chicago","country_iso":"US","region":"americas","address":null,"floor_space_sqm":null,"power_mw":null,"connected_networks":[],"peeringdb_id":null,"peeringdb_ix_id":null,"website":null,"source":"OpenFiberMap-Seeds","source_url":"https://github.com/Jastman/OpenFiberMap","license":"CC0-1.0","attribution":"OpenFiberMap curated backbone seeds (approximate, CC0)","last_updated":"2026-04-04","notes":"Approximate alignment digitized from publicly-available network maps.","osm_node_id":null}},{"type":"Feature","geometry":{"type":"Point","coordinates":[-74.01,40.72]},"properties":{"ofm_layer":"fiber-nodes","node_id":"ixp-us-de-cix-new-york-01","network_id":"us-de-cix","name":"DE-CIX New York","name_short":"DECIX-NY","operator":"DE-CIX","node_type":"ixp","status":"operational","city":"New York","country_iso":"US","region":"americas","address":null,"floor_space_sqm":null,"power_mw":null,"connected_networks":[],"peeringdb_id":null,"peeringdb_ix_id":null,"website":null,"source":"OpenFiberMap-Seeds","source_url":"https://github.com/Jastman/OpenFiberMap","license":"CC0-1.0","attribution":"OpenFiberMap curated backbone seeds (approximate, CC0)","last_updated":"2026-04-04","notes":"Approximate alignment digitized from publicly-available network maps.","osm_node_id":null}},{"type":"Feature","geometry":{"type":"Point","coordinates":[-79.38,43.65]},"properties":{"ofm_layer":"fiber-nodes","node_id":"ixp-ca-torix-toronto-01","network_id":"ca-torix","name":"TorIX Toronto","name_short":"TorIX","operator":"TorIX","node_type":"ixp","status":"operational","city":"Toronto","country_iso":"CA","region":"americas","address":null,"floor_space_sqm":null,"power_mw":null,"connected_networks":[],"peeringdb_id":null,"peeringdb_ix_id":null,"website":null,"source":"OpenFiberMap-Seeds","source_url":"https://github.com/Jastman/OpenFiberMap","license":"CC0-1.0","attribution":"OpenFiberMap curated backbone seeds (approximate, CC0)","last_updated":"2026-04-04","notes":"Approximate alignment digitized from publicly-available network maps.","osm_node_id":null}},{"type":"Feature","geometry":{"type":"Point","coordinates":[4.9,52.37]},"properties":{"ofm_layer":"fiber-nodes","node_id":"ixp-nl-ams-ix-amsterdam-01","network_id":"nl-ams-ix","name":"AMS-IX Amsterdam","name_short":"AMS-IX","operator":"AMS-IX","node_type":"ixp","status":"operational","city":"Amsterdam","country_iso":"NL","region":"europe","address":null,"floor_space_sqm":null,"power_mw":null,"connected_networks":[],"peeringdb_id":null,"peeringdb_ix_id":null,"website":null,"source":"OpenFiberMap-Seeds","source_url":"https://github.com/Jastman/OpenFiberMap","license":"CC0-1.0","attribution":"OpenFiberMap curated backbone seeds (approximate, CC0)","last_updated":"2026-04-04","notes":"Approximate alignment digitized from publicly-available network maps.","osm_node_id":null}},{"type":"Feature","geometry":{"type":"Point","coordinates":[8.68,50.11]},"properties":{"ofm_layer":"fiber-nodes","node_id":"ixp-de-de-cix-frankfurt-01","network_id":"de-de-cix","name":"DE-CIX Frankfurt","name_short":"DE-CIX","operator":"DE-CIX","node_type":"ixp","status":"operational","city":"Frankfurt","country_iso":"DE","region":"europe","address":null,"floor_space_sqm":null,"power_mw":null,"connected_networks":[],"peeringdb_id":null,"peeringdb_ix_id":null,"website":null,"source":"OpenFiberMap-Seeds","source_url":"https://github.com/Jastman/OpenFiberMap","license":"CC0-1.0","attribution":"OpenFiberMap curated backbone seeds (approximate, CC0)","last_updated":"2026-04-04","notes":"Approximate alignment digitized from publicly-available network maps.","osm_node_id":null}},{"type":"Feature","geometry":{"type":"Point","coordinates":[-0.13,51.51]},"properties":{"ofm_layer":"fiber-nodes","node_id":"ixp-gb-linx-london-01","network_id":"gb-linx","name":"LINX London","name_short":"LINX","operator":"LINX","node_type":"ixp","status":"operational","city":"London","country_iso":"GB","region":"europe","address":null,"floor_space_sqm":null,"power_mw":null,"connected_networks":[],"peeringdb_id":null,"peeringdb_ix_id":null,"website":null,"source":"OpenFiberMap-Seeds","source_url":"https://github.com/Jastman/OpenFiberMap","license":"CC0-1.0","attribution":"OpenFiberMap curated backbone seeds (approximate, CC0)","last_updated":"2026-04-04","notes":"Approximate alignment digitized from publicly-available network maps.","osm_node_id":null}},{"type":"Feature","geometry":{"type":"Point","coordinates":[2.35,48.85]},"properties":{"ofm_layer":"fiber-nodes","node_id":"ixp-fr-france-ix-paris-01","network_id":"fr-france-ix","name":"France-IX Paris","name_short":"France-IX","operator":"France-IX","node_type":"ixp","status":"operational","city":"Paris","country_iso":"FR","region":"europe","address":null,"floor_space_sqm":null,"power_mw":null,"connected_networks":[],"peeringdb_id":null,"peeringdb_ix_id":null,"website":null,"source":"OpenFiberMap-Seeds","source_url":"https://github.com/Jastman/OpenFiberMap","license":"CC0-1.0","attribution":"OpenFiberMap curated backbone seeds (approximate, CC0)","last_updated":"2026-04-04","notes":"Approximate alignment digitized from publicly-available network maps.","osm_node_id":null}},{"type":"Feature","geometry":{"type":"Point","coordinates":[18.07,59.33]},"properties":{"ofm_layer":"fiber-nodes","node_id":"ixp-se-sfix-stockholm-01","network_id":"se-netnod","name":"SFIX Stockholm","name_short":"SFIX","operator":"Netnod","node_type":"ixp","status":"operational","city":"Stockholm","country_iso":"SE","region":"europe","address":null,"floor_space_sqm":null,"power_mw":null,"connected_networks":[],"peeringdb_id":null,"peeringdb_ix_id":null,"website":null,"source":"OpenFiberMap-Seeds","source_url":"https://github.com/Jastman/OpenFiberMap","license":"CC0-1.0","attribution":"OpenFiberMap curated backbone seeds (approximate, CC0)","last_updated":"2026-04-04","notes":"Approximate alignment digitized from publicly-available network maps.","osm_node_id":null}},{"type":"Feature","geometry":{"type":"Point","coordinates":[24.94,60.17]},"properties":{"ofm_layer":"fiber-nodes","node_id":"ixp-fi-ficix-helsinki-01","network_id":"fi-ficix","name":"FICIX Helsinki","name_short":"FICIX","operator":"FICIX","node_type":"ixp","status":"operational","city":"Helsinki","country_iso":"FI","region":"europe","address":null,"floor_space_sqm":null,"power_mw":null,"connected_networks":[],"peeringdb_id":null,"peeringdb_ix_id":null,"website":null,"source":"OpenFiberMap-Seeds","source_url":"https://github.com/Jastman/OpenFiberMap","license":"CC0-1.0","attribution":"OpenFiberMap curated backbone seeds (approximate, CC0)","last_updated":"2026-04-04","notes":"Approximate alignment digitized from publicly-available network maps.","osm_node_id":null}},{"type":"Feature","geometry":{"type":"Point","coordinates":[21.01,52.23]},"properties":{"ofm_layer":"fiber-nodes","node_id":"ixp-pl-plix-warsaw-01","network_id":"pl-plix","name":"PLIX Warsaw","name_short":"PLIX","operator":"PLIX","node_type":"ixp","status":"operational","city":"Warsaw","country_iso":"PL","region":"europe","address":null,"floor_space_sqm":null,"power_mw":null,"connected_networks":[],"peeringdb_id":null,"peeringdb_ix_id":null,"website":null,"source":"OpenFiberMap-Seeds","source_url":"https://github.com/Jastman/OpenFiberMap","license":"CC0-1.0","attribution":"OpenFiberMap curated backbone seeds (approximate, CC0)","last_updated":"2026-04-04","notes":"Approximate alignment digitized from publicly-available network maps.","osm_node_id":null}},{"type":"Feature","geometry":{"type":"Point","coordinates":[9.19,45.46]},"properties":{"ofm_layer":"fiber-nodes","node_id":"ixp-it-milan-internet-exchange-01","network_id":"it-mix","name":"Milan Internet Exchange","name_short":"MIX","operator":"MIX","node_type":"ixp","status":"operational","city":"Milan","country_iso":"IT","region":"europe","address":null,"floor_space_sqm":null,"power_mw":null,"connected_networks":[],"peeringdb_id":null,"peeringdb_ix_id":null,"website":null,"source":"OpenFiberMap-Seeds","source_url":"https://github.com/Jastman/OpenFiberMap","license":"CC0-1.0","attribution":"OpenFiberMap curated backbone seeds (approximate, CC0)","last_updated":"2026-04-04","notes":"Approximate alignment digitized from publicly-available network maps.","osm_node_id":null}},{"type":"Feature","geometry":{"type":"Point","coordinates":[37.62,55.75]},"properties":{"ofm_layer":"fiber-nodes","node_id":"ixp-ru-msk-ix-moscow-01","network_id":"ru-msk-ix","name":"MSK-IX Moscow","name_short":"MSK-IX","operator":"MSK-IX","node_type":"ixp","status":"operational","city":"Moscow","country_iso":"RU","region":"europe","address":null,"floor_space_sqm":null,"power_mw":null,"connected_networks":[],"peeringdb_id":null,"peeringdb_ix_id":null,"website":null,"source":"OpenFiberMap-Seeds","source_url":"https://github.com/Jastman/OpenFiberMap","license":"CC0-1.0","attribution":"OpenFiberMap curated backbone seeds (approximate, CC0)","last_updated":"2026-04-04","notes":"Approximate alignment digitized from publicly-available network maps.","osm_node_id":null}},{"type":"Feature","geometry":{"type":"Point","coordinates":[139.69,35.69]},"properties":{"ofm_layer":"fiber-nodes","node_id":"ixp-jp-jpix-tokyo-01","network_id":"jp-jpix","name":"JPIX Tokyo","name_short":"JPIX","operator":"JPIX","node_type":"ixp","status":"operational","city":"Tokyo","country_iso":"JP","region":"asia-pacific","address":null,"floor_space_sqm":null,"power_mw":null,"connected_networks":[],"peeringdb_id":null,"peeringdb_ix_id":null,"website":null,"source":"OpenFiberMap-Seeds","source_url":"https://github.com/Jastman/OpenFiberMap","license":"CC0-1.0","attribution":"OpenFiberMap curated backbone seeds (approximate, CC0)","last_updated":"2026-04-04","notes":"Approximate alignment digitized from publicly-available network maps.","osm_node_id":null}},{"type":"Feature","geometry":{"type":"Point","coordinates":[135.5,34.69]},"properties":{"ofm_layer":"fiber-nodes","node_id":"ixp-jp-jpnap-osaka-01","network_id":"jp-jpnap","name":"JPNAP Osaka","name_short":"JPNAP-OSA","operator":"JPNAP","node_type":"ixp","status":"operational","city":"Osaka","country_iso":"JP","region":"asia-pacific","address":null,"floor_space_sqm":null,"power_mw":null,"connected_networks":[],"peeringdb_id":null,"peeringdb_ix_id":null,"website":null,"source":"OpenFiberMap-Seeds","source_url":"https://github.com/Jastman/OpenFiberMap","license":"CC0-1.0","attribution":"OpenFiberMap curated backbone seeds (approximate, CC0)","last_updated":"2026-04-04","notes":"Approximate alignment digitized from publicly-available network maps.","osm_node_id":null}},{"type":"Feature","geometry":{"type":"Point","coordinates":[126.98,37.57]},"properties":{"ofm_layer":"fiber-nodes","node_id":"ixp-kr-kinx-seoul-01","network_id":"kr-kinx","name":"KINX Seoul","name_short":"KINX","operator":"KINX","node_type":"ixp","status":"operational","city":"Seoul","country_iso":"KR","region":"asia-pacific","address":null,"floor_space_sqm":null,"power_mw":null,"connected_networks":[],"peeringdb_id":null,"peeringdb_ix_id":null,"website":null,"source":"OpenFiberMap-Seeds","source_url":"https://github.com/Jastman/OpenFiberMap","license":"CC0-1.0","attribution":"OpenFiberMap curated backbone seeds (approximate, CC0)","last_updated":"2026-04-04","notes":"Approximate alignment digitized from publicly-available network maps.","osm_node_id":null}},{"type":"Feature","geometry":{"type":"Point","coordinates":[103.82,1.35]},"properties":{"ofm_layer":"fiber-nodes","node_id":"ixp-sg-sgix-singapore-01","network_id":"sg-sgix","name":"SGIX Singapore","name_short":"SGIX","operator":"SGIX","node_type":"ixp","status":"operational","city":"Singapore","country_iso":"SG","region":"asia-pacific","address":null,"floor_space_sqm":null,"power_mw":null,"connected_networks":[],"peeringdb_id":null,"peeringdb_ix_id":null,"website":null,"source":"OpenFiberMap-Seeds","source_url":"https://github.com/Jastman/OpenFiberMap","license":"CC0-1.0","attribution":"OpenFiberMap curated backbone seeds (approximate, CC0)","last_updated":"2026-04-04","notes":"Approximate alignment digitized from publicly-available network maps.","osm_node_id":null}},{"type":"Feature","geometry":{"type":"Point","coordinates":[114.17,22.28]},"properties":{"ofm_layer":"fiber-nodes","node_id":"ixp-hk-hkix-hong-kong-01","network_id":"hk-hkix","name":"HKIX Hong Kong","name_short":"HKIX","operator":"HKIX","node_type":"ixp","status":"operational","city":"Hong Kong","country_iso":"HK","region":"asia-pacific","address":null,"floor_space_sqm":null,"power_mw":null,"connected_networks":[],"peeringdb_id":null,"peeringdb_ix_id":null,"website":null,"source":"OpenFiberMap-Seeds","source_url":"https://github.com/Jastman/OpenFiberMap","license":"CC0-1.0","attribution":"OpenFiberMap curated backbone seeds (approximate, CC0)","last_updated":"2026-04-04","notes":"Approximate alignment digitized from publicly-available network maps.","osm_node_id":null}},{"type":"Feature","geometry":{"type":"Point","coordinates":[139.7,35.68]},"properties":{"ofm_layer":"fiber-nodes","node_id":"ixp-jp-bbix-tokyo-01","network_id":"jp-bbix","name":"BBIX Tokyo","name_short":"BBIX","operator":"BBIX","node_type":"ixp","status":"operational","city":"Tokyo","country_iso":"JP","region":"asia-pacific","address":null,"floor_space_sqm":null,"power_mw":null,"connected_networks":[],"peeringdb_id":null,"peeringdb_ix_id":null,"website":null,"source":"OpenFiberMap-Seeds","source_url":"https://github.com/Jastman/OpenFiberMap","license":"CC0-1.0","attribution":"OpenFiberMap curated backbone seeds (approximate, CC0)","last_updated":"2026-04-04","notes":"Approximate alignment digitized from publicly-available network maps.","osm_node_id":null}},{"type":"Feature","geometry":{"type":"Point","coordinates":[151.21,-33.87]},"properties":{"ofm_layer":"fiber-nodes","node_id":"ixp-au-equinix-sy-six-01","network_id":"au-equinix","name":"Equinix SY (SIX)","name_short":"SIX-SY","operator":"Equinix","node_type":"ixp","status":"operational","city":"Sydney","country_iso":"AU","region":"asia-pacific","address":null,"floor_space_sqm":null,"power_mw":null,"connected_networks":[],"peeringdb_id":null,"peeringdb_ix_id":null,"website":null,"source":"OpenFiberMap-Seeds","source_url":"https://github.com/Jastman/OpenFiberMap","license":"CC0-1.0","attribution":"OpenFiberMap curated backbone seeds (approximate, CC0)","last_updated":"2026-04-04","notes":"Approximate alignment digitized from publicly-available network maps.","osm_node_id":null}},{"type":"Feature","geometry":{"type":"Point","coordinates":[72.88,19.08]},"properties":{"ofm_layer":"fiber-nodes","node_id":"ixp-in-nixi-mumbai-01","network_id":"in-nixi","name":"NIXI Mumbai","name_short":"NIXI-MUM","operator":"NIXI","node_type":"ixp","status":"operational","city":"Mumbai","country_iso":"IN","region":"asia-pacific","address":null,"floor_space_sqm":null,"power_mw":null,"connected_networks":[],"peeringdb_id":null,"peeringdb_ix_id":null,"website":null,"source":"OpenFiberMap-Seeds","source_url":"https://github.com/Jastman/OpenFiberMap","license":"CC0-1.0","attribution":"OpenFiberMap curated backbone seeds (approximate, CC0)","last_updated":"2026-04-04","notes":"Approximate alignment digitized from publicly-available network maps.","osm_node_id":null}},{"type":"Feature","geometry":{"type":"Point","coordinates":[55.3,25.26]},"properties":{"ofm_layer":"fiber-nodes","node_id":"ixp-ae-uae-ix-dubai-01","network_id":"ae-uae-ix","name":"UAE-IX Dubai","name_short":"UAE-IX","operator":"UAE-IX","node_type":"ixp","status":"operational","city":"Dubai","country_iso":"AE","region":"middle-east","address":null,"floor_space_sqm":null,"power_mw":null,"connected_networks":[],"peeringdb_id":null,"peeringdb_ix_id":null,"website":null,"source":"OpenFiberMap-Seeds","source_url":"https://github.com/Jastman/OpenFiberMap","license":"CC0-1.0","attribution":"OpenFiberMap curated backbone seeds (approximate, CC0)","last_updated":"2026-04-04","notes":"Approximate alignment digitized from publicly-available network maps.","osm_node_id":null}},{"type":"Feature","geometry":{"type":"Point","coordinates":[28.98,41.02]},"properties":{"ofm_layer":"fiber-nodes","node_id":"ixp-tr-treix-istanbul-01","network_id":"tr-treix","name":"TREIX Istanbul","name_short":"TREIX","operator":"TREIX","node_type":"ixp","status":"operational","city":"Istanbul","country_iso":"TR","region":"europe","address":null,"floor_space_sqm":null,"power_mw":null,"connected_networks":[],"peeringdb_id":null,"peeringdb_ix_id":null,"website":null,"source":"OpenFiberMap-Seeds","source_url":"https://github.com/Jastman/OpenFiberMap","license":"CC0-1.0","attribution":"OpenFiberMap curated backbone seeds (approximate, CC0)","last_updated":"2026-04-04","notes":"Approximate alignment digitized from publicly-available network maps.","osm_node_id":null}}]}