{"type":"FeatureCollection","last_updated":"2026-04-04","name":"OpenFiberMap-Nodes-Global","features":[{"type":"Feature","geometry":{"type":"Point","coordinates":[15.27,-4.32]},"properties":{"ofm_layer":"fiber-nodes","node_id":"ixp-cd-kinix-01","network_id":"cd-kinix","name":"KINIX","name_short":"KINIX","operator":"KINIX","node_type":"ixp","status":"operational","city":"Kinshasa","country_iso":"CD","region":"africa","address":null,"floor_space_sqm":null,"power_mw":null,"connected_networks":[],"peeringdb_id":null,"peeringdb_ix_id":null,"website":null,"source":"AfTerFibre","source_url":"https://afterfibre.nsrc.org","license":"CC-BY-4.0","attribution":"AfTerFibre / NSRC (CC-BY) — https://afterfibre.nsrc.org","last_updated":"2026-04-02","notes":"Curated from public AfTerFibre map. Coordinates approximate.","osm_node_id":null}},{"type":"Feature","geometry":{"type":"Point","coordinates":[3.38,6.45]},"properties":{"ofm_layer":"fiber-nodes","node_id":"ixp-ng-ixpn-lagos-01","network_id":"ng-ixpn","name":"IXPN Lagos","name_short":"IXPN","operator":"IXPN","node_type":"ixp","status":"operational","city":"Lagos","country_iso":"NG","region":"africa","address":null,"floor_space_sqm":null,"power_mw":null,"connected_networks":[],"peeringdb_id":null,"peeringdb_ix_id":null,"website":null,"source":"AfTerFibre","source_url":"https://afterfibre.nsrc.org","license":"CC-BY-4.0","attribution":"AfTerFibre / NSRC (CC-BY) — https://afterfibre.nsrc.org","last_updated":"2026-04-02","notes":"Curated from public AfTerFibre map. Coordinates approximate.","osm_node_id":null}},{"type":"Feature","geometry":{"type":"Point","coordinates":[36.82,-1.29]},"properties":{"ofm_layer":"fiber-nodes","node_id":"ixp-ke-kixp-nairobi-01","network_id":"ke-tespok","name":"KIXP Nairobi","name_short":"KIXP","operator":"TESPOK","node_type":"ixp","status":"operational","city":"Nairobi","country_iso":"KE","region":"africa","address":null,"floor_space_sqm":null,"power_mw":null,"connected_networks":[],"peeringdb_id":null,"peeringdb_ix_id":null,"website":null,"source":"AfTerFibre","source_url":"https://afterfibre.nsrc.org","license":"CC-BY-4.0","attribution":"AfTerFibre / NSRC (CC-BY) — https://afterfibre.nsrc.org","last_updated":"2026-04-02","notes":"Curated from public AfTerFibre map. Coordinates approximate.","osm_node_id":null}},{"type":"Feature","geometry":{"type":"Point","coordinates":[28.03,-26.2]},"properties":{"ofm_layer":"fiber-nodes","node_id":"ixp-za-jinx-johannesburg-01","network_id":"za-teraco","name":"JINX Johannesburg","name_short":"JINX","operator":"Teraco","node_type":"ixp","status":"operational","city":"Johannesburg","country_iso":"ZA","region":"africa","address":null,"floor_space_sqm":null,"power_mw":null,"connected_networks":[],"peeringdb_id":null,"peeringdb_ix_id":null,"website":null,"source":"AfTerFibre","source_url":"https://afterfibre.nsrc.org","license":"CC-BY-4.0","attribution":"AfTerFibre / NSRC (CC-BY) — https://afterfibre.nsrc.org","last_updated":"2026-04-02","notes":"Curated from public AfTerFibre map. Coordinates approximate.","osm_node_id":null}},{"type":"Feature","geometry":{"type":"Point","coordinates":[39.29,-6.82]},"properties":{"ofm_layer":"fiber-nodes","node_id":"ixp-tz-amsix-dar-es-salaam-01","network_id":"tz-amsix-tanzania","name":"AMSIX Dar es Salaam","name_short":"AMSIX-DAR","operator":"AMSIX Tanzania","node_type":"ixp","status":"operational","city":"Dar es Salaam","country_iso":"TZ","region":"africa","address":null,"floor_space_sqm":null,"power_mw":null,"connected_networks":[],"peeringdb_id":null,"peeringdb_ix_id":null,"website":null,"source":"AfTerFibre","source_url":"https://afterfibre.nsrc.org","license":"CC-BY-4.0","attribution":"AfTerFibre / NSRC (CC-BY) — https://afterfibre.nsrc.org","last_updated":"2026-04-02","notes":"Curated from public AfTerFibre map. Coordinates approximate.","osm_node_id":null}},{"type":"Feature","geometry":{"type":"Point","coordinates":[32.58,0.35]},"properties":{"ofm_layer":"fiber-nodes","node_id":"ixp-ug-uixp-kampala-01","network_id":"ug-uixp","name":"UIXP Kampala","name_short":"UIXP","operator":"UIXP","node_type":"ixp","status":"operational","city":"Kampala","country_iso":"UG","region":"africa","address":null,"floor_space_sqm":null,"power_mw":null,"connected_networks":[],"peeringdb_id":null,"peeringdb_ix_id":null,"website":null,"source":"AfTerFibre","source_url":"https://afterfibre.nsrc.org","license":"CC-BY-4.0","attribution":"AfTerFibre / NSRC (CC-BY) — https://afterfibre.nsrc.org","last_updated":"2026-04-02","notes":"Curated from public AfTerFibre map. Coordinates approximate.","osm_node_id":null}},{"type":"Feature","geometry":{"type":"Point","coordinates":[30.06,-1.94]},"properties":{"ofm_layer":"fiber-nodes","node_id":"ixp-rw-rwix-kigali-01","network_id":"rw-rura","name":"RWIX Kigali","name_short":"RWIX","operator":"RURA","node_type":"ixp","status":"operational","city":"Kigali","country_iso":"RW","region":"africa","address":null,"floor_space_sqm":null,"power_mw":null,"connected_networks":[],"peeringdb_id":null,"peeringdb_ix_id":null,"website":null,"source":"AfTerFibre","source_url":"https://afterfibre.nsrc.org","license":"CC-BY-4.0","attribution":"AfTerFibre / NSRC (CC-BY) — https://afterfibre.nsrc.org","last_updated":"2026-04-02","notes":"Curated from public AfTerFibre map. Coordinates approximate.","osm_node_id":null}},{"type":"Feature","geometry":{"type":"Point","coordinates":[-0.19,5.56]},"properties":{"ofm_layer":"fiber-nodes","node_id":"ixp-gh-ghix-accra-01","network_id":"gh-ghix","name":"GHIX Accra","name_short":"GHIX","operator":"GHIX","node_type":"ixp","status":"operational","city":"Accra","country_iso":"GH","region":"africa","address":null,"floor_space_sqm":null,"power_mw":null,"connected_networks":[],"peeringdb_id":null,"peeringdb_ix_id":null,"website":null,"source":"AfTerFibre","source_url":"https://afterfibre.nsrc.org","license":"CC-BY-4.0","attribution":"AfTerFibre / NSRC (CC-BY) — https://afterfibre.nsrc.org","last_updated":"2026-04-02","notes":"Curated from public AfTerFibre map. Coordinates approximate.","osm_node_id":null}},{"type":"Feature","geometry":{"type":"Point","coordinates":[36.83,-1.3]},"properties":{"ofm_layer":"fiber-nodes","node_id":"ixp-ke-decix-nairobi-01","network_id":"ke-de-cix","name":"DECIX Nairobi","name_short":"DECIX-NBO","operator":"DE-CIX","node_type":"ixp","status":"operational","city":"Nairobi","country_iso":"KE","region":"africa","address":null,"floor_space_sqm":null,"power_mw":null,"connected_networks":[],"peeringdb_id":null,"peeringdb_ix_id":null,"website":null,"source":"AfTerFibre","source_url":"https://afterfibre.nsrc.org","license":"CC-BY-4.0","attribution":"AfTerFibre / NSRC (CC-BY) — https://afterfibre.nsrc.org","last_updated":"2026-04-02","notes":"Curated from public AfTerFibre map. Coordinates approximate.","osm_node_id":null}},{"type":"Feature","geometry":{"type":"Point","coordinates":[39.67,-4.05]},"properties":{"ofm_layer":"fiber-nodes","node_id":"ls-ke-seacom-mombasa-landing-station-01","network_id":"ke-seacom","name":"SEACOM Mombasa Landing Station","name_short":"SEACOM Mombasa","operator":"SEACOM","node_type":"landing-station","status":"operational","city":"Mombasa","country_iso":"KE","region":"africa","address":null,"floor_space_sqm":null,"power_mw":null,"connected_networks":[],"peeringdb_id":null,"peeringdb_ix_id":null,"website":null,"source":"AfTerFibre","source_url":"https://afterfibre.nsrc.org","license":"CC-BY-4.0","attribution":"AfTerFibre / NSRC (CC-BY) — https://afterfibre.nsrc.org","last_updated":"2026-04-02","notes":"Curated from public AfTerFibre map. Coordinates approximate.","osm_node_id":null}},{"type":"Feature","geometry":{"type":"Point","coordinates":[39.68,-4.04]},"properties":{"ofm_layer":"fiber-nodes","node_id":"ls-ke-eassy-mombasa-landing-station-01","network_id":"ke-eassy-consortium","name":"EASSy Mombasa Landing Station","name_short":"EASSy Mombasa","operator":"EASSy Consortium","node_type":"landing-station","status":"operational","city":"Mombasa","country_iso":"KE","region":"africa","address":null,"floor_space_sqm":null,"power_mw":null,"connected_networks":[],"peeringdb_id":null,"peeringdb_ix_id":null,"website":null,"source":"AfTerFibre","source_url":"https://afterfibre.nsrc.org","license":"CC-BY-4.0","attribution":"AfTerFibre / NSRC (CC-BY) — https://afterfibre.nsrc.org","last_updated":"2026-04-02","notes":"Curated from public AfTerFibre map. Coordinates approximate.","osm_node_id":null}},{"type":"Feature","geometry":{"type":"Point","coordinates":[18.42,-33.93]},"properties":{"ofm_layer":"fiber-nodes","node_id":"ls-za-wacs-cape-town-landing-station-01","network_id":"za-mtn","name":"WACS Cape Town Landing Station","name_short":"WACS CPT","operator":"MTN","node_type":"landing-station","status":"operational","city":"Cape Town","country_iso":"ZA","region":"africa","address":null,"floor_space_sqm":null,"power_mw":null,"connected_networks":[],"peeringdb_id":null,"peeringdb_ix_id":null,"website":null,"source":"AfTerFibre","source_url":"https://afterfibre.nsrc.org","license":"CC-BY-4.0","attribution":"AfTerFibre / NSRC (CC-BY) — https://afterfibre.nsrc.org","last_updated":"2026-04-02","notes":"Curated from public AfTerFibre map. Coordinates approximate.","osm_node_id":null}},{"type":"Feature","geometry":{"type":"Point","coordinates":[3.38,6.42]},"properties":{"ofm_layer":"fiber-nodes","node_id":"ls-ng-mainone-lagos-landing-station-01","network_id":"ng-mainone","name":"MainOne Lagos Landing Station","name_short":"MainOne LGS","operator":"MainOne","node_type":"landing-station","status":"operational","city":"Lagos","country_iso":"NG","region":"africa","address":null,"floor_space_sqm":null,"power_mw":null,"connected_networks":[],"peeringdb_id":null,"peeringdb_ix_id":null,"website":null,"source":"AfTerFibre","source_url":"https://afterfibre.nsrc.org","license":"CC-BY-4.0","attribution":"AfTerFibre / NSRC (CC-BY) — https://afterfibre.nsrc.org","last_updated":"2026-04-02","notes":"Curated from public AfTerFibre map. Coordinates approximate.","osm_node_id":null}},{"type":"Feature","geometry":{"type":"Point","coordinates":[-17.44,14.69]},"properties":{"ofm_layer":"fiber-nodes","node_id":"ls-sn-ace-dakar-landing-station-01","network_id":"sn-orange","name":"ACE Dakar Landing Station","name_short":"ACE Dakar","operator":"Orange","node_type":"landing-station","status":"operational","city":"Dakar","country_iso":"SN","region":"africa","address":null,"floor_space_sqm":null,"power_mw":null,"connected_networks":[],"peeringdb_id":null,"peeringdb_ix_id":null,"website":null,"source":"AfTerFibre","source_url":"https://afterfibre.nsrc.org","license":"CC-BY-4.0","attribution":"AfTerFibre / NSRC (CC-BY) — https://afterfibre.nsrc.org","last_updated":"2026-04-02","notes":"Curated from public AfTerFibre map. Coordinates approximate.","osm_node_id":null}},{"type":"Feature","geometry":{"type":"Point","coordinates":[28.13,-26.18]},"properties":{"ofm_layer":"fiber-nodes","node_id":"dc-za-teraco-jb1-johannesburg-01","network_id":"za-teraco-data-environments","name":"Teraco JB1 Johannesburg","name_short":"Teraco JB1","operator":"Teraco Data Environments","node_type":"data-center","status":"operational","city":"Johannesburg","country_iso":"ZA","region":"africa","address":null,"floor_space_sqm":null,"power_mw":null,"connected_networks":[],"peeringdb_id":null,"peeringdb_ix_id":null,"website":null,"source":"AfTerFibre","source_url":"https://afterfibre.nsrc.org","license":"CC-BY-4.0","attribution":"AfTerFibre / NSRC (CC-BY) — https://afterfibre.nsrc.org","last_updated":"2026-04-02","notes":"Curated from public AfTerFibre map. Coordinates approximate.","osm_node_id":null}},{"type":"Feature","geometry":{"type":"Point","coordinates":[36.83,-1.27]},"properties":{"ofm_layer":"fiber-nodes","node_id":"dc-ke-africa-data-centres-nairobi-01","network_id":"ke-africa-data-centres","name":"Africa Data Centres Nairobi","name_short":"ADC Nairobi","operator":"Africa Data Centres","node_type":"data-center","status":"operational","city":"Nairobi","country_iso":"KE","region":"africa","address":null,"floor_space_sqm":null,"power_mw":null,"connected_networks":[],"peeringdb_id":null,"peeringdb_ix_id":null,"website":null,"source":"AfTerFibre","source_url":"https://afterfibre.nsrc.org","license":"CC-BY-4.0","attribution":"AfTerFibre / NSRC (CC-BY) — https://afterfibre.nsrc.org","last_updated":"2026-04-02","notes":"Curated from public AfTerFibre map. Coordinates approximate.","osm_node_id":null}},{"type":"Feature","geometry":{"type":"Point","coordinates":[3.39,6.6]},"properties":{"ofm_layer":"fiber-nodes","node_id":"dc-ng-mdxi-lagos-01","network_id":"ng-mainone-mdxi","name":"MDXi Lagos","name_short":"MDXi Lagos","operator":"MainOne (MDXi)","node_type":"data-center","status":"operational","city":"Lagos","country_iso":"NG","region":"africa","address":null,"floor_space_sqm":null,"power_mw":null,"connected_networks":[],"peeringdb_id":null,"peeringdb_ix_id":null,"website":null,"source":"AfTerFibre","source_url":"https://afterfibre.nsrc.org","license":"CC-BY-4.0","attribution":"AfTerFibre / NSRC (CC-BY) — https://afterfibre.nsrc.org","last_updated":"2026-04-02","notes":"Curated from public AfTerFibre map. Coordinates approximate.","osm_node_id":null}},{"type":"Feature","geometry":{"type":"Point","coordinates":[-46.63,-23.55]},"properties":{"ofm_layer":"fiber-nodes","node_id":"pop-br-rnp-pop-sao-paulo-01","network_id":"br-rnp","name":"RNP PoP São Paulo","name_short":null,"operator":"RNP","node_type":"pop","status":"operational","city":"São Paulo","country_iso":"BR","region":"americas","address":null,"floor_space_sqm":null,"power_mw":null,"connected_networks":[],"peeringdb_id":null,"peeringdb_ix_id":null,"website":null,"source":"RNP","source_url":"https://www.rnp.br/en/network/infrastructure","license":"CC-BY-4.0","attribution":"RNP — Rede Nacional de Pesquisa (CC-BY) — https://www.rnp.br","last_updated":"2026-04-02","notes":"Coordinates approximate (city PoP location).","osm_node_id":null}},{"type":"Feature","geometry":{"type":"Point","coordinates":[-43.17,-22.91]},"properties":{"ofm_layer":"fiber-nodes","node_id":"pop-br-rnp-pop-rio-de-janeiro-01","network_id":"br-rnp","name":"RNP PoP Rio de Janeiro","name_short":null,"operator":"RNP","node_type":"pop","status":"operational","city":"Rio de Janeiro","country_iso":"BR","region":"americas","address":null,"floor_space_sqm":null,"power_mw":null,"connected_networks":[],"peeringdb_id":null,"peeringdb_ix_id":null,"website":null,"source":"RNP","source_url":"https://www.rnp.br/en/network/infrastructure","license":"CC-BY-4.0","attribution":"RNP — Rede Nacional de Pesquisa (CC-BY) — https://www.rnp.br","last_updated":"2026-04-02","notes":"Coordinates approximate (city PoP location).","osm_node_id":null}},{"type":"Feature","geometry":{"type":"Point","coordinates":[-47.93,-15.78]},"properties":{"ofm_layer":"fiber-nodes","node_id":"pop-br-rnp-pop-brasilia-01","network_id":"br-rnp","name":"RNP PoP Brasília","name_short":null,"operator":"RNP","node_type":"pop","status":"operational","city":"Brasília","country_iso":"BR","region":"americas","address":null,"floor_space_sqm":null,"power_mw":null,"connected_networks":[],"peeringdb_id":null,"peeringdb_ix_id":null,"website":null,"source":"RNP","source_url":"https://www.rnp.br/en/network/infrastructure","license":"CC-BY-4.0","attribution":"RNP — Rede Nacional de Pesquisa (CC-BY) — https://www.rnp.br","last_updated":"2026-04-02","notes":"Coordinates approximate (city PoP location).","osm_node_id":null}},{"type":"Feature","geometry":{"type":"Point","coordinates":[-43.93,-19.92]},"properties":{"ofm_layer":"fiber-nodes","node_id":"pop-br-rnp-pop-belo-horizonte-01","network_id":"br-rnp","name":"RNP PoP Belo Horizonte","name_short":null,"operator":"RNP","node_type":"pop","status":"operational","city":"Belo Horizonte","country_iso":"BR","region":"americas","address":null,"floor_space_sqm":null,"power_mw":null,"connected_networks":[],"peeringdb_id":null,"peeringdb_ix_id":null,"website":null,"source":"RNP","source_url":"https://www.rnp.br/en/network/infrastructure","license":"CC-BY-4.0","attribution":"RNP — Rede Nacional de Pesquisa (CC-BY) — https://www.rnp.br","last_updated":"2026-04-02","notes":"Coordinates approximate (city PoP location).","osm_node_id":null}},{"type":"Feature","geometry":{"type":"Point","coordinates":[-38.52,-12.97]},"properties":{"ofm_layer":"fiber-nodes","node_id":"pop-br-rnp-pop-salvador-01","network_id":"br-rnp","name":"RNP PoP Salvador","name_short":null,"operator":"RNP","node_type":"pop","status":"operational","city":"Salvador","country_iso":"BR","region":"americas","address":null,"floor_space_sqm":null,"power_mw":null,"connected_networks":[],"peeringdb_id":null,"peeringdb_ix_id":null,"website":null,"source":"RNP","source_url":"https://www.rnp.br/en/network/infrastructure","license":"CC-BY-4.0","attribution":"RNP — Rede Nacional de Pesquisa (CC-BY) — https://www.rnp.br","last_updated":"2026-04-02","notes":"Coordinates approximate (city PoP location).","osm_node_id":null}},{"type":"Feature","geometry":{"type":"Point","coordinates":[-34.88,-8.05]},"properties":{"ofm_layer":"fiber-nodes","node_id":"pop-br-rnp-pop-recife-01","network_id":"br-rnp","name":"RNP PoP Recife","name_short":null,"operator":"RNP","node_type":"pop","status":"operational","city":"Recife","country_iso":"BR","region":"americas","address":null,"floor_space_sqm":null,"power_mw":null,"connected_networks":[],"peeringdb_id":null,"peeringdb_ix_id":null,"website":null,"source":"RNP","source_url":"https://www.rnp.br/en/network/infrastructure","license":"CC-BY-4.0","attribution":"RNP — Rede Nacional de Pesquisa (CC-BY) — https://www.rnp.br","last_updated":"2026-04-02","notes":"Coordinates approximate (city PoP location).","osm_node_id":null}},{"type":"Feature","geometry":{"type":"Point","coordinates":[-38.54,-3.72]},"properties":{"ofm_layer":"fiber-nodes","node_id":"pop-br-rnp-pop-fortaleza-01","network_id":"br-rnp","name":"RNP PoP Fortaleza","name_short":null,"operator":"RNP","node_type":"pop","status":"operational","city":"Fortaleza","country_iso":"BR","region":"americas","address":null,"floor_space_sqm":null,"power_mw":null,"connected_networks":[],"peeringdb_id":null,"peeringdb_ix_id":null,"website":null,"source":"RNP","source_url":"https://www.rnp.br/en/network/infrastructure","license":"CC-BY-4.0","attribution":"RNP — Rede Nacional de Pesquisa (CC-BY) — https://www.rnp.br","last_updated":"2026-04-02","notes":"Coordinates approximate (city PoP location).","osm_node_id":null}},{"type":"Feature","geometry":{"type":"Point","coordinates":[-51.23,-30.03]},"properties":{"ofm_layer":"fiber-nodes","node_id":"pop-br-rnp-pop-porto-alegre-01","network_id":"br-rnp","name":"RNP PoP Porto Alegre","name_short":null,"operator":"RNP","node_type":"pop","status":"operational","city":"Porto Alegre","country_iso":"BR","region":"americas","address":null,"floor_space_sqm":null,"power_mw":null,"connected_networks":[],"peeringdb_id":null,"peeringdb_ix_id":null,"website":null,"source":"RNP","source_url":"https://www.rnp.br/en/network/infrastructure","license":"CC-BY-4.0","attribution":"RNP — Rede Nacional de Pesquisa (CC-BY) — https://www.rnp.br","last_updated":"2026-04-02","notes":"Coordinates approximate (city PoP location).","osm_node_id":null}},{"type":"Feature","geometry":{"type":"Point","coordinates":[-49.27,-25.43]},"properties":{"ofm_layer":"fiber-nodes","node_id":"pop-br-rnp-pop-curitiba-01","network_id":"br-rnp","name":"RNP PoP Curitiba","name_short":null,"operator":"RNP","node_type":"pop","status":"operational","city":"Curitiba","country_iso":"BR","region":"americas","address":null,"floor_space_sqm":null,"power_mw":null,"connected_networks":[],"peeringdb_id":null,"peeringdb_ix_id":null,"website":null,"source":"RNP","source_url":"https://www.rnp.br/en/network/infrastructure","license":"CC-BY-4.0","attribution":"RNP — Rede Nacional de Pesquisa (CC-BY) — https://www.rnp.br","last_updated":"2026-04-02","notes":"Coordinates approximate (city PoP location).","osm_node_id":null}},{"type":"Feature","geometry":{"type":"Point","coordinates":[-48.55,-27.6]},"properties":{"ofm_layer":"fiber-nodes","node_id":"pop-br-rnp-pop-florianopolis-01","network_id":"br-rnp","name":"RNP PoP Florianópolis","name_short":null,"operator":"RNP","node_type":"pop","status":"operational","city":"Florianópolis","country_iso":"BR","region":"americas","address":null,"floor_space_sqm":null,"power_mw":null,"connected_networks":[],"peeringdb_id":null,"peeringdb_ix_id":null,"website":null,"source":"RNP","source_url":"https://www.rnp.br/en/network/infrastructure","license":"CC-BY-4.0","attribution":"RNP — Rede Nacional de Pesquisa (CC-BY) — https://www.rnp.br","last_updated":"2026-04-02","notes":"Coordinates approximate (city PoP location).","osm_node_id":null}},{"type":"Feature","geometry":{"type":"Point","coordinates":[-60.02,-3.1]},"properties":{"ofm_layer":"fiber-nodes","node_id":"pop-br-rnp-pop-manaus-01","network_id":"br-rnp","name":"RNP PoP Manaus","name_short":null,"operator":"RNP","node_type":"pop","status":"operational","city":"Manaus","country_iso":"BR","region":"americas","address":null,"floor_space_sqm":null,"power_mw":null,"connected_networks":[],"peeringdb_id":null,"peeringdb_ix_id":null,"website":null,"source":"RNP","source_url":"https://www.rnp.br/en/network/infrastructure","license":"CC-BY-4.0","attribution":"RNP — Rede Nacional de Pesquisa (CC-BY) — https://www.rnp.br","last_updated":"2026-04-02","notes":"Coordinates approximate (city PoP location).","osm_node_id":null}},{"type":"Feature","geometry":{"type":"Point","coordinates":[-48.5,-1.46]},"properties":{"ofm_layer":"fiber-nodes","node_id":"pop-br-rnp-pop-belem-01","network_id":"br-rnp","name":"RNP PoP Belém","name_short":null,"operator":"RNP","node_type":"pop","status":"operational","city":"Belém","country_iso":"BR","region":"americas","address":null,"floor_space_sqm":null,"power_mw":null,"connected_networks":[],"peeringdb_id":null,"peeringdb_ix_id":null,"website":null,"source":"RNP","source_url":"https://www.rnp.br/en/network/infrastructure","license":"CC-BY-4.0","attribution":"RNP — Rede Nacional de Pesquisa (CC-BY) — https://www.rnp.br","last_updated":"2026-04-02","notes":"Coordinates approximate (city PoP location).","osm_node_id":null}},{"type":"Feature","geometry":{"type":"Point","coordinates":[-49.25,-16.69]},"properties":{"ofm_layer":"fiber-nodes","node_id":"pop-br-rnp-pop-goiania-01","network_id":"br-rnp","name":"RNP PoP Goiânia","name_short":null,"operator":"RNP","node_type":"pop","status":"operational","city":"Goiânia","country_iso":"BR","region":"americas","address":null,"floor_space_sqm":null,"power_mw":null,"connected_networks":[],"peeringdb_id":null,"peeringdb_ix_id":null,"website":null,"source":"RNP","source_url":"https://www.rnp.br/en/network/infrastructure","license":"CC-BY-4.0","attribution":"RNP — Rede Nacional de Pesquisa (CC-BY) — https://www.rnp.br","last_updated":"2026-04-02","notes":"Coordinates approximate (city PoP location).","osm_node_id":null}},{"type":"Feature","geometry":{"type":"Point","coordinates":[-46.63,-23.55]},"properties":{"ofm_layer":"fiber-nodes","node_id":"ixp-br-ixbr-sao-paulo-ptt-metro-sp-01","network_id":"br-nicbr-ixbr","name":"IX.br São Paulo (PTT Metro SP)","name_short":"IX.br SP","operator":"NIC.br / IX.br","node_type":"ixp","status":"operational","city":"São Paulo","country_iso":"BR","region":"americas","address":null,"floor_space_sqm":null,"power_mw":null,"connected_networks":[],"peeringdb_id":null,"peeringdb_ix_id":null,"website":null,"source":"RNP","source_url":"https://www.rnp.br/en/network/infrastructure","license":"CC-BY-4.0","attribution":"RNP — Rede Nacional de Pesquisa (CC-BY) — https://www.rnp.br","last_updated":"2026-04-02","notes":"Coordinates approximate (city PoP location).","osm_node_id":null}},{"type":"Feature","geometry":{"type":"Point","coordinates":[-43.17,-22.91]},"properties":{"ofm_layer":"fiber-nodes","node_id":"ixp-br-ixbr-rio-de-janeiro-01","network_id":"br-nicbr-ixbr","name":"IX.br Rio de Janeiro","name_short":"IX.br RJ","operator":"NIC.br / IX.br","node_type":"ixp","status":"operational","city":"Rio de Janeiro","country_iso":"BR","region":"americas","address":null,"floor_space_sqm":null,"power_mw":null,"connected_networks":[],"peeringdb_id":null,"peeringdb_ix_id":null,"website":null,"source":"RNP","source_url":"https://www.rnp.br/en/network/infrastructure","license":"CC-BY-4.0","attribution":"RNP — Rede Nacional de Pesquisa (CC-BY) — https://www.rnp.br","last_updated":"2026-04-02","notes":"Coordinates approximate (city PoP location).","osm_node_id":null}},{"type":"Feature","geometry":{"type":"Point","coordinates":[-38.54,-3.72]},"properties":{"ofm_layer":"fiber-nodes","node_id":"ixp-br-ixbr-fortaleza-01","network_id":"br-nicbr-ixbr","name":"IX.br Fortaleza","name_short":"IX.br FOR","operator":"NIC.br / IX.br","node_type":"ixp","status":"operational","city":"Fortaleza","country_iso":"BR","region":"americas","address":null,"floor_space_sqm":null,"power_mw":null,"connected_networks":[],"peeringdb_id":null,"peeringdb_ix_id":null,"website":null,"source":"RNP","source_url":"https://www.rnp.br/en/network/infrastructure","license":"CC-BY-4.0","attribution":"RNP — Rede Nacional de Pesquisa (CC-BY) — https://www.rnp.br","last_updated":"2026-04-02","notes":"Coordinates approximate (city PoP location).","osm_node_id":null}},{"type":"Feature","geometry":{"type":"Point","coordinates":[-46.41,-24.01]},"properties":{"ofm_layer":"fiber-nodes","node_id":"ls-br-seabras-1-sao-paulo-landing-station-pra-01","network_id":"br-seaborn-networks","name":"Seabras-1 São Paulo Landing Station (Praia Grande)","name_short":"SEABRAS-1","operator":"Seaborn Networks","node_type":"landing-station","status":"operational","city":"Praia Grande","country_iso":"BR","region":"americas","address":null,"floor_space_sqm":null,"power_mw":null,"connected_networks":[],"peeringdb_id":null,"peeringdb_ix_id":null,"website":null,"source":"RNP","source_url":"https://www.rnp.br/en/network/infrastructure","license":"CC-BY-4.0","attribution":"RNP — Rede Nacional de Pesquisa (CC-BY) — https://www.rnp.br","last_updated":"2026-04-02","notes":"Coordinates approximate (city PoP location).","osm_node_id":null}},{"type":"Feature","geometry":{"type":"Point","coordinates":[-38.52,-3.74]},"properties":{"ofm_layer":"fiber-nodes","node_id":"ls-br-ellalink-fortaleza-landing-station-01","network_id":"br-ellalink","name":"EllaLink Fortaleza Landing Station","name_short":"EllaLink FOR","operator":"EllaLink","node_type":"landing-station","status":"operational","city":"Fortaleza","country_iso":"BR","region":"americas","address":null,"floor_space_sqm":null,"power_mw":null,"connected_networks":[],"peeringdb_id":null,"peeringdb_ix_id":null,"website":null,"source":"RNP","source_url":"https://www.rnp.br/en/network/infrastructure","license":"CC-BY-4.0","attribution":"RNP — Rede Nacional de Pesquisa (CC-BY) — https://www.rnp.br","last_updated":"2026-04-02","notes":"Coordinates approximate (city PoP location).","osm_node_id":null}},{"type":"Feature","geometry":{"type":"Point","coordinates":[-38.5,-3.73]},"properties":{"ofm_layer":"fiber-nodes","node_id":"ls-br-monet-fortaleza-landing-station-01","network_id":"br-google-antel","name":"Monet Fortaleza Landing Station","name_short":"Monet FOR","operator":"Google / Antel","node_type":"landing-station","status":"operational","city":"Fortaleza","country_iso":"BR","region":"americas","address":null,"floor_space_sqm":null,"power_mw":null,"connected_networks":[],"peeringdb_id":null,"peeringdb_ix_id":null,"website":null,"source":"RNP","source_url":"https://www.rnp.br/en/network/infrastructure","license":"CC-BY-4.0","attribution":"RNP — Rede Nacional de Pesquisa (CC-BY) — https://www.rnp.br","last_updated":"2026-04-02","notes":"Coordinates approximate (city PoP location).","osm_node_id":null}},{"type":"Feature","geometry":{"type":"Point","coordinates":[-118.24,34.05]},"properties":{"ofm_layer":"fiber-nodes","node_id":"ixp-us-any2-los-angeles-01","network_id":"us-any2","name":"Any2 Los Angeles","name_short":"Any2 LA","operator":"Any2","node_type":"ixp","status":"operational","city":"Los Angeles","country_iso":"US","region":"americas","address":null,"floor_space_sqm":null,"power_mw":null,"connected_networks":[],"peeringdb_id":null,"peeringdb_ix_id":null,"website":null,"source":"OpenFiberMap-Seeds","source_url":"https://github.com/Jastman/OpenFiberMap","license":"CC0-1.0","attribution":"OpenFiberMap curated backbone seeds (approximate, CC0)","last_updated":"2026-04-04","notes":"Approximate alignment digitized from publicly-available network maps.","osm_node_id":null}},{"type":"Feature","geometry":{"type":"Point","coordinates":[-74.0,40.71]},"properties":{"ofm_layer":"fiber-nodes","node_id":"ixp-us-equinix-ny-nyiix-01","network_id":"us-equinix","name":"Equinix NY (NYIIX)","name_short":"NYIIX","operator":"Equinix","node_type":"ixp","status":"operational","city":"New York","country_iso":"US","region":"americas","address":null,"floor_space_sqm":null,"power_mw":null,"connected_networks":[],"peeringdb_id":null,"peeringdb_ix_id":null,"website":null,"source":"OpenFiberMap-Seeds","source_url":"https://github.com/Jastman/OpenFiberMap","license":"CC0-1.0","attribution":"OpenFiberMap curated backbone seeds (approximate, CC0)","last_updated":"2026-04-04","notes":"Approximate alignment digitized from publicly-available network maps.","osm_node_id":null}},{"type":"Feature","geometry":{"type":"Point","coordinates":[-87.63,41.88]},"properties":{"ofm_layer":"fiber-nodes","node_id":"ixp-us-coresite-any2-chicago-01","network_id":"us-coresite","name":"CoreSite Any2 Chicago","name_short":"Any2 CHI","operator":"CoreSite","node_type":"ixp","status":"operational","city":"Chicago","country_iso":"US","region":"americas","address":null,"floor_space_sqm":null,"power_mw":null,"connected_networks":[],"peeringdb_id":null,"peeringdb_ix_id":null,"website":null,"source":"OpenFiberMap-Seeds","source_url":"https://github.com/Jastman/OpenFiberMap","license":"CC0-1.0","attribution":"OpenFiberMap curated backbone seeds (approximate, CC0)","last_updated":"2026-04-04","notes":"Approximate alignment digitized from publicly-available network maps.","osm_node_id":null}},{"type":"Feature","geometry":{"type":"Point","coordinates":[-74.01,40.72]},"properties":{"ofm_layer":"fiber-nodes","node_id":"ixp-us-de-cix-new-york-01","network_id":"us-de-cix","name":"DE-CIX New York","name_short":"DECIX-NY","operator":"DE-CIX","node_type":"ixp","status":"operational","city":"New York","country_iso":"US","region":"americas","address":null,"floor_space_sqm":null,"power_mw":null,"connected_networks":[],"peeringdb_id":null,"peeringdb_ix_id":null,"website":null,"source":"OpenFiberMap-Seeds","source_url":"https://github.com/Jastman/OpenFiberMap","license":"CC0-1.0","attribution":"OpenFiberMap curated backbone seeds (approximate, CC0)","last_updated":"2026-04-04","notes":"Approximate alignment digitized from publicly-available network maps.","osm_node_id":null}},{"type":"Feature","geometry":{"type":"Point","coordinates":[-79.38,43.65]},"properties":{"ofm_layer":"fiber-nodes","node_id":"ixp-ca-torix-toronto-01","network_id":"ca-torix","name":"TorIX Toronto","name_short":"TorIX","operator":"TorIX","node_type":"ixp","status":"operational","city":"Toronto","country_iso":"CA","region":"americas","address":null,"floor_space_sqm":null,"power_mw":null,"connected_networks":[],"peeringdb_id":null,"peeringdb_ix_id":null,"website":null,"source":"OpenFiberMap-Seeds","source_url":"https://github.com/Jastman/OpenFiberMap","license":"CC0-1.0","attribution":"OpenFiberMap curated backbone seeds (approximate, CC0)","last_updated":"2026-04-04","notes":"Approximate alignment digitized from publicly-available network maps.","osm_node_id":null}},{"type":"Feature","geometry":{"type":"Point","coordinates":[4.9,52.37]},"properties":{"ofm_layer":"fiber-nodes","node_id":"ixp-nl-ams-ix-amsterdam-01","network_id":"nl-ams-ix","name":"AMS-IX Amsterdam","name_short":"AMS-IX","operator":"AMS-IX","node_type":"ixp","status":"operational","city":"Amsterdam","country_iso":"NL","region":"europe","address":null,"floor_space_sqm":null,"power_mw":null,"connected_networks":[],"peeringdb_id":null,"peeringdb_ix_id":null,"website":null,"source":"OpenFiberMap-Seeds","source_url":"https://github.com/Jastman/OpenFiberMap","license":"CC0-1.0","attribution":"OpenFiberMap curated backbone seeds (approximate, CC0)","last_updated":"2026-04-04","notes":"Approximate alignment digitized from publicly-available network maps.","osm_node_id":null}},{"type":"Feature","geometry":{"type":"Point","coordinates":[8.68,50.11]},"properties":{"ofm_layer":"fiber-nodes","node_id":"ixp-de-de-cix-frankfurt-01","network_id":"de-de-cix","name":"DE-CIX Frankfurt","name_short":"DE-CIX","operator":"DE-CIX","node_type":"ixp","status":"operational","city":"Frankfurt","country_iso":"DE","region":"europe","address":null,"floor_space_sqm":null,"power_mw":null,"connected_networks":[],"peeringdb_id":null,"peeringdb_ix_id":null,"website":null,"source":"OpenFiberMap-Seeds","source_url":"https://github.com/Jastman/OpenFiberMap","license":"CC0-1.0","attribution":"OpenFiberMap curated backbone seeds (approximate, CC0)","last_updated":"2026-04-04","notes":"Approximate alignment digitized from publicly-available network maps.","osm_node_id":null}},{"type":"Feature","geometry":{"type":"Point","coordinates":[-0.13,51.51]},"properties":{"ofm_layer":"fiber-nodes","node_id":"ixp-gb-linx-london-01","network_id":"gb-linx","name":"LINX London","name_short":"LINX","operator":"LINX","node_type":"ixp","status":"operational","city":"London","country_iso":"GB","region":"europe","address":null,"floor_space_sqm":null,"power_mw":null,"connected_networks":[],"peeringdb_id":null,"peeringdb_ix_id":null,"website":null,"source":"OpenFiberMap-Seeds","source_url":"https://github.com/Jastman/OpenFiberMap","license":"CC0-1.0","attribution":"OpenFiberMap curated backbone seeds (approximate, CC0)","last_updated":"2026-04-04","notes":"Approximate alignment digitized from publicly-available network maps.","osm_node_id":null}},{"type":"Feature","geometry":{"type":"Point","coordinates":[2.35,48.85]},"properties":{"ofm_layer":"fiber-nodes","node_id":"ixp-fr-france-ix-paris-01","network_id":"fr-france-ix","name":"France-IX Paris","name_short":"France-IX","operator":"France-IX","node_type":"ixp","status":"operational","city":"Paris","country_iso":"FR","region":"europe","address":null,"floor_space_sqm":null,"power_mw":null,"connected_networks":[],"peeringdb_id":null,"peeringdb_ix_id":null,"website":null,"source":"OpenFiberMap-Seeds","source_url":"https://github.com/Jastman/OpenFiberMap","license":"CC0-1.0","attribution":"OpenFiberMap curated backbone seeds (approximate, CC0)","last_updated":"2026-04-04","notes":"Approximate alignment digitized from publicly-available network maps.","osm_node_id":null}},{"type":"Feature","geometry":{"type":"Point","coordinates":[18.07,59.33]},"properties":{"ofm_layer":"fiber-nodes","node_id":"ixp-se-sfix-stockholm-01","network_id":"se-netnod","name":"SFIX Stockholm","name_short":"SFIX","operator":"Netnod","node_type":"ixp","status":"operational","city":"Stockholm","country_iso":"SE","region":"europe","address":null,"floor_space_sqm":null,"power_mw":null,"connected_networks":[],"peeringdb_id":null,"peeringdb_ix_id":null,"website":null,"source":"OpenFiberMap-Seeds","source_url":"https://github.com/Jastman/OpenFiberMap","license":"CC0-1.0","attribution":"OpenFiberMap curated backbone seeds (approximate, CC0)","last_updated":"2026-04-04","notes":"Approximate alignment digitized from publicly-available network maps.","osm_node_id":null}},{"type":"Feature","geometry":{"type":"Point","coordinates":[24.94,60.17]},"properties":{"ofm_layer":"fiber-nodes","node_id":"ixp-fi-ficix-helsinki-01","network_id":"fi-ficix","name":"FICIX Helsinki","name_short":"FICIX","operator":"FICIX","node_type":"ixp","status":"operational","city":"Helsinki","country_iso":"FI","region":"europe","address":null,"floor_space_sqm":null,"power_mw":null,"connected_networks":[],"peeringdb_id":null,"peeringdb_ix_id":null,"website":null,"source":"OpenFiberMap-Seeds","source_url":"https://github.com/Jastman/OpenFiberMap","license":"CC0-1.0","attribution":"OpenFiberMap curated backbone seeds (approximate, CC0)","last_updated":"2026-04-04","notes":"Approximate alignment digitized from publicly-available network maps.","osm_node_id":null}},{"type":"Feature","geometry":{"type":"Point","coordinates":[21.01,52.23]},"properties":{"ofm_layer":"fiber-nodes","node_id":"ixp-pl-plix-warsaw-01","network_id":"pl-plix","name":"PLIX Warsaw","name_short":"PLIX","operator":"PLIX","node_type":"ixp","status":"operational","city":"Warsaw","country_iso":"PL","region":"europe","address":null,"floor_space_sqm":null,"power_mw":null,"connected_networks":[],"peeringdb_id":null,"peeringdb_ix_id":null,"website":null,"source":"OpenFiberMap-Seeds","source_url":"https://github.com/Jastman/OpenFiberMap","license":"CC0-1.0","attribution":"OpenFiberMap curated backbone seeds (approximate, CC0)","last_updated":"2026-04-04","notes":"Approximate alignment digitized from publicly-available network maps.","osm_node_id":null}},{"type":"Feature","geometry":{"type":"Point","coordinates":[9.19,45.46]},"properties":{"ofm_layer":"fiber-nodes","node_id":"ixp-it-milan-internet-exchange-01","network_id":"it-mix","name":"Milan Internet Exchange","name_short":"MIX","operator":"MIX","node_type":"ixp","status":"operational","city":"Milan","country_iso":"IT","region":"europe","address":null,"floor_space_sqm":null,"power_mw":null,"connected_networks":[],"peeringdb_id":null,"peeringdb_ix_id":null,"website":null,"source":"OpenFiberMap-Seeds","source_url":"https://github.com/Jastman/OpenFiberMap","license":"CC0-1.0","attribution":"OpenFiberMap curated backbone seeds (approximate, CC0)","last_updated":"2026-04-04","notes":"Approximate alignment digitized from publicly-available network maps.","osm_node_id":null}},{"type":"Feature","geometry":{"type":"Point","coordinates":[37.62,55.75]},"properties":{"ofm_layer":"fiber-nodes","node_id":"ixp-ru-msk-ix-moscow-01","network_id":"ru-msk-ix","name":"MSK-IX Moscow","name_short":"MSK-IX","operator":"MSK-IX","node_type":"ixp","status":"operational","city":"Moscow","country_iso":"RU","region":"europe","address":null,"floor_space_sqm":null,"power_mw":null,"connected_networks":[],"peeringdb_id":null,"peeringdb_ix_id":null,"website":null,"source":"OpenFiberMap-Seeds","source_url":"https://github.com/Jastman/OpenFiberMap","license":"CC0-1.0","attribution":"OpenFiberMap curated backbone seeds (approximate, CC0)","last_updated":"2026-04-04","notes":"Approximate alignment digitized from publicly-available network maps.","osm_node_id":null}},{"type":"Feature","geometry":{"type":"Point","coordinates":[139.69,35.69]},"properties":{"ofm_layer":"fiber-nodes","node_id":"ixp-jp-jpix-tokyo-01","network_id":"jp-jpix","name":"JPIX Tokyo","name_short":"JPIX","operator":"JPIX","node_type":"ixp","status":"operational","city":"Tokyo","country_iso":"JP","region":"asia-pacific","address":null,"floor_space_sqm":null,"power_mw":null,"connected_networks":[],"peeringdb_id":null,"peeringdb_ix_id":null,"website":null,"source":"OpenFiberMap-Seeds","source_url":"https://github.com/Jastman/OpenFiberMap","license":"CC0-1.0","attribution":"OpenFiberMap curated backbone seeds (approximate, CC0)","last_updated":"2026-04-04","notes":"Approximate alignment digitized from publicly-available network maps.","osm_node_id":null}},{"type":"Feature","geometry":{"type":"Point","coordinates":[135.5,34.69]},"properties":{"ofm_layer":"fiber-nodes","node_id":"ixp-jp-jpnap-osaka-01","network_id":"jp-jpnap","name":"JPNAP Osaka","name_short":"JPNAP-OSA","operator":"JPNAP","node_type":"ixp","status":"operational","city":"Osaka","country_iso":"JP","region":"asia-pacific","address":null,"floor_space_sqm":null,"power_mw":null,"connected_networks":[],"peeringdb_id":null,"peeringdb_ix_id":null,"website":null,"source":"OpenFiberMap-Seeds","source_url":"https://github.com/Jastman/OpenFiberMap","license":"CC0-1.0","attribution":"OpenFiberMap curated backbone seeds (approximate, CC0)","last_updated":"2026-04-04","notes":"Approximate alignment digitized from publicly-available network maps.","osm_node_id":null}},{"type":"Feature","geometry":{"type":"Point","coordinates":[126.98,37.57]},"properties":{"ofm_layer":"fiber-nodes","node_id":"ixp-kr-kinx-seoul-01","network_id":"kr-kinx","name":"KINX Seoul","name_short":"KINX","operator":"KINX","node_type":"ixp","status":"operational","city":"Seoul","country_iso":"KR","region":"asia-pacific","address":null,"floor_space_sqm":null,"power_mw":null,"connected_networks":[],"peeringdb_id":null,"peeringdb_ix_id":null,"website":null,"source":"OpenFiberMap-Seeds","source_url":"https://github.com/Jastman/OpenFiberMap","license":"CC0-1.0","attribution":"OpenFiberMap curated backbone seeds (approximate, CC0)","last_updated":"2026-04-04","notes":"Approximate alignment digitized from publicly-available network maps.","osm_node_id":null}},{"type":"Feature","geometry":{"type":"Point","coordinates":[103.82,1.35]},"properties":{"ofm_layer":"fiber-nodes","node_id":"ixp-sg-sgix-singapore-01","network_id":"sg-sgix","name":"SGIX Singapore","name_short":"SGIX","operator":"SGIX","node_type":"ixp","status":"operational","city":"Singapore","country_iso":"SG","region":"asia-pacific","address":null,"floor_space_sqm":null,"power_mw":null,"connected_networks":[],"peeringdb_id":null,"peeringdb_ix_id":null,"website":null,"source":"OpenFiberMap-Seeds","source_url":"https://github.com/Jastman/OpenFiberMap","license":"CC0-1.0","attribution":"OpenFiberMap curated backbone seeds (approximate, CC0)","last_updated":"2026-04-04","notes":"Approximate alignment digitized from publicly-available network maps.","osm_node_id":null}},{"type":"Feature","geometry":{"type":"Point","coordinates":[114.17,22.28]},"properties":{"ofm_layer":"fiber-nodes","node_id":"ixp-hk-hkix-hong-kong-01","network_id":"hk-hkix","name":"HKIX Hong Kong","name_short":"HKIX","operator":"HKIX","node_type":"ixp","status":"operational","city":"Hong Kong","country_iso":"HK","region":"asia-pacific","address":null,"floor_space_sqm":null,"power_mw":null,"connected_networks":[],"peeringdb_id":null,"peeringdb_ix_id":null,"website":null,"source":"OpenFiberMap-Seeds","source_url":"https://github.com/Jastman/OpenFiberMap","license":"CC0-1.0","attribution":"OpenFiberMap curated backbone seeds (approximate, CC0)","last_updated":"2026-04-04","notes":"Approximate alignment digitized from publicly-available network maps.","osm_node_id":null}},{"type":"Feature","geometry":{"type":"Point","coordinates":[139.7,35.68]},"properties":{"ofm_layer":"fiber-nodes","node_id":"ixp-jp-bbix-tokyo-01","network_id":"jp-bbix","name":"BBIX Tokyo","name_short":"BBIX","operator":"BBIX","node_type":"ixp","status":"operational","city":"Tokyo","country_iso":"JP","region":"asia-pacific","address":null,"floor_space_sqm":null,"power_mw":null,"connected_networks":[],"peeringdb_id":null,"peeringdb_ix_id":null,"website":null,"source":"OpenFiberMap-Seeds","source_url":"https://github.com/Jastman/OpenFiberMap","license":"CC0-1.0","attribution":"OpenFiberMap curated backbone seeds (approximate, CC0)","last_updated":"2026-04-04","notes":"Approximate alignment digitized from publicly-available network maps.","osm_node_id":null}},{"type":"Feature","geometry":{"type":"Point","coordinates":[151.21,-33.87]},"properties":{"ofm_layer":"fiber-nodes","node_id":"ixp-au-equinix-sy-six-01","network_id":"au-equinix","name":"Equinix SY (SIX)","name_short":"SIX-SY","operator":"Equinix","node_type":"ixp","status":"operational","city":"Sydney","country_iso":"AU","region":"asia-pacific","address":null,"floor_space_sqm":null,"power_mw":null,"connected_networks":[],"peeringdb_id":null,"peeringdb_ix_id":null,"website":null,"source":"OpenFiberMap-Seeds","source_url":"https://github.com/Jastman/OpenFiberMap","license":"CC0-1.0","attribution":"OpenFiberMap curated backbone seeds (approximate, CC0)","last_updated":"2026-04-04","notes":"Approximate alignment digitized from publicly-available network maps.","osm_node_id":null}},{"type":"Feature","geometry":{"type":"Point","coordinates":[72.88,19.08]},"properties":{"ofm_layer":"fiber-nodes","node_id":"ixp-in-nixi-mumbai-01","network_id":"in-nixi","name":"NIXI Mumbai","name_short":"NIXI-MUM","operator":"NIXI","node_type":"ixp","status":"operational","city":"Mumbai","country_iso":"IN","region":"asia-pacific","address":null,"floor_space_sqm":null,"power_mw":null,"connected_networks":[],"peeringdb_id":null,"peeringdb_ix_id":null,"website":null,"source":"OpenFiberMap-Seeds","source_url":"https://github.com/Jastman/OpenFiberMap","license":"CC0-1.0","attribution":"OpenFiberMap curated backbone seeds (approximate, CC0)","last_updated":"2026-04-04","notes":"Approximate alignment digitized from publicly-available network maps.","osm_node_id":null}},{"type":"Feature","geometry":{"type":"Point","coordinates":[55.3,25.26]},"properties":{"ofm_layer":"fiber-nodes","node_id":"ixp-ae-uae-ix-dubai-01","network_id":"ae-uae-ix","name":"UAE-IX Dubai","name_short":"UAE-IX","operator":"UAE-IX","node_type":"ixp","status":"operational","city":"Dubai","country_iso":"AE","region":"middle-east","address":null,"floor_space_sqm":null,"power_mw":null,"connected_networks":[],"peeringdb_id":null,"peeringdb_ix_id":null,"website":null,"source":"OpenFiberMap-Seeds","source_url":"https://github.com/Jastman/OpenFiberMap","license":"CC0-1.0","attribution":"OpenFiberMap curated backbone seeds (approximate, CC0)","last_updated":"2026-04-04","notes":"Approximate alignment digitized from publicly-available network maps.","osm_node_id":null}},{"type":"Feature","geometry":{"type":"Point","coordinates":[28.98,41.02]},"properties":{"ofm_layer":"fiber-nodes","node_id":"ixp-tr-treix-istanbul-01","network_id":"tr-treix","name":"TREIX Istanbul","name_short":"TREIX","operator":"TREIX","node_type":"ixp","status":"operational","city":"Istanbul","country_iso":"TR","region":"europe","address":null,"floor_space_sqm":null,"power_mw":null,"connected_networks":[],"peeringdb_id":null,"peeringdb_ix_id":null,"website":null,"source":"OpenFiberMap-Seeds","source_url":"https://github.com/Jastman/OpenFiberMap","license":"CC0-1.0","attribution":"OpenFiberMap curated backbone seeds (approximate, CC0)","last_updated":"2026-04-04","notes":"Approximate alignment digitized from publicly-available network maps.","osm_node_id":null}}]}