{"type":"FeatureCollection","last_updated":"2026-04-02","name":"OpenFiberMap-Nodes-Brazil","description":"Brazil fiber nodes — RNP PoPs, IXPs, landing stations","license":"CC-BY-4.0","attribution":"RNP — Rede Nacional de Pesquisa (CC-BY) — https://www.rnp.br","source":"RNP","features":[{"type":"Feature","geometry":{"type":"Point","coordinates":[-46.63,-23.55]},"properties":{"ofm_layer":"fiber-nodes","node_id":"pop-br-rnp-pop-sao-paulo-01","network_id":"br-rnp","name":"RNP PoP São Paulo","name_short":null,"operator":"RNP","node_type":"pop","status":"operational","city":"São Paulo","country_iso":"BR","region":"americas","address":null,"floor_space_sqm":null,"power_mw":null,"connected_networks":[],"peeringdb_id":null,"peeringdb_ix_id":null,"website":null,"source":"RNP","source_url":"https://www.rnp.br/en/network/infrastructure","license":"CC-BY-4.0","attribution":"RNP — Rede Nacional de Pesquisa (CC-BY) — https://www.rnp.br","last_updated":"2026-04-02","notes":"Coordinates approximate (city PoP location).","osm_node_id":null}},{"type":"Feature","geometry":{"type":"Point","coordinates":[-43.17,-22.91]},"properties":{"ofm_layer":"fiber-nodes","node_id":"pop-br-rnp-pop-rio-de-janeiro-01","network_id":"br-rnp","name":"RNP PoP Rio de Janeiro","name_short":null,"operator":"RNP","node_type":"pop","status":"operational","city":"Rio de Janeiro","country_iso":"BR","region":"americas","address":null,"floor_space_sqm":null,"power_mw":null,"connected_networks":[],"peeringdb_id":null,"peeringdb_ix_id":null,"website":null,"source":"RNP","source_url":"https://www.rnp.br/en/network/infrastructure","license":"CC-BY-4.0","attribution":"RNP — Rede Nacional de Pesquisa (CC-BY) — https://www.rnp.br","last_updated":"2026-04-02","notes":"Coordinates approximate (city PoP location).","osm_node_id":null}},{"type":"Feature","geometry":{"type":"Point","coordinates":[-47.93,-15.78]},"properties":{"ofm_layer":"fiber-nodes","node_id":"pop-br-rnp-pop-brasilia-01","network_id":"br-rnp","name":"RNP PoP Brasília","name_short":null,"operator":"RNP","node_type":"pop","status":"operational","city":"Brasília","country_iso":"BR","region":"americas","address":null,"floor_space_sqm":null,"power_mw":null,"connected_networks":[],"peeringdb_id":null,"peeringdb_ix_id":null,"website":null,"source":"RNP","source_url":"https://www.rnp.br/en/network/infrastructure","license":"CC-BY-4.0","attribution":"RNP — Rede Nacional de Pesquisa (CC-BY) — https://www.rnp.br","last_updated":"2026-04-02","notes":"Coordinates approximate (city PoP location).","osm_node_id":null}},{"type":"Feature","geometry":{"type":"Point","coordinates":[-43.93,-19.92]},"properties":{"ofm_layer":"fiber-nodes","node_id":"pop-br-rnp-pop-belo-horizonte-01","network_id":"br-rnp","name":"RNP PoP Belo Horizonte","name_short":null,"operator":"RNP","node_type":"pop","status":"operational","city":"Belo Horizonte","country_iso":"BR","region":"americas","address":null,"floor_space_sqm":null,"power_mw":null,"connected_networks":[],"peeringdb_id":null,"peeringdb_ix_id":null,"website":null,"source":"RNP","source_url":"https://www.rnp.br/en/network/infrastructure","license":"CC-BY-4.0","attribution":"RNP — Rede Nacional de Pesquisa (CC-BY) — https://www.rnp.br","last_updated":"2026-04-02","notes":"Coordinates approximate (city PoP location).","osm_node_id":null}},{"type":"Feature","geometry":{"type":"Point","coordinates":[-38.52,-12.97]},"properties":{"ofm_layer":"fiber-nodes","node_id":"pop-br-rnp-pop-salvador-01","network_id":"br-rnp","name":"RNP PoP Salvador","name_short":null,"operator":"RNP","node_type":"pop","status":"operational","city":"Salvador","country_iso":"BR","region":"americas","address":null,"floor_space_sqm":null,"power_mw":null,"connected_networks":[],"peeringdb_id":null,"peeringdb_ix_id":null,"website":null,"source":"RNP","source_url":"https://www.rnp.br/en/network/infrastructure","license":"CC-BY-4.0","attribution":"RNP — Rede Nacional de Pesquisa (CC-BY) — https://www.rnp.br","last_updated":"2026-04-02","notes":"Coordinates approximate (city PoP location).","osm_node_id":null}},{"type":"Feature","geometry":{"type":"Point","coordinates":[-34.88,-8.05]},"properties":{"ofm_layer":"fiber-nodes","node_id":"pop-br-rnp-pop-recife-01","network_id":"br-rnp","name":"RNP PoP Recife","name_short":null,"operator":"RNP","node_type":"pop","status":"operational","city":"Recife","country_iso":"BR","region":"americas","address":null,"floor_space_sqm":null,"power_mw":null,"connected_networks":[],"peeringdb_id":null,"peeringdb_ix_id":null,"website":null,"source":"RNP","source_url":"https://www.rnp.br/en/network/infrastructure","license":"CC-BY-4.0","attribution":"RNP — Rede Nacional de Pesquisa (CC-BY) — https://www.rnp.br","last_updated":"2026-04-02","notes":"Coordinates approximate (city PoP location).","osm_node_id":null}},{"type":"Feature","geometry":{"type":"Point","coordinates":[-38.54,-3.72]},"properties":{"ofm_layer":"fiber-nodes","node_id":"pop-br-rnp-pop-fortaleza-01","network_id":"br-rnp","name":"RNP PoP Fortaleza","name_short":null,"operator":"RNP","node_type":"pop","status":"operational","city":"Fortaleza","country_iso":"BR","region":"americas","address":null,"floor_space_sqm":null,"power_mw":null,"connected_networks":[],"peeringdb_id":null,"peeringdb_ix_id":null,"website":null,"source":"RNP","source_url":"https://www.rnp.br/en/network/infrastructure","license":"CC-BY-4.0","attribution":"RNP — Rede Nacional de Pesquisa (CC-BY) — https://www.rnp.br","last_updated":"2026-04-02","notes":"Coordinates approximate (city PoP location).","osm_node_id":null}},{"type":"Feature","geometry":{"type":"Point","coordinates":[-51.23,-30.03]},"properties":{"ofm_layer":"fiber-nodes","node_id":"pop-br-rnp-pop-porto-alegre-01","network_id":"br-rnp","name":"RNP PoP Porto Alegre","name_short":null,"operator":"RNP","node_type":"pop","status":"operational","city":"Porto Alegre","country_iso":"BR","region":"americas","address":null,"floor_space_sqm":null,"power_mw":null,"connected_networks":[],"peeringdb_id":null,"peeringdb_ix_id":null,"website":null,"source":"RNP","source_url":"https://www.rnp.br/en/network/infrastructure","license":"CC-BY-4.0","attribution":"RNP — Rede Nacional de Pesquisa (CC-BY) — https://www.rnp.br","last_updated":"2026-04-02","notes":"Coordinates approximate (city PoP location).","osm_node_id":null}},{"type":"Feature","geometry":{"type":"Point","coordinates":[-49.27,-25.43]},"properties":{"ofm_layer":"fiber-nodes","node_id":"pop-br-rnp-pop-curitiba-01","network_id":"br-rnp","name":"RNP PoP Curitiba","name_short":null,"operator":"RNP","node_type":"pop","status":"operational","city":"Curitiba","country_iso":"BR","region":"americas","address":null,"floor_space_sqm":null,"power_mw":null,"connected_networks":[],"peeringdb_id":null,"peeringdb_ix_id":null,"website":null,"source":"RNP","source_url":"https://www.rnp.br/en/network/infrastructure","license":"CC-BY-4.0","attribution":"RNP — Rede Nacional de Pesquisa (CC-BY) — https://www.rnp.br","last_updated":"2026-04-02","notes":"Coordinates approximate (city PoP location).","osm_node_id":null}},{"type":"Feature","geometry":{"type":"Point","coordinates":[-48.55,-27.6]},"properties":{"ofm_layer":"fiber-nodes","node_id":"pop-br-rnp-pop-florianopolis-01","network_id":"br-rnp","name":"RNP PoP Florianópolis","name_short":null,"operator":"RNP","node_type":"pop","status":"operational","city":"Florianópolis","country_iso":"BR","region":"americas","address":null,"floor_space_sqm":null,"power_mw":null,"connected_networks":[],"peeringdb_id":null,"peeringdb_ix_id":null,"website":null,"source":"RNP","source_url":"https://www.rnp.br/en/network/infrastructure","license":"CC-BY-4.0","attribution":"RNP — Rede Nacional de Pesquisa (CC-BY) — https://www.rnp.br","last_updated":"2026-04-02","notes":"Coordinates approximate (city PoP location).","osm_node_id":null}},{"type":"Feature","geometry":{"type":"Point","coordinates":[-60.02,-3.1]},"properties":{"ofm_layer":"fiber-nodes","node_id":"pop-br-rnp-pop-manaus-01","network_id":"br-rnp","name":"RNP PoP Manaus","name_short":null,"operator":"RNP","node_type":"pop","status":"operational","city":"Manaus","country_iso":"BR","region":"americas","address":null,"floor_space_sqm":null,"power_mw":null,"connected_networks":[],"peeringdb_id":null,"peeringdb_ix_id":null,"website":null,"source":"RNP","source_url":"https://www.rnp.br/en/network/infrastructure","license":"CC-BY-4.0","attribution":"RNP — Rede Nacional de Pesquisa (CC-BY) — https://www.rnp.br","last_updated":"2026-04-02","notes":"Coordinates approximate (city PoP location).","osm_node_id":null}},{"type":"Feature","geometry":{"type":"Point","coordinates":[-48.5,-1.46]},"properties":{"ofm_layer":"fiber-nodes","node_id":"pop-br-rnp-pop-belem-01","network_id":"br-rnp","name":"RNP PoP Belém","name_short":null,"operator":"RNP","node_type":"pop","status":"operational","city":"Belém","country_iso":"BR","region":"americas","address":null,"floor_space_sqm":null,"power_mw":null,"connected_networks":[],"peeringdb_id":null,"peeringdb_ix_id":null,"website":null,"source":"RNP","source_url":"https://www.rnp.br/en/network/infrastructure","license":"CC-BY-4.0","attribution":"RNP — Rede Nacional de Pesquisa (CC-BY) — https://www.rnp.br","last_updated":"2026-04-02","notes":"Coordinates approximate (city PoP location).","osm_node_id":null}},{"type":"Feature","geometry":{"type":"Point","coordinates":[-49.25,-16.69]},"properties":{"ofm_layer":"fiber-nodes","node_id":"pop-br-rnp-pop-goiania-01","network_id":"br-rnp","name":"RNP PoP Goiânia","name_short":null,"operator":"RNP","node_type":"pop","status":"operational","city":"Goiânia","country_iso":"BR","region":"americas","address":null,"floor_space_sqm":null,"power_mw":null,"connected_networks":[],"peeringdb_id":null,"peeringdb_ix_id":null,"website":null,"source":"RNP","source_url":"https://www.rnp.br/en/network/infrastructure","license":"CC-BY-4.0","attribution":"RNP — Rede Nacional de Pesquisa (CC-BY) — https://www.rnp.br","last_updated":"2026-04-02","notes":"Coordinates approximate (city PoP location).","osm_node_id":null}},{"type":"Feature","geometry":{"type":"Point","coordinates":[-46.63,-23.55]},"properties":{"ofm_layer":"fiber-nodes","node_id":"ixp-br-ixbr-sao-paulo-ptt-metro-sp-01","network_id":"br-nicbr-ixbr","name":"IX.br São Paulo (PTT Metro SP)","name_short":"IX.br SP","operator":"NIC.br / IX.br","node_type":"ixp","status":"operational","city":"São Paulo","country_iso":"BR","region":"americas","address":null,"floor_space_sqm":null,"power_mw":null,"connected_networks":[],"peeringdb_id":null,"peeringdb_ix_id":null,"website":null,"source":"RNP","source_url":"https://www.rnp.br/en/network/infrastructure","license":"CC-BY-4.0","attribution":"RNP — Rede Nacional de Pesquisa (CC-BY) — https://www.rnp.br","last_updated":"2026-04-02","notes":"Coordinates approximate (city PoP location).","osm_node_id":null}},{"type":"Feature","geometry":{"type":"Point","coordinates":[-43.17,-22.91]},"properties":{"ofm_layer":"fiber-nodes","node_id":"ixp-br-ixbr-rio-de-janeiro-01","network_id":"br-nicbr-ixbr","name":"IX.br Rio de Janeiro","name_short":"IX.br RJ","operator":"NIC.br / IX.br","node_type":"ixp","status":"operational","city":"Rio de Janeiro","country_iso":"BR","region":"americas","address":null,"floor_space_sqm":null,"power_mw":null,"connected_networks":[],"peeringdb_id":null,"peeringdb_ix_id":null,"website":null,"source":"RNP","source_url":"https://www.rnp.br/en/network/infrastructure","license":"CC-BY-4.0","attribution":"RNP — Rede Nacional de Pesquisa (CC-BY) — https://www.rnp.br","last_updated":"2026-04-02","notes":"Coordinates approximate (city PoP location).","osm_node_id":null}},{"type":"Feature","geometry":{"type":"Point","coordinates":[-38.54,-3.72]},"properties":{"ofm_layer":"fiber-nodes","node_id":"ixp-br-ixbr-fortaleza-01","network_id":"br-nicbr-ixbr","name":"IX.br Fortaleza","name_short":"IX.br FOR","operator":"NIC.br / IX.br","node_type":"ixp","status":"operational","city":"Fortaleza","country_iso":"BR","region":"americas","address":null,"floor_space_sqm":null,"power_mw":null,"connected_networks":[],"peeringdb_id":null,"peeringdb_ix_id":null,"website":null,"source":"RNP","source_url":"https://www.rnp.br/en/network/infrastructure","license":"CC-BY-4.0","attribution":"RNP — Rede Nacional de Pesquisa (CC-BY) — https://www.rnp.br","last_updated":"2026-04-02","notes":"Coordinates approximate (city PoP location).","osm_node_id":null}},{"type":"Feature","geometry":{"type":"Point","coordinates":[-46.41,-24.01]},"properties":{"ofm_layer":"fiber-nodes","node_id":"ls-br-seabras-1-sao-paulo-landing-station-pra-01","network_id":"br-seaborn-networks","name":"Seabras-1 São Paulo Landing Station (Praia Grande)","name_short":"SEABRAS-1","operator":"Seaborn Networks","node_type":"landing-station","status":"operational","city":"Praia Grande","country_iso":"BR","region":"americas","address":null,"floor_space_sqm":null,"power_mw":null,"connected_networks":[],"peeringdb_id":null,"peeringdb_ix_id":null,"website":null,"source":"RNP","source_url":"https://www.rnp.br/en/network/infrastructure","license":"CC-BY-4.0","attribution":"RNP — Rede Nacional de Pesquisa (CC-BY) — https://www.rnp.br","last_updated":"2026-04-02","notes":"Coordinates approximate (city PoP location).","osm_node_id":null}},{"type":"Feature","geometry":{"type":"Point","coordinates":[-38.52,-3.74]},"properties":{"ofm_layer":"fiber-nodes","node_id":"ls-br-ellalink-fortaleza-landing-station-01","network_id":"br-ellalink","name":"EllaLink Fortaleza Landing Station","name_short":"EllaLink FOR","operator":"EllaLink","node_type":"landing-station","status":"operational","city":"Fortaleza","country_iso":"BR","region":"americas","address":null,"floor_space_sqm":null,"power_mw":null,"connected_networks":[],"peeringdb_id":null,"peeringdb_ix_id":null,"website":null,"source":"RNP","source_url":"https://www.rnp.br/en/network/infrastructure","license":"CC-BY-4.0","attribution":"RNP — Rede Nacional de Pesquisa (CC-BY) — https://www.rnp.br","last_updated":"2026-04-02","notes":"Coordinates approximate (city PoP location).","osm_node_id":null}},{"type":"Feature","geometry":{"type":"Point","coordinates":[-38.5,-3.73]},"properties":{"ofm_layer":"fiber-nodes","node_id":"ls-br-monet-fortaleza-landing-station-01","network_id":"br-google-antel","name":"Monet Fortaleza Landing Station","name_short":"Monet FOR","operator":"Google / Antel","node_type":"landing-station","status":"operational","city":"Fortaleza","country_iso":"BR","region":"americas","address":null,"floor_space_sqm":null,"power_mw":null,"connected_networks":[],"peeringdb_id":null,"peeringdb_ix_id":null,"website":null,"source":"RNP","source_url":"https://www.rnp.br/en/network/infrastructure","license":"CC-BY-4.0","attribution":"RNP — Rede Nacional de Pesquisa (CC-BY) — https://www.rnp.br","last_updated":"2026-04-02","notes":"Coordinates approximate (city PoP location).","osm_node_id":null}}]}