{"type":"FeatureCollection","last_updated":"2026-04-04","name":"OpenFiberMap-Spans-GlobalBackbone","description":"Approximate fiber backbone spans: NA, Europe, Asia-Pacific, ME","license":"CC0-1.0","attribution":"OpenFiberMap curated backbone seeds (approximate, CC0)","source":"OpenFiberMap-Seeds","features":[{"type":"Feature","geometry":{"type":"LineString","coordinates":[[-71.06,42.36],[-74.0,40.71],[-77.04,38.91],[-84.39,33.75],[-87.63,41.88],[-93.26,44.98],[-97.75,30.25],[-104.99,39.74],[-112.05,33.45],[-118.24,34.05],[-122.33,47.61]]},"properties":{"ofm_layer":"fiber-spans","span_id":"us-internet2--0001","network_id":"us-internet2","name":"Internet2 East–Midwest–West Backbone","operator":"Internet2","operator_id":null,"country_iso":"US","countries":["US"],"region":"americas","status":"deployed","burial_type":"underground","length_km":14000,"capacity_gbps":8800,"capacity_class":"ultra-high","fiber_pairs":null,"fiber_type":null,"phase_id":null,"phase_name":null,"construction_start":null,"ready_for_service":null,"funders":[],"contracts":[],"source":"OpenFiberMap-Seeds","source_url":"https://github.com/Jastman/OpenFiberMap","license":"CC0-1.0","attribution":"OpenFiberMap curated backbone seeds (approximate, CC0)","last_updated":"2026-04-04","notes":"Approximate alignment digitized from publicly-available network maps.","ofds_span_id":null,"osm_way_id":null}},{"type":"Feature","geometry":{"type":"LineString","coordinates":[[-74.0,40.71],[-75.17,39.95],[-80.0,40.44],[-83.0,42.33],[-87.63,41.88],[-93.26,44.98],[-104.67,50.44],[-114.07,51.05],[-123.12,49.25],[-122.33,47.61]]},"properties":{"ofm_layer":"fiber-spans","span_id":"us-internet2-north--0002","network_id":"us-internet2-north","name":"Internet2 Northern Loop","operator":"Internet2","operator_id":null,"country_iso":"US","countries":["US","CA"],"region":"americas","status":"deployed","burial_type":"underground","length_km":8000,"capacity_gbps":4400,"capacity_class":"ultra-high","fiber_pairs":null,"fiber_type":null,"phase_id":null,"phase_name":null,"construction_start":null,"ready_for_service":null,"funders":[],"contracts":[],"source":"OpenFiberMap-Seeds","source_url":"https://github.com/Jastman/OpenFiberMap","license":"CC0-1.0","attribution":"OpenFiberMap curated backbone seeds (approximate, CC0)","last_updated":"2026-04-04","notes":"Approximate alignment digitized from publicly-available network maps.","ofds_span_id":null,"osm_way_id":null}},{"type":"Feature","geometry":{"type":"LineString","coordinates":[[-74.0,40.71],[-80.0,40.44],[-84.39,33.75],[-90.07,29.95],[-97.75,30.25],[-105.0,39.74],[-118.24,34.05],[-122.42,37.77],[-122.33,47.61],[-111.89,40.76],[-87.63,41.88],[-74.0,40.71]]},"properties":{"ofm_layer":"fiber-spans","span_id":"us-lumen--0003","network_id":"us-lumen","name":"Lumen US National Backbone","operator":"Lumen Technologies","operator_id":null,"country_iso":"US","countries":["US"],"region":"americas","status":"deployed","burial_type":"underground","length_km":30000,"capacity_gbps":100,"capacity_class":"high","fiber_pairs":null,"fiber_type":null,"phase_id":null,"phase_name":null,"construction_start":null,"ready_for_service":null,"funders":[],"contracts":[],"source":"OpenFiberMap-Seeds","source_url":"https://github.com/Jastman/OpenFiberMap","license":"CC0-1.0","attribution":"OpenFiberMap curated backbone seeds (approximate, CC0)","last_updated":"2026-04-04","notes":"Approximate alignment digitized from publicly-available network maps.","ofds_span_id":null,"osm_way_id":null}},{"type":"Feature","geometry":{"type":"LineString","coordinates":[[-52.73,47.56],[-63.58,44.65],[-71.21,46.81],[-73.57,45.5],[-79.38,43.65],[-81.25,42.98],[-89.75,48.38],[-97.14,49.9],[-104.62,50.45],[-113.49,53.54],[-123.12,49.25]]},"properties":{"ofm_layer":"fiber-spans","span_id":"ca-bell--0004","network_id":"ca-bell","name":"Bell Canada National Backbone","operator":"Bell Canada","operator_id":null,"country_iso":"CA","countries":["CA"],"region":"americas","status":"deployed","burial_type":"underground","length_km":18000,"capacity_gbps":100,"capacity_class":"high","fiber_pairs":null,"fiber_type":null,"phase_id":null,"phase_name":null,"construction_start":null,"ready_for_service":null,"funders":[],"contracts":[],"source":"OpenFiberMap-Seeds","source_url":"https://github.com/Jastman/OpenFiberMap","license":"CC0-1.0","attribution":"OpenFiberMap curated backbone seeds (approximate, CC0)","last_updated":"2026-04-04","notes":"Approximate alignment digitized from publicly-available network maps.","ofds_span_id":null,"osm_way_id":null}},{"type":"Feature","geometry":{"type":"LineString","coordinates":[[-99.13,19.43],[-103.35,20.67],[-110.98,29.09],[-106.08,28.63],[-104.67,24.02],[-100.39,25.67],[-96.13,19.18],[-90.53,14.65]]},"properties":{"ofm_layer":"fiber-spans","span_id":"mx-telmex--0005","network_id":"mx-telmex","name":"Telmex National Backbone","operator":"Telmex","operator_id":null,"country_iso":"MX","countries":["MX"],"region":"americas","status":"deployed","burial_type":"underground","length_km":9000,"capacity_gbps":40,"capacity_class":"medium","fiber_pairs":null,"fiber_type":null,"phase_id":null,"phase_name":null,"construction_start":null,"ready_for_service":null,"funders":[],"contracts":[],"source":"OpenFiberMap-Seeds","source_url":"https://github.com/Jastman/OpenFiberMap","license":"CC0-1.0","attribution":"OpenFiberMap curated backbone seeds (approximate, CC0)","last_updated":"2026-04-04","notes":"Approximate alignment digitized from publicly-available network maps.","ofds_span_id":null,"osm_way_id":null}},{"type":"Feature","geometry":{"type":"LineString","coordinates":[[-0.13,51.51],[2.35,48.85],[4.9,52.37],[4.4,51.22],[12.57,55.68],[10.0,53.55],[9.99,53.55],[13.4,52.52],[16.37,48.21],[14.42,50.08],[18.92,49.82],[21.01,52.23],[28.98,41.02],[30.52,50.45],[37.62,55.75],[24.94,60.17],[18.07,59.33],[10.75,59.91],[12.57,55.68]]},"properties":{"ofm_layer":"fiber-spans","span_id":"eu-geant-ring--0006","network_id":"eu-geant-ring","name":"GÉANT European Core Ring","operator":"GÉANT","operator_id":null,"country_iso":"NL","countries":["GB","FR","NL","BE","DK","DE","AT","CZ","PL","TR","UA","RU","FI","SE","NO"],"region":"europe","status":"deployed","burial_type":"underground","length_km":20000,"capacity_gbps":500,"capacity_class":"high","fiber_pairs":null,"fiber_type":null,"phase_id":null,"phase_name":null,"construction_start":null,"ready_for_service":null,"funders":[],"contracts":[],"source":"OpenFiberMap-Seeds","source_url":"https://github.com/Jastman/OpenFiberMap","license":"CC0-1.0","attribution":"OpenFiberMap curated backbone seeds (approximate, CC0)","last_updated":"2026-04-04","notes":"Approximate alignment digitized from publicly-available network maps.","ofds_span_id":null,"osm_way_id":null}},{"type":"Feature","geometry":{"type":"LineString","coordinates":[[2.35,48.85],[1.56,41.39],[-3.7,40.42],[-8.62,41.15],[2.17,41.38],[12.48,41.89],[14.42,40.85],[23.73,37.98],[26.1,44.44],[18.92,49.82]]},"properties":{"ofm_layer":"fiber-spans","span_id":"eu-geant-south--0007","network_id":"eu-geant-south","name":"GÉANT Southern Europe","operator":"GÉANT","operator_id":null,"country_iso":"IT","countries":["FR","ES","PT","IT","GR","RO"],"region":"europe","status":"deployed","burial_type":"underground","length_km":8000,"capacity_gbps":200,"capacity_class":"high","fiber_pairs":null,"fiber_type":null,"phase_id":null,"phase_name":null,"construction_start":null,"ready_for_service":null,"funders":[],"contracts":[],"source":"OpenFiberMap-Seeds","source_url":"https://github.com/Jastman/OpenFiberMap","license":"CC0-1.0","attribution":"OpenFiberMap curated backbone seeds (approximate, CC0)","last_updated":"2026-04-04","notes":"Approximate alignment digitized from publicly-available network maps.","ofds_span_id":null,"osm_way_id":null}},{"type":"Feature","geometry":{"type":"LineString","coordinates":[[-0.13,51.51],[-2.24,53.48],[-4.25,55.86],[-3.18,55.95],[-3.2,51.48],[-5.93,54.6],[-6.27,53.33]]},"properties":{"ofm_layer":"fiber-spans","span_id":"gb-janet--0008","network_id":"gb-janet","name":"UK JANET National Research Network","operator":"Jisc (JANET)","operator_id":null,"country_iso":"GB","countries":["GB"],"region":"europe","status":"deployed","burial_type":"underground","length_km":4000,"capacity_gbps":200,"capacity_class":"high","fiber_pairs":null,"fiber_type":null,"phase_id":null,"phase_name":null,"construction_start":null,"ready_for_service":null,"funders":[],"contracts":[],"source":"OpenFiberMap-Seeds","source_url":"https://github.com/Jastman/OpenFiberMap","license":"CC0-1.0","attribution":"OpenFiberMap curated backbone seeds (approximate, CC0)","last_updated":"2026-04-04","notes":"Approximate alignment digitized from publicly-available network maps.","ofds_span_id":null,"osm_way_id":null}},{"type":"Feature","geometry":{"type":"LineString","coordinates":[[13.4,52.52],[9.99,53.55],[7.47,51.51],[6.96,50.94],[8.68,50.11],[9.18,48.78],[11.58,48.14],[12.1,47.8],[13.04,47.49],[14.42,50.08],[13.4,52.52]]},"properties":{"ofm_layer":"fiber-spans","span_id":"de-telekom--0009","network_id":"de-telekom","name":"Deutsche Telekom National Backbone","operator":"Deutsche Telekom","operator_id":null,"country_iso":"DE","countries":["DE","AT"],"region":"europe","status":"deployed","burial_type":"underground","length_km":6000,"capacity_gbps":200,"capacity_class":"high","fiber_pairs":null,"fiber_type":null,"phase_id":null,"phase_name":null,"construction_start":null,"ready_for_service":null,"funders":[],"contracts":[],"source":"OpenFiberMap-Seeds","source_url":"https://github.com/Jastman/OpenFiberMap","license":"CC0-1.0","attribution":"OpenFiberMap curated backbone seeds (approximate, CC0)","last_updated":"2026-04-04","notes":"Approximate alignment digitized from publicly-available network maps.","ofds_span_id":null,"osm_way_id":null}},{"type":"Feature","geometry":{"type":"LineString","coordinates":[[2.35,48.85],[5.37,43.3],[7.27,43.71],[2.17,41.38],[1.44,43.6],[3.88,43.6],[4.83,45.74],[5.72,45.19],[6.13,46.2],[2.35,48.85]]},"properties":{"ofm_layer":"fiber-spans","span_id":"fr-orange--0010","network_id":"fr-orange","name":"Orange France Backbone","operator":"Orange","operator_id":null,"country_iso":"FR","countries":["FR"],"region":"europe","status":"deployed","burial_type":"underground","length_km":8000,"capacity_gbps":200,"capacity_class":"high","fiber_pairs":null,"fiber_type":null,"phase_id":null,"phase_name":null,"construction_start":null,"ready_for_service":null,"funders":[],"contracts":[],"source":"OpenFiberMap-Seeds","source_url":"https://github.com/Jastman/OpenFiberMap","license":"CC0-1.0","attribution":"OpenFiberMap curated backbone seeds (approximate, CC0)","last_updated":"2026-04-04","notes":"Approximate alignment digitized from publicly-available network maps.","ofds_span_id":null,"osm_way_id":null}},{"type":"Feature","geometry":{"type":"LineString","coordinates":[[21.01,52.23],[18.67,50.3],[16.93,52.41],[14.55,53.43],[18.64,54.35],[18.92,49.82],[22.0,49.68],[24.03,49.84],[23.0,51.0],[21.01,52.23]]},"properties":{"ofm_layer":"fiber-spans","span_id":"pl-psnc--0011","network_id":"pl-psnc","name":"Poland National Backbone","operator":"PSNC / Orange Poland","operator_id":null,"country_iso":"PL","countries":["PL"],"region":"europe","status":"deployed","burial_type":"underground","length_km":4000,"capacity_gbps":100,"capacity_class":"high","fiber_pairs":null,"fiber_type":null,"phase_id":null,"phase_name":null,"construction_start":null,"ready_for_service":null,"funders":[],"contracts":[],"source":"OpenFiberMap-Seeds","source_url":"https://github.com/Jastman/OpenFiberMap","license":"CC0-1.0","attribution":"OpenFiberMap curated backbone seeds (approximate, CC0)","last_updated":"2026-04-04","notes":"Approximate alignment digitized from publicly-available network maps.","ofds_span_id":null,"osm_way_id":null}},{"type":"Feature","geometry":{"type":"LineString","coordinates":[[10.75,59.91],[18.07,59.33],[24.94,60.17],[25.01,60.17],[28.13,61.49],[27.96,62.6],[25.47,65.01],[25.72,64.54],[28.0,65.72],[25.47,65.01],[15.59,58.41],[12.57,55.68],[10.4,63.43],[10.75,59.91]]},"properties":{"ofm_layer":"fiber-spans","span_id":"eu-nordunet--0012","network_id":"eu-nordunet","name":"NORDUnet Nordic Backbone","operator":"NORDUnet","operator_id":null,"country_iso":"SE","countries":["NO","SE","FI","DK"],"region":"europe","status":"deployed","burial_type":"underground","length_km":7000,"capacity_gbps":200,"capacity_class":"high","fiber_pairs":null,"fiber_type":null,"phase_id":null,"phase_name":null,"construction_start":null,"ready_for_service":null,"funders":[],"contracts":[],"source":"OpenFiberMap-Seeds","source_url":"https://github.com/Jastman/OpenFiberMap","license":"CC0-1.0","attribution":"OpenFiberMap curated backbone seeds (approximate, CC0)","last_updated":"2026-04-04","notes":"Approximate alignment digitized from publicly-available network maps.","ofds_span_id":null,"osm_way_id":null}},{"type":"Feature","geometry":{"type":"LineString","coordinates":[[141.35,43.06],[141.35,42.8],[140.47,40.82],[141.15,39.7],[140.88,38.27],[140.37,36.56],[139.69,35.69],[138.38,34.98],[136.9,35.17],[135.5,34.69],[130.4,33.58],[129.88,32.74]]},"properties":{"ofm_layer":"fiber-spans","span_id":"jp-ntt--0013","network_id":"jp-ntt","name":"NTT Japan National Backbone","operator":"NTT Communications","operator_id":null,"country_iso":"JP","countries":["JP"],"region":"asia-pacific","status":"deployed","burial_type":"underground","length_km":5000,"capacity_gbps":1000,"capacity_class":"ultra-high","fiber_pairs":null,"fiber_type":null,"phase_id":null,"phase_name":null,"construction_start":null,"ready_for_service":null,"funders":[],"contracts":[],"source":"OpenFiberMap-Seeds","source_url":"https://github.com/Jastman/OpenFiberMap","license":"CC0-1.0","attribution":"OpenFiberMap curated backbone seeds (approximate, CC0)","last_updated":"2026-04-04","notes":"Approximate alignment digitized from publicly-available network maps.","ofds_span_id":null,"osm_way_id":null}},{"type":"Feature","geometry":{"type":"LineString","coordinates":[[126.98,37.57],[127.73,36.33],[128.6,35.87],[129.08,35.15],[127.49,34.49],[126.71,35.18],[126.98,37.57],[128.62,38.19]]},"properties":{"ofm_layer":"fiber-spans","span_id":"kr-kt--0014","network_id":"kr-kt","name":"KT Korea National Backbone","operator":"KT Corporation","operator_id":null,"country_iso":"KR","countries":["KR"],"region":"asia-pacific","status":"deployed","burial_type":"underground","length_km":2500,"capacity_gbps":1000,"capacity_class":"ultra-high","fiber_pairs":null,"fiber_type":null,"phase_id":null,"phase_name":null,"construction_start":null,"ready_for_service":null,"funders":[],"contracts":[],"source":"OpenFiberMap-Seeds","source_url":"https://github.com/Jastman/OpenFiberMap","license":"CC0-1.0","attribution":"OpenFiberMap curated backbone seeds (approximate, CC0)","last_updated":"2026-04-04","notes":"Approximate alignment digitized from publicly-available network maps.","ofds_span_id":null,"osm_way_id":null}},{"type":"Feature","geometry":{"type":"LineString","coordinates":[[116.4,39.9],[121.47,31.23],[114.31,30.58],[113.27,23.13],[108.37,22.82],[104.07,30.66],[103.82,36.06],[106.27,38.47],[87.62,43.79],[91.13,29.65],[102.73,25.05],[114.1,22.39]]},"properties":{"ofm_layer":"fiber-spans","span_id":"cn-chinanet--0015","network_id":"cn-chinanet","name":"ChinaNet National Backbone","operator":"China Telecom (ChinaNet)","operator_id":null,"country_iso":"CN","countries":["CN"],"region":"asia-pacific","status":"deployed","burial_type":"underground","length_km":20000,"capacity_gbps":1000,"capacity_class":"ultra-high","fiber_pairs":null,"fiber_type":null,"phase_id":null,"phase_name":null,"construction_start":null,"ready_for_service":null,"funders":[],"contracts":[],"source":"OpenFiberMap-Seeds","source_url":"https://github.com/Jastman/OpenFiberMap","license":"CC0-1.0","attribution":"OpenFiberMap curated backbone seeds (approximate, CC0)","last_updated":"2026-04-04","notes":"Approximate alignment digitized from publicly-available network maps.","ofds_span_id":null,"osm_way_id":null}},{"type":"Feature","geometry":{"type":"LineString","coordinates":[[116.4,39.9],[112.55,37.87],[108.95,34.26],[103.82,36.06],[101.74,36.56],[114.51,38.05],[117.19,34.27],[120.16,30.29]]},"properties":{"ofm_layer":"fiber-spans","span_id":"cn-chinaunicom--0016","network_id":"cn-chinaunicom","name":"China Unicom National Backbone","operator":"China Unicom","operator_id":null,"country_iso":"CN","countries":["CN"],"region":"asia-pacific","status":"deployed","burial_type":"underground","length_km":18000,"capacity_gbps":1000,"capacity_class":"ultra-high","fiber_pairs":null,"fiber_type":null,"phase_id":null,"phase_name":null,"construction_start":null,"ready_for_service":null,"funders":[],"contracts":[],"source":"OpenFiberMap-Seeds","source_url":"https://github.com/Jastman/OpenFiberMap","license":"CC0-1.0","attribution":"OpenFiberMap curated backbone seeds (approximate, CC0)","last_updated":"2026-04-04","notes":"Approximate alignment digitized from publicly-available network maps.","ofds_span_id":null,"osm_way_id":null}},{"type":"Feature","geometry":{"type":"LineString","coordinates":[[103.82,1.35],[103.77,1.29],[104.9,3.14],[101.69,3.14],[100.33,5.41],[99.6,6.9],[100.52,13.75],[102.08,14.7],[102.55,17.98],[100.52,13.75],[104.9,10.77],[106.7,10.75],[108.22,16.07],[106.63,10.82]]},"properties":{"ofm_layer":"fiber-spans","span_id":"sea-backbone--0017","network_id":"sea-backbone","name":"Southeast Asia Terrestrial Backbone","operator":"SEA Backbone Consortium","operator_id":null,"country_iso":"SG","countries":["SG","MY","TH","KH","VN"],"region":"asia-pacific","status":"deployed","burial_type":"underground","length_km":10000,"capacity_gbps":100,"capacity_class":"high","fiber_pairs":null,"fiber_type":null,"phase_id":null,"phase_name":null,"construction_start":null,"ready_for_service":null,"funders":[],"contracts":[],"source":"OpenFiberMap-Seeds","source_url":"https://github.com/Jastman/OpenFiberMap","license":"CC0-1.0","attribution":"OpenFiberMap curated backbone seeds (approximate, CC0)","last_updated":"2026-04-04","notes":"Approximate alignment digitized from publicly-available network maps.","ofds_span_id":null,"osm_way_id":null}},{"type":"Feature","geometry":{"type":"LineString","coordinates":[[72.88,19.08],[72.58,23.03],[73.02,26.92],[76.82,30.73],[77.21,28.63],[85.83,20.27],[80.28,13.08],[77.59,12.98],[76.65,8.52],[74.83,15.86],[78.49,17.38],[80.95,26.85],[88.37,22.57],[91.74,26.18],[79.09,21.1],[72.88,19.08]]},"properties":{"ofm_layer":"fiber-spans","span_id":"in-bsnl--0018","network_id":"in-bsnl","name":"BSNL NOFN India National Backbone","operator":"BSNL National Optical Fibre Network","operator_id":null,"country_iso":"IN","countries":["IN"],"region":"asia-pacific","status":"deployed","burial_type":"underground","length_km":25000,"capacity_gbps":100,"capacity_class":"high","fiber_pairs":null,"fiber_type":null,"phase_id":null,"phase_name":null,"construction_start":null,"ready_for_service":null,"funders":[],"contracts":[],"source":"OpenFiberMap-Seeds","source_url":"https://github.com/Jastman/OpenFiberMap","license":"CC0-1.0","attribution":"OpenFiberMap curated backbone seeds (approximate, CC0)","last_updated":"2026-04-04","notes":"Approximate alignment digitized from publicly-available network maps.","ofds_span_id":null,"osm_way_id":null}},{"type":"Feature","geometry":{"type":"LineString","coordinates":[[151.21,-33.87],[153.02,-27.47],[144.96,-37.81],[149.13,-35.28],[138.6,-34.93],[130.85,-12.46],[115.86,-31.95],[145.77,-16.93],[146.8,-19.26],[130.0,-25.0],[133.75,-23.7],[138.6,-34.93]]},"properties":{"ofm_layer":"fiber-spans","span_id":"au-telstra--0019","network_id":"au-telstra","name":"Telstra National Backbone","operator":"Telstra","operator_id":null,"country_iso":"AU","countries":["AU"],"region":"asia-pacific","status":"deployed","burial_type":"underground","length_km":14000,"capacity_gbps":100,"capacity_class":"high","fiber_pairs":null,"fiber_type":null,"phase_id":null,"phase_name":null,"construction_start":null,"ready_for_service":null,"funders":[],"contracts":[],"source":"OpenFiberMap-Seeds","source_url":"https://github.com/Jastman/OpenFiberMap","license":"CC0-1.0","attribution":"OpenFiberMap curated backbone seeds (approximate, CC0)","last_updated":"2026-04-04","notes":"Approximate alignment digitized from publicly-available network maps.","ofds_span_id":null,"osm_way_id":null}},{"type":"Feature","geometry":{"type":"LineString","coordinates":[[55.3,25.26],[54.36,24.47],[50.6,26.22],[51.53,25.29],[46.68,24.68],[44.8,24.0],[39.83,21.42],[36.57,22.95]]},"properties":{"ofm_layer":"fiber-spans","span_id":"me-etisalat--0020","network_id":"me-etisalat","name":"Gulf States Fiber Backbone","operator":"e&/Etisalat","operator_id":null,"country_iso":"AE","countries":["AE","BH","QA","SA","YE"],"region":"middle-east","status":"deployed","burial_type":"underground","length_km":4000,"capacity_gbps":100,"capacity_class":"high","fiber_pairs":null,"fiber_type":null,"phase_id":null,"phase_name":null,"construction_start":null,"ready_for_service":null,"funders":[],"contracts":[],"source":"OpenFiberMap-Seeds","source_url":"https://github.com/Jastman/OpenFiberMap","license":"CC0-1.0","attribution":"OpenFiberMap curated backbone seeds (approximate, CC0)","last_updated":"2026-04-04","notes":"Approximate alignment digitized from publicly-available network maps.","ofds_span_id":null,"osm_way_id":null}},{"type":"Feature","geometry":{"type":"LineString","coordinates":[[28.98,41.02],[32.85,39.93],[35.85,36.9],[36.4,41.0],[43.4,38.74],[44.0,37.0],[42.0,38.0],[38.97,40.93],[32.85,39.93],[26.1,38.46],[28.98,41.02]]},"properties":{"ofm_layer":"fiber-spans","span_id":"tr-turktelekom--0021","network_id":"tr-turktelekom","name":"Türk Telekom National Backbone","operator":"Türk Telekom","operator_id":null,"country_iso":"TR","countries":["TR"],"region":"europe","status":"deployed","burial_type":"underground","length_km":6000,"capacity_gbps":100,"capacity_class":"high","fiber_pairs":null,"fiber_type":null,"phase_id":null,"phase_name":null,"construction_start":null,"ready_for_service":null,"funders":[],"contracts":[],"source":"OpenFiberMap-Seeds","source_url":"https://github.com/Jastman/OpenFiberMap","license":"CC0-1.0","attribution":"OpenFiberMap curated backbone seeds (approximate, CC0)","last_updated":"2026-04-04","notes":"Approximate alignment digitized from publicly-available network maps.","ofds_span_id":null,"osm_way_id":null}},{"type":"Feature","geometry":{"type":"LineString","coordinates":[[34.8,32.08],[34.79,31.87],[35.2,31.77],[35.0,30.62],[34.9,29.56]]},"properties":{"ofm_layer":"fiber-spans","span_id":"il-bezeq--0022","network_id":"il-bezeq","name":"Bezeq Israel National Backbone","operator":"Bezeq","operator_id":null,"country_iso":"IL","countries":["IL"],"region":"middle-east","status":"deployed","burial_type":"underground","length_km":600,"capacity_gbps":100,"capacity_class":"high","fiber_pairs":null,"fiber_type":null,"phase_id":null,"phase_name":null,"construction_start":null,"ready_for_service":null,"funders":[],"contracts":[],"source":"OpenFiberMap-Seeds","source_url":"https://github.com/Jastman/OpenFiberMap","license":"CC0-1.0","attribution":"OpenFiberMap curated backbone seeds (approximate, CC0)","last_updated":"2026-04-04","notes":"Approximate alignment digitized from publicly-available network maps.","ofds_span_id":null,"osm_way_id":null}},{"type":"Feature","geometry":{"type":"LineString","coordinates":[[30.32,59.93],[37.62,55.75],[44.0,56.33],[49.12,55.79],[56.85,53.2],[60.6,56.84],[73.37,54.99],[82.93,55.03],[92.9,56.01],[104.29,52.29],[113.5,53.71],[129.73,62.03],[143.0,46.96],[131.89,43.11],[132.92,46.96]]},"properties":{"ofm_layer":"fiber-spans","span_id":"ru-rostelecom--0023","network_id":"ru-rostelecom","name":"Rostelecom Western Russia Backbone","operator":"Rostelecom","operator_id":null,"country_iso":"RU","countries":["RU"],"region":"europe","status":"deployed","burial_type":"underground","length_km":15000,"capacity_gbps":200,"capacity_class":"high","fiber_pairs":null,"fiber_type":null,"phase_id":null,"phase_name":null,"construction_start":null,"ready_for_service":null,"funders":[],"contracts":[],"source":"OpenFiberMap-Seeds","source_url":"https://github.com/Jastman/OpenFiberMap","license":"CC0-1.0","attribution":"OpenFiberMap curated backbone seeds (approximate, CC0)","last_updated":"2026-04-04","notes":"Approximate alignment digitized from publicly-available network maps.","ofds_span_id":null,"osm_way_id":null}},{"type":"Feature","geometry":{"type":"LineString","coordinates":[[30.52,50.45],[32.0,49.5],[34.0,49.0],[36.23,50.0],[37.75,47.55],[34.97,45.95],[33.37,44.61],[31.17,47.03],[28.83,47.0],[25.93,47.55],[24.03,49.84],[22.0,49.68],[24.03,49.84],[30.52,50.45]]},"properties":{"ofm_layer":"fiber-spans","span_id":"ua-ukrtelecom--0024","network_id":"ua-ukrtelecom","name":"Ukrtelecom National Backbone","operator":"Ukrtelecom","operator_id":null,"country_iso":"UA","countries":["UA"],"region":"europe","status":"deployed","burial_type":"underground","length_km":6000,"capacity_gbps":40,"capacity_class":"medium","fiber_pairs":null,"fiber_type":null,"phase_id":null,"phase_name":null,"construction_start":null,"ready_for_service":null,"funders":[],"contracts":[],"source":"OpenFiberMap-Seeds","source_url":"https://github.com/Jastman/OpenFiberMap","license":"CC0-1.0","attribution":"OpenFiberMap curated backbone seeds (approximate, CC0)","last_updated":"2026-04-04","notes":"Approximate alignment digitized from publicly-available network maps.","ofds_span_id":null,"osm_way_id":null}}]}